stationId,addressType,addressName,addressNumber,latitude,longitude,altitude,districtId,districtName,neighborhoodId,neighborhoodName,postCode,capacity
ab90b530,GRAN VIA,CORTS CATALANES,760,41.39797,2.18010,16,2,Eixample,5,El Fort Pienc,8013,46
49db2800,CARRER,ROGER DE FLOR,126,41.39548,2.17719,17,2,Eixample,5,El Fort Pienc,8013,28
015dbfda,CARRER,NÀPOLS,82,41.39415,2.18133,11,2,Eixample,5,El Fort Pienc,8013,27
13c5ac4e,CARRER,RIBES,13,41.39331,2.18124,8,2,Eixample,5,El Fort Pienc,8013,21
3c63118f,PASSEIG,LLUIS COMPANYS,11,41.39110,2.18017,7,1,Ciutat Vella,4,"Sant Pere, Santa Caterina I La Ribera",8018,39
b624d018,PASSEIG,LLUIS COMPANYS,18,41.39142,2.18056,10,1,Ciutat Vella,4,"Sant Pere, Santa Caterina I La Ribera",8018,39
70549290,PASSEIG,PUJADES,1,41.38888,2.18329,6,1,Ciutat Vella,4,"Sant Pere, Santa Caterina I La Ribera",8003,27
a403c13c,PASSEIG,PUJADES,2,41.38913,2.18348,6,1,Ciutat Vella,4,"Sant Pere, Santa Caterina I La Ribera",8003,27
3fe09388,AVINGUDA,MARQUÉS DE L'ARGENTERA,13,41.38454,2.18492,5,1,Ciutat Vella,4,"Sant Pere, Santa Caterina I La Ribera",8003,27
11d8ae98,CARRER,60,25,41.34677,2.14362,0,3,Sants-Montjuïc,12,La Marina Del Prat Vermell,8040,43
7d6b25e7,PASSEIG,MARITIM,11,41.38239,2.19429,0,1,Ciutat Vella,3,La Barceloneta,8003,35
df319bca,PASSEIG,MARITIM,23,41.38336,2.19462,7,1,Ciutat Vella,3,La Barceloneta,8003,26
b23b9e10,CARRER,MARINA,25,41.38814,2.19555,7,1,Ciutat Vella,67,La Vila Olímpica Del Poblenou,8005,53
7235c23a,AVINGUDA,MARQUÉS DE L'ARGENTERA,15,41.38484,2.18508,5,1,Ciutat Vella,4,"Sant Pere, Santa Caterina I La Ribera",8003,27
483222b7,CARRER,DIPUTACIÓ,272,41.39161,2.16890,25,2,Eixample,7,La Dreta De L'eixample,8009,27
5dfbf689,AVINGUDA,MERIDIANA,47,41.39826,2.18665,14,2,Eixample,66,El Parc I La Llacuna Del Poblenou,8013,42
cf1dc149,CARRER,ROSSELLÓ,453,41.40605,2.17404,38,2,Eixample,6,La Sagrada Família,8025,27
5b468529,CARRER,ROSSELLÓ,354,41.40314,2.17079,40,2,Eixample,6,La Sagrada Família,8025,30
e8f8643b,CARRER,CARTAGENA,308,41.41031,2.17573,46,2,Eixample,6,La Sagrada Família,8025,18
741bd1f5,CARRER,SANT ANTONI MARIA CLARET,214,41.41084,2.17405,52,2,Eixample,6,La Sagrada Família,8025,21
1e1bcac4,CARRER,SARDENYA,292,41.40169,2.17576,28,2,Eixample,6,La Sagrada Família,8013,19
4db182e1,CARRER,BRUC,45,41.39246,2.17173,21,2,Eixample,7,La Dreta De L'eixample,8010,27
59e53c85,CARRER,MARINA,199,41.40057,2.17888,23,2,Eixample,5,El Fort Pienc,8013,39
f375dee2,CARRER,BRUC,102,41.39540,2.16819,29,2,Eixample,7,La Dreta De L'eixample,8009,21
1fa7409b,CARRER,DOS DE MAIG,230,41.40716,2.18207,22,10,Sant Martí,64,El Camp De L'arpa Del Clot,8013,18
26308e35,CARRER,PROVENÇA,322,41.39675,2.16463,38,2,Eixample,7,La Dreta De L'eixample,8037,17
1b1ed1c0,CARRER,SARDENYA,362,41.40551,2.17064,46,2,Eixample,6,La Sagrada Família,8025,22
ea804678,CARRER,PROVENÇA,388,41.40106,2.16994,34,2,Eixample,7,La Dreta De L'eixample,8025,23
f9b9915d,CARRER,CASTILLEJOS,184,41.40218,2.18298,13,2,Eixample,5,El Fort Pienc,8013,29
b4ae2d58,PLAÇA,DEL MAR,,41.37480,2.18890,4,1,Ciutat Vella,3,La Barceloneta,8003,18
638422a4,,LA BARCELONETA (CN BARCELONETA),,41.37369,2.18892,4,1,Ciutat Vella,3,La Barceloneta,8003,35
b5ce5ab4,CARRER,PONTEVEDRA,58,41.37686,2.19067,4,1,Ciutat Vella,3,La Barceloneta,8003,21
6a715bb4,CARRER,SANT PERE MÉS ALT,4,41.38710,2.17533,9,1,Ciutat Vella,4,"Sant Pere, Santa Caterina I La Ribera",8003,21
12bf7b51,CARRER,SANT RAMON DE PENYAFORT,1,41.41348,2.22069,5,10,Sant Martí,70,El Besòs I El Maresme,8930,54
0c4062fc,AVINGUDA,DE LA CATEDRAL,6,41.38506,2.17668,8,1,Ciutat Vella,2,El Barri Gòtic,8002,21
20a36dfd,PASSEIG,DE COLOM (VIA LAIETANA),,41.38062,2.18206,4,1,Ciutat Vella,4,"Sant Pere, Santa Caterina I La Ribera",8002,24
3ac8723b,PLAÇA,PAU VILA (D),,41.38104,2.18657,4,1,Ciutat Vella,3,La Barceloneta,8039,44
74a9302a,CARRER,DOCTOR AIGUADER,2,41.38233,2.18709,6,1,Ciutat Vella,3,La Barceloneta,8039,18
c58c4e27,PLAÇA,POETA BOSCÀ,,41.37932,2.18990,5,1,Ciutat Vella,3,La Barceloneta,8003,25
42e1fb4c,CARRER,CIUTAT DE GRANADA,168,41.40451,2.18988,4,10,Sant Martí,66,El Parc I La Llacuna Del Poblenou,8018,24
40e8141c,CARRER,CLOT,1,41.40638,2.18744,13,10,Sant Martí,65,El Clot,8018,27
7d244e05,AVINGUDA,MERIDIANA,71,41.40147,2.18676,0,2,Eixample,5,El Fort Pienc,8018,21
aabf65e3,CARRER,SARDENYA,66,41.39146,2.18937,5,10,Sant Martí,67,La Vila Olímpica Del Poblenou,8005,27
c48e7eae,CARRER,VILLENA,1,41.38860,2.19219,7,10,Sant Martí,67,La Vila Olímpica Del Poblenou,8005,54
0f33673b,CARRER,RAMON TRIAS FARGAS,21,41.39021,2.19040,5,10,Sant Martí,67,La Vila Olímpica Del Poblenou,8005,47
52e8a987,AVINGUDA,MERIDIANA,40,41.39606,2.18719,11,10,Sant Martí,66,El Parc I La Llacuna Del Poblenou,8018,21
1ef14eda,CARRER,ROSA SENSAT,20,41.39107,2.19657,5,10,Sant Martí,67,La Vila Olímpica Del Poblenou,8005,21
be723ba8,AVINGUDA,PARAL.LEL,54,41.37511,2.17093,8,1,Ciutat Vella,1,El Raval,8004,18
bbe3c6d1,PLAÇA,VICENÇ MARTORELL,,41.38426,2.16925,12,1,Ciutat Vella,1,El Raval,8001,20
7b1dc96e,PLAÇA,SANT MIQUEL,4,41.38170,2.17729,11,1,Ciutat Vella,2,El Barri Gòtic,8002,32
f302efe0,PLAÇA,CARLES PI I SUNYER,,41.38508,2.17401,10,1,Ciutat Vella,2,El Barri Gòtic,8002,21
c07dc12d,CARRER,SANT OLEGUER,2,41.37753,2.17073,6,1,Ciutat Vella,1,El Raval,8001,19
3af62db1,,LA RAMBLA,56,41.38019,2.17448,7.38,1,Ciutat Vella,2,El Barri Gòtic,8002,27
2252546b,,PORTAL DE SANTA MADRONA,2,41.37707,2.17582,5,1,Ciutat Vella,1,El Raval,8001,27
8879127c,,LA RAMBLA,1,41.37632,2.17697,4,1,Ciutat Vella,2,El Barri Gòtic,8002,21
c27a4111,CARRER,VALLDONZELLA,2,41.38457,2.16626,0,1,Ciutat Vella,1,El Raval,8001,21
89301927,CARRER,AGUSTÍ DURAN I SANPERE,1,41.38138,2.16807,0,1,Ciutat Vella,1,El Raval,8001,22
49a8a25c,RAMBLA,CATALUNYA,47,41.39026,2.16403,27,2,Eixample,7,La Dreta De L'eixample,8007,27
972c53af,CARRER,ARAGÓ,288,41.39352,2.16679,26,2,Eixample,7,La Dreta De L'eixample,8009,26
0aab8b80,PLAÇA,CATALUNYA,5,41.38723,2.16881,19,2,Eixample,7,La Dreta De L'eixample,8002,25
8be9542b,PLAÇA,CATALUNYA,7,41.38654,2.16942,19,2,Eixample,7,La Dreta De L'eixample,8002,27
ffd41ed3,PLAÇA,CATALUNYA,10,41.38749,2.16906,21,2,Eixample,7,La Dreta De L'eixample,8002,21
11f4e9a5,PLAÇA,CATALUNYA,10,41.38769,2.16965,20,2,Eixample,7,La Dreta De L'eixample,8002,21
05821a7f,GRAN VIA,DE LES CORTS CATALANES,609,41.38932,2.16783,23,2,Eixample,7,La Dreta De L'eixample,8007,16
59b25985,CARRER,ROCAFORT,214,41.38528,2.14548,37,2,Eixample,9,La Nova Esquerra De L'eixample,8029,24
2702c1a9,RAMBLA,CATALUNYA,133,41.39538,2.15729,44,2,Eixample,7,La Dreta De L'eixample,8008,27
353044ad,CARRER,DE LA MARINA,25,41.38850,2.19507,7,1,Ciutat Vella,67,La Vila Olímpica Del Poblenou,8005,42
b5242993,CARRER,COMTE URGELL,23,41.38039,2.16065,15,2,Eixample,10,Sant Antoni,8011,27
0ff9e80f,CARRER,FLORIDABLANCA,145,41.38194,2.16291,16,2,Eixample,10,Sant Antoni,8011,27
72d1b532,CARRER,PROVENÇA,215,41.39277,2.15862,37,2,Eixample,7,La Dreta De L'eixample,8008,27
ae210a2d,CARRER,ENRIC GRANADOS,93,41.39213,2.15635,39,2,Eixample,8,L'antiga Esquerra De L'eixample,8008,26
4323b953,AVINGUDA,JOSEP TARRADELLAS,133,41.39000,2.14321,47,2,Eixample,19,Les Corts,8029,15
a7c1bce6,AVINGUDA,JOSEP TARRADELLAS,58,41.38500,2.14291,40,2,Eixample,9,La Nova Esquerra De L'eixample,8029,21
633f9386,CARRER,CÒRSEGA,216,41.39176,2.15321,40,2,Eixample,8,L'antiga Esquerra De L'eixample,8036,32
7d7857b6,AVINGUDA,FRANCESC CAMBÓ,10,41.38556,2.17732,8,1,Ciutat Vella,4,"Sant Pere, Santa Caterina I La Ribera",8003,25
d54e155b,PLAÇA,UNIVERSITAT,,41.38564,2.16343,21,2,Eixample,10,Sant Antoni,8011,27
53d58fe0,PLAÇA,UNIVERSITAT,,41.38550,2.16347,21,2,Eixample,10,Sant Antoni,8007,24
8e8dfe64,CARRER,ENRIC GRANADOS,35,41.38966,2.15990,31,2,Eixample,8,L'antiga Esquerra De L'eixample,8007,25
e9ed6440,CARRER,VILAMARÍ,61,41.37907,2.14905,24,2,Eixample,9,La Nova Esquerra De L'eixample,8015,20
7202c323,CARRER,CALABRIA,112,41.38031,2.15443,20,2,Eixample,9,La Nova Esquerra De L'eixample,8015,40
dd61312e,CARRER,CALABRIA,158,41.38216,2.15206,25,2,Eixample,9,La Nova Esquerra De L'eixample,8015,23
e4763d79,CARRER,COMTE D'URGELL,75,41.38302,2.15716,20,2,Eixample,9,La Nova Esquerra De L'eixample,8011,27
56e4c619,AVINGUDA,PARAL.LEL,146,41.37518,2.15923,15,2,Eixample,10,Sant Antoni,8015,40
9c57c69d,CARRER,VILADOMAT,2,41.37557,2.16293,12,2,Eixample,10,Sant Antoni,8015,27
21f7c8c5,CARRER,LONDRES,101,41.39361,2.15077,45,2,Eixample,8,L'antiga Esquerra De L'eixample,8036,20
2265fc92,CARRER,ROSSELLÓ,101,41.38719,2.14913,36,2,Eixample,9,La Nova Esquerra De L'eixample,8036,23
d2753dbb,CARRER,ROSSELLÓ,108,41.38829,2.15087,36,2,Eixample,8,L'antiga Esquerra De L'eixample,8036,17
a55ac49c,CARRER,COMTE D'URGELL,43,41.38125,2.15947,16,2,Eixample,10,Sant Antoni,8011,35
698dcb5a,CARRER,PROVENÇA,241,41.39388,2.16016,37,2,Eixample,7,La Dreta De L'eixample,8008,18
9f93d582,GRAN VIA,DE LES CORTS CATALANES,375,41.37579,2.14991,26,2,Eixample,10,Sant Antoni,8015,47
8cfb7383,CARRER,TARRAGONA,103,41.37639,2.14732,28,3,Sants-Montjuïc,15,Hostafrancs,8014,33
544e6387,GRAN VIA,DE LES CORTS CATALANES,368,41.37410,2.14819,24,3,Sants-Montjuïc,15,Hostafrancs,8010,21
ffae33c3,CARRER,TARRAGONA,141,41.37796,2.14504,29,3,Sants-Montjuïc,15,Hostafrancs,8014,21
17b00931,CARRER,VIRIAT,43,41.38060,2.14086,31,3,Sants-Montjuïc,18,Sants,8014,21
dd389f18,CARRER,VIRIAT,53,41.38082,2.14153,30,3,Sants-Montjuïc,18,Sants,8014,21
dfc4f79f,CARRER,TARRAGONA,159,41.37936,2.14386,29,3,Sants-Montjuïc,15,Hostafrancs,8014,22
aec247fc,AVINGUDA,DIAGONAL,602,41.39287,2.14341,53,5,Sarrià-sant Gervasi,26,Sant Gervasi - Galvany,8021,23
70369a38,AVINGUDA,DIAGONAL,612,41.39256,2.14221,54,5,Sarrià-sant Gervasi,26,Sant Gervasi - Galvany,8021,24
33c00b2e,CARRER,ARAGÓ,629,41.41009,2.18844,16,10,Sant Martí,65,El Clot,8026,21
c957ae93,CARRER,VALÈNCIA,621,41.41080,2.18724,16,10,Sant Martí,65,El Clot,8026,25
980151bb,,RDA. DE SANT PERE,26,41.38949,2.17425,15,2,Eixample,7,La Dreta De L'eixample,8010,21
26d6be25,PLAÇA,JOANIC - C,59,41.40551,2.16225,56,6,Gràcia,31,La Vila De Gràcia,8024,20
d39f0332,,TRAV. DE GRÀCIA,92,41.39823,2.15310,56,5,Sarrià-sant Gervasi,26,Sant Gervasi - Galvany,8006,20
6f030361,CARRER,INDÚSTRIA,10,41.40220,2.16490,45,6,Gràcia,32,El Camp D'en Grassot I Gràcia Nova,8037,21
80374b39,CARRER,LONDRES,53,41.39126,2.14763,43,2,Eixample,8,L'antiga Esquerra De L'eixample,8036,24
abf7ceaa,AVINGUDA,ROMA,136,41.38525,2.15508,25,2,Eixample,8,L'antiga Esquerra De L'eixample,8011,17
968b111d,CARRER,ARAGÓ,147,41.38475,2.15467,21,2,Eixample,9,La Nova Esquerra De L'eixample,8015,19
c83ccb58,CARRER,FLORIDABLANCA,49,41.37767,2.15723,13,2,Eixample,10,Sant Antoni,8015,20
7b24c5b1,,RONDA DE SANT PAU,51,41.37731,2.16467,11,2,Eixample,10,Sant Antoni,8015,34
96fd9a39,PLAÇA,JEAN GENET,1,41.37673,2.17400,5,1,Ciutat Vella,1,El Raval,8001,20
d7ea0124,AVINGUDA,MARQUÉS DE L'ARGENTERA,3,41.38359,2.18417,4,1,Ciutat Vella,4,"Sant Pere, Santa Caterina I La Ribera",8003,21
20f3504d,CARRER,DEL DR. AIGUADER,72,41.38383,2.19147,5,1,Ciutat Vella,3,La Barceloneta,8003,35
a793d735,CARRER,ROSA SENSAT,12,41.39060,2.19723,5,10,Sant Martí,67,La Vila Olímpica Del Poblenou,8005,21
d515c6f6,CARRER,PUJADES,3,41.39212,2.18749,6,10,Sant Martí,66,El Parc I La Llacuna Del Poblenou,8018,27
e29c1879,CARRER,SARDENYA,178,41.39671,2.18250,12,2,Eixample,5,El Fort Pienc,8013,39
ff8eb3d7,CARRER,LEPANT,278,41.40470,2.17651,28,2,Eixample,6,La Sagrada Família,8013,21
d6b079b6,CARRER,CASTILLEJOS,258,41.40645,2.17853,28,2,Eixample,6,La Sagrada Família,8013,21
f16dda33,CARRER,NÀPOLS,344,41.40544,2.16631,54,6,Gràcia,32,El Camp D'en Grassot I Gràcia Nova,8025,33
7864a737,CARRER,PROVENÇA,317,41.39881,2.16673,34,2,Eixample,7,La Dreta De L'eixample,8037,21
4c7e2f31,CARRER,NOVA  BOCANA,,41.37024,2.18781,3,1,Ciutat Vella,3,La Barceloneta,8039,30
12be2c02,PASSEIG,MARITIM,31,41.38347,2.19473,7,1,Ciutat Vella,3,La Barceloneta,8003,29
073fc27d,PASSEIG,DE COLOM,,41.38062,2.18228,4,1,Ciutat Vella,2,El Barri Gòtic,8002,23
d9baa38b,CARRER,ARAGÓ,659,41.41206,2.19075,16,10,Sant Martí,65,El Clot,8026,27
e3c0b638,RAMBLA,DE GUIPÚSCOA,43,41.41584,2.19597,10,10,Sant Martí,72,Sant Martí De Provençals,8020,43
3936acf3,CARRER,MANSO,46,41.37704,2.16113,13,2,Eixample,10,Sant Antoni,8015,23
6f91a12c,RAMBLA,DE GUIPÚSCOA,103,41.42001,2.20166,8,10,Sant Martí,73,La Verneda I La Pau,8020,24
9c60c4dd,RAMBLA,DE GUIPÚSCOA,158,41.42279,2.20603,11,10,Sant Martí,73,La Verneda I La Pau,8020,29
455f40b2,,VALENTÍ ALMIRALL,,41.40847,2.19204,6,10,Sant Martí,65,El Clot,8018,27
f802dc20,GRAN VIA,DE LES CORTS CATALANES,902,41.40750,2.19301,6,10,Sant Martí,71,Provençals Del Poblenou,8018,16
f1c9ed81,CARRER,BAC DE RODA,157,41.41130,2.19872,6,10,Sant Martí,71,Provençals Del Poblenou,8018,21
0895d88e,GRAN VIA,DE LES CORTS CATALANES,981,41.41204,2.19726,8,10,Sant Martí,72,Sant Martí De Provençals,8018,21
b73ebf04,GRAN VIA,DE LES CORTS CATALANES,1062,41.41392,2.20179,8,10,Sant Martí,71,Provençals Del Poblenou,8020,31
2f8cf84f,GRAN VIA,DE LES CORTS CATALANES,1041,41.41458,2.20081,7,10,Sant Martí,72,Sant Martí De Provençals,8020,25
c2e6b9a2,GRAN VIA,DE LES CORTS CATALANES,1118,41.41679,2.20583,7,10,Sant Martí,71,Provençals Del Poblenou,8020,21
9cf2763b,GRAN VIA,DE LES CORTS CATALANES,1131,41.41839,2.20581,7,10,Sant Martí,73,La Verneda I La Pau,8020,35
e595466b,CARRER,VILADOMAT,122,41.38087,2.15599,19,2,Eixample,9,La Nova Esquerra De L'eixample,8015,27
30e1dfa7,CARRER,BILBAO,174,41.40902,2.19541,7,10,Sant Martí,71,Provençals Del Poblenou,8018,31
c96dc807,CARRER,SANCHO DE ÁVILA,104,41.40037,2.19241,4,10,Sant Martí,66,El Parc I La Llacuna Del Poblenou,8018,52
d84e9b91,CARRER,SANCHO DE ÁVILA,170,41.40279,2.19561,4,10,Sant Martí,68,El Poblenou,8018,28
a4845920,CARRER,CASTELLA,28,41.40562,2.19771,4,10,Sant Martí,68,El Poblenou,8018,27
af353f89,CARRER,PERE IV,301,41.40934,2.20244,4,10,Sant Martí,71,Provençals Del Poblenou,8020,27
bb854058,CARRER,PERE IV,488,41.41489,2.20718,4,10,Sant Martí,71,Provençals Del Poblenou,8019,24
19ecf1b3,RAMBLA,PRIM,79,41.41604,2.21249,5,10,Sant Martí,70,El Besòs I El Maresme,8019,33
c743b830,,RONDA DE SANT PAU,79,41.37834,2.16331,12,2,Eixample,10,Sant Antoni,8015,27
7e6a316b,CARRER,PUJADES,57,41.39586,2.19295,4,10,Sant Martí,66,El Parc I La Llacuna Del Poblenou,8019,26
c3c45841,CARRER,ESPRONCEDA,124,41.40659,2.20302,4,10,Sant Martí,68,El Poblenou,8005,27
6963b90a,CARRER,PALLARS,182,41.40034,2.19691,3,10,Sant Martí,68,El Poblenou,8005,31
e94d3b05,CARRER,PUJADES,121,41.39933,2.19741,3,10,Sant Martí,68,El Poblenou,8005,39
c51d6dbf,CARRER,PUJADES,173,41.40186,2.20077,3,10,Sant Martí,68,El Poblenou,8005,23
583829d8,CARRER,PUJADES,191,41.40262,2.20176,2,10,Sant Martí,68,El Poblenou,8005,32
2b4d593e,CARRER,PUJADES,311,41.40701,2.20744,4,10,Sant Martí,69,Diagonal Mar I El Front Marítim Del Poblenou,8019,32
1f51f570,CARRER,SELVA DE MAR,46,41.40913,2.20881,4,10,Sant Martí,69,Diagonal Mar I El Front Marítim Del Poblenou,8019,27
68bbb7d5,CARRER,LLULL,465,41.41323,2.21776,4,10,Sant Martí,70,El Besòs I El Maresme,8019,33
696db06a,RAMBLA,DE PRIM,19,41.41166,2.21833,4,10,Sant Martí,70,El Besòs I El Maresme,8019,31
807b20ca,AVINGUDA,DIAGONAL,26,41.41108,2.21631,4,10,Sant Martí,70,El Besòs I El Maresme,8019,36
9690e588,AVINGUDA,D'EDUARD MARISTANY,1,41.41097,2.21937,4,10,Sant Martí,70,El Besòs I El Maresme,8019,33
f38c7c53,CARRER,RAMON TURRÓ,91,41.39530,2.19659,4,10,Sant Martí,67,La Vila Olímpica Del Poblenou,8005,27
f4953768,CARRER,RAMON TURRÓ,292,41.40385,2.20842,3,10,Sant Martí,69,Diagonal Mar I El Front Marítim Del Poblenou,8005,27
14db8335,AVINGUDA,ICÀRIA,202,41.39421,2.20087,3,10,Sant Martí,67,La Vila Olímpica Del Poblenou,8005,27
fbc87a4d,CARRER,INDEPENDÈNCIA,379,41.41183,2.17788,46,10,Sant Martí,64,El Camp De L'arpa Del Clot,8026,27
80e47065,CARRER,DEL DOCTOR TRUETA,222,41.39921,2.20414,3,10,Sant Martí,68,El Poblenou,8005,27
d9c599a5,CARRER,BILBAO,2,41.40083,2.20664,3,10,Sant Martí,68,El Poblenou,8005,27
c4f1ceef,CARRER,BAC DE RODA,11,41.40233,2.21057,3,10,Sant Martí,68,El Poblenou,8005,21
53192d6d,,SELVA DE MAR,,41.40536,2.21358,5,10,Sant Martí,69,Diagonal Mar I El Front Marítim Del Poblenou,8019,27
725dc405,AVINGUDA,LITORAL,40,41.38966,2.19995,6,10,Sant Martí,67,La Vila Olímpica Del Poblenou,8005,54
592be830,AVINGUDA,LITORAL,172,41.39198,2.20371,5,10,Sant Martí,67,La Vila Olímpica Del Poblenou,8005,54
02ce0817,,LITORAL,84,41.39790,2.20884,8,10,Sant Martí,68,El Poblenou,8005,26
f79c2028,PASSEIG,DE GARCIA FÀRIA,21,41.40065,2.21019,6,10,Sant Martí,69,Diagonal Mar I El Front Marítim Del Poblenou,8005,27
2b66e2e3,CARRER,LLULL,309,41.40652,2.20912,4,10,Sant Martí,69,Diagonal Mar I El Front Marítim Del Poblenou,8019,27
ddb2d6ae,PASSEIG,DE GARCIA FÀRIA,37,41.40321,2.2136,6,10,Sant Martí,69,Diagonal Mar I El Front Marítim Del Poblenou,8019,31
56289433,CARRER,ROSSELLÓ,557,41.41107,2.18097,33,10,Sant Martí,64,El Camp De L'arpa Del Clot,8026,38
5b51310c,PASSEIG,DE GARCIA FÀRIA,85,41.40536,2.21620,7,10,Sant Martí,69,Diagonal Mar I El Front Marítim Del Poblenou,8019,27
a993e28e,GRAN VIA,DE LES CORTS CATALANES,179,41.36755,2.13882,14,3,Sants-Montjuïc,16,La Bordeta,8014,50
377d1ee7,CARRER,SANT PERE D´ABANTO,2,41.37136,2.14356,18,3,Sants-Montjuïc,15,Hostafrancs,8014,33
7c8d7d1b,CARRER,GAVÀ,1,41.37236,2.14194,18,3,Sants-Montjuïc,16,La Bordeta,8014,30
e84d1d51,CARRER,QUETZAL,22,41.36754,2.13423,22,3,Sants-Montjuïc,16,La Bordeta,8014,27
f9f92ef2,,GAVÀ,81,41.37037,2.13894,20,3,Sants-Montjuïc,16,La Bordeta,8014,17
51e67e69,,CONSELL DE CENT,6,41.37555,2.14390,27,3,Sants-Montjuïc,15,Hostafrancs,8014,26
213ebc2f,CARRER,DE SANT PAU,89,41.37688,2.16982,5,1,Ciutat Vella,1,El Raval,8001,15
f4d0318a,PASSEIG,SANT ANTONI,,41.37569,2.13585,30,3,Sants-Montjuïc,18,Sants,8014,27
f384cc0b,CARRER,BRUC,130,41.39698,2.16618,34,2,Eixample,7,La Dreta De L'eixample,8037,28
13944e26,AVINGUDA,LITORAL,72,41.39614,2.20784,6,10,Sant Martí,68,El Poblenou,8005,29
419bd071,CARRER,ENTENÇA,137,41.38195,2.14747,15,2,Eixample,9,La Nova Esquerra De L'eixample,8015,37
f8772881,CARRER,JOAN GÜELL,50,41.37863,2.13354,33,3,Sants-Montjuïc,18,Sants,8028,21
2240cc14,CARRER,FÍGOLS,1,41.38129,2.12899,41,4,Les Corts,19,Les Corts,8028,27
5b831ac9,CARRER,JOAN GÜELL,98,41.38120,2.13236,38,4,Les Corts,19,Les Corts,8028,24
781bf0e0,CARRER,VALLESPIR,130,41.38213,2.13541,38,4,Les Corts,19,Les Corts,8014,27
efae4db4,CARRER,BERLÍN,38,41.38326,2.13926,38,3,Sants-Montjuïc,18,Sants,8029,27
076721ea,CARRER,GELABERT,1,41.38715,2.14109,47,4,Les Corts,19,Les Corts,8029,27
9cf9b4a9,CARRER,VALLESPIR,194,41.38471,2.13343,48,4,Les Corts,19,Les Corts,8014,27
d178a64c,CARRER,MEJÍA LEQUERICA,2,41.38197,2.12686,47,4,Les Corts,20,La Maternitat I Sant Ramon,8028,27
7592bf60,CARRER,JOAN GÜELL,174,41.38390,2.13128,47,4,Les Corts,19,Les Corts,8028,24
6036a906,CARRER,NUMÀNCIA,136,41.38780,2.13442,55,4,Les Corts,19,Les Corts,8029,24
b455fb84,CARRER,DE LES CORTS,20,41.38544,2.12887,52,4,Les Corts,19,Les Corts,8028,27
4f40136f,AVINGUDA,DIAGONAL,668,41.38870,2.12857,64,4,Les Corts,19,Les Corts,8034,33
edfb7d6e,AVINGUDA,DIAGONAL,672,41.38803,2.12562,63,4,Les Corts,21,Pedralbes,8034,33
230975a4,CARRER,DE CAN SEGALAR,4,41.38794,2.13059,0,4,Les Corts,19,Les Corts,8028,37
977c3a43,AVINGUDA,DIAGONAL,650,41.38979,2.13286,62,4,Les Corts,19,Les Corts,8017,33
85b792eb,AVINGUDA,DIAGONAL,634,41.39084,2.13657,62,4,Les Corts,19,Les Corts,8017,25
f1674f10,AVINGUDA,DIAGONAL,630,41.39151,2.13906,59,5,Sarrià-sant Gervasi,26,Sant Gervasi - Galvany,8017,33
74ed4c16,CARRER,DIPUTACIÓ,200,41.38574,2.16105,23,2,Eixample,8,L'antiga Esquerra De L'eixample,8011,26
b72d451a,CARRER,VILARDELL,18,41.37452,2.14225,22,3,Sants-Montjuïc,15,Hostafrancs,8014,31
79a98f2c,CARRER,SANCHO DE ÁVILA,60,41.39875,2.19021,5,10,Sant Martí,66,El Parc I La Llacuna Del Poblenou,8018,28
89926791,AVINGUDA,SARRIÀ,163,41.39223,2.13092,75,4,Les Corts,19,Les Corts,8017,24
7091d8f7,CARRER,SANTA FE DE NOU MÈXIC,2,41.39358,2.13458,70,5,Sarrià-sant Gervasi,24,Les Tres Torres,8017,33
f35271d7,CARRER,JOSÉ DE  AGULLÓ,9,41.39520,2.13348,72,5,Sarrià-sant Gervasi,24,Les Tres Torres,8017,25
6d750be0,CARRER,GANDUXER,29,41.39393,2.13803,65,5,Sarrià-sant Gervasi,26,Sant Gervasi - Galvany,8021,21
1139cdf3,CARRER,MADRAZO,131,41.39678,2.14455,63,5,Sarrià-sant Gervasi,26,Sant Gervasi - Galvany,8021,27
57d82c81,CARRER,RECTOR UBACH,24,41.39857,2.14408,75,5,Sarrià-sant Gervasi,26,Sant Gervasi - Galvany,8021,27
9c2dcbe5,CARRER,CONSELL DE CENT,566,41.40403,2.18314,17,2,Eixample,6,La Sagrada Família,8013,39
fbf339ba,CARRER,LAFORJA,74,41.39761,2.14717,67,5,Sarrià-sant Gervasi,26,Sant Gervasi - Galvany,8021,26
cc8f9863,CARRER,TUSET,19,41.39609,2.15131,53,5,Sarrià-sant Gervasi,26,Sant Gervasi - Galvany,8006,26
f55e0a35,,GRAN DE GRÀCIA,155,41.40253,2.15247,68,6,Gràcia,31,La Vila De Gràcia,8012,24
6a115b23,CARRER,DEL CANÓ,1,41.40132,2.15744,58,6,Gràcia,31,La Vila De Gràcia,8012,27
0d3e77b7,CARRER,DE BONAVISTA,14,41.39834,2.15982,48,6,Gràcia,31,La Vila De Gràcia,8012,36
d156b3cc,CARRER,GIRONA,176,41.39999,2.16445,40,2,Eixample,7,La Dreta De L'eixample,8037,26
2c90a617,CARRER,VILADOMAT,200,41.38481,2.15080,28,2,Eixample,9,La Nova Esquerra De L'eixample,8029,25
27a0f06d,CARRER,MONTMANY,1,41.40356,2.16093,52,6,Gràcia,31,La Vila De Gràcia,8012,27
2f78a37c,CARRER,DEL TORRENT DE LES FLORS,102,41.40784,2.15867,69,6,Gràcia,31,La Vila De Gràcia,8024,18
cd2b7e19,PLAÇA,DEL NORD,5,41.40684,2.15583,73,6,Gràcia,31,La Vila De Gràcia,8024,21
6e445757,CARRER,DE LA SANTACREU,2,41.40509,2.15691,68,6,Gràcia,31,La Vila De Gràcia,8024,28
64668a77,CARRER,DE NIL FABRA,16,41.40593,2.15179,80,6,Gràcia,31,La Vila De Gràcia,8012,26
f347a06d,CARRER,PAU ALSINA,54,41.40920,2.16400,65,6,Gràcia,32,El Camp D'en Grassot I Gràcia Nova,8025,23
46318a9e,CARRER,PALAUDÀRIES,2,41.37449,2.17302,6,3,Sants-Montjuïc,11,El Poble-sec,8004,27
11eb7079,CARRER,NOU DE LA RAMBLA,164,41.37196,2.16678,21,3,Sants-Montjuïc,11,El Poble-sec,8004,27
f34fe04c,PASSEIG,DE L´EXPOSICIÓ,38,41.37153,2.16220,31,3,Sants-Montjuïc,11,El Poble-sec,8004,27
9c248673,AVINGUDA,PARAL.LEL,98,41.37517,2.16589,10,2,Eixample,11,El Poble-sec,8015,21
009b21cc,AVINGUDA,PARAL.LEL,194,41.37511,2.15230,24,2,Eixample,10,Sant Antoni,8015,26
7f297e57,CARRER,RIUS I TAULET,4,41.37274,2.15391,33,3,Sants-Montjuïc,11,El Poble-sec,8004,27
0b4afa42,CARRER,ESPRONCEDA,298,41.41588,2.19084,16,9,Sant Andreu,63,Navas,8027,27
92a53d05,CARRER,INDÚSTRIA,329,41.41729,2.18447,31,9,Sant Andreu,63,Navas,8027,35
e2c8deed,CARRER,JOSEP ESTIVILL,32,41.41755,2.18771,23,9,Sant Andreu,63,Navas,8027,27
86dd3e6b,CARRER,TEODOR LLORENTE,1,41.41917,2.18018,44,7,Horta-Guinardó,35,El Guinardó,8041,33
cc5f0831,CARRER,RAMON ALBÓ,1,41.42445,2.17731,56,9,Sant Andreu,62,El Congrés I Els Indians,8027,27
68dca585,CARRER,ALEXANDRE GALÍ,1,41.42397,2.18123,42,9,Sant Andreu,62,El Congrés I Els Indians,8027,27
4ca0e94b,CARRER,FELIPE II,214,41.42692,2.17862,44,9,Sant Andreu,62,El Congrés I Els Indians,8027,27
3dc6c4c6,,LA RAMBLA,101,41.38266,2.17170,10,1,Ciutat Vella,1,El Raval,8002,27
ad986cf9,CARRER,GARCILASO,77,41.42284,2.18663,30,9,Sant Andreu,61,La Sagrera,8027,18
3491e643,CARRER,FELIPE II,112,41.42192,2.18491,32,9,Sant Andreu,61,La Sagrera,8027,32
6c638a6f,CARRER,PALÈNCIA,31,41.41821,2.19040,18,9,Sant Andreu,61,La Sagrera,8027,27
c8cf8a59,CARRER,ANTILLES,8,41.42508,2.18728,21,9,Sant Andreu,61,La Sagrera,8027,27
d46b655a,CARRER,PORTUGAL,3,41.42582,2.19120,25,9,Sant Andreu,61,La Sagrera,8027,27
83370753,CARRER,CARDENAL TEDESCHINI,13,41.42536,2.18520,35,9,Sant Andreu,61,La Sagrera,8027,33
6655c847,RAMBLA,DE L'ONZE DE SETEMBRE,31,41.42989,2.19321,24,9,Sant Andreu,60,Sant Andreu,8030,33
27008256,CARRER,DE L'ONZE DE SETEMBRE,37,41.42986,2.19220,25,9,Sant Andreu,60,Sant Andreu,8030,27
edc12d5d,RAMBLA,DE L'ONZE DE SETEMBRE,69,41.42999,2.19024,26,9,Sant Andreu,60,Sant Andreu,8030,26
2cfff42a,CARRER,IRLANDA,34,41.4315,2.18579,30,9,Sant Andreu,60,Sant Andreu,8030,15
1a78d37c,CARRER,MALATS,28,41.43612,2.18944,25,9,Sant Andreu,60,Sant Andreu,8030,32
1e745fb8,CARRER,SANT ADRIÀ,2,41.43393,2.18965,27,9,Sant Andreu,60,Sant Andreu,8030,24
7291c751,CARRER,FERNANDO PESSOA,41,41.44198,2.19295,23.5,9,Sant Andreu,60,Sant Andreu,8030,27
3d2633df,CARRER,DE BARTRINA,14,41.43911,2.18580,34,9,Sant Andreu,60,Sant Andreu,8030,24
74ebcfcd,CARRER,DEL CINCA,7,41.43568,2.19208,22,9,Sant Andreu,60,Sant Andreu,8030,27
e24bbc0a,CARRER,VILLARROEL,39,41.38213,2.16065,17,2,Eixample,10,Sant Antoni,8011,32
2794dfa5,CARRER,ENTENÇA,70,41.37909,2.15162,21,2,Eixample,9,La Nova Esquerra De L'eixample,8015,24
2991d6e9,PASSEIG,TORRAS I BAGES,29,41.43787,2.19106,23,9,Sant Andreu,60,Sant Andreu,8030,20
82ebca2b,,REPÚBLICA DOMINICANA,25,41.43992,2.19706,20,9,Sant Andreu,59,El Bon Pastor,8030,32
c3a09a94,CARRER,CASANOVA,55,41.38477,2.15925,23,2,Eixample,8,L'antiga Esquerra De L'eixample,8011,27
f58894f7,CARRER,RIERA D'HORTA,2,41.42759,2.18396,38,9,Sant Andreu,62,El Congrés I Els Indians,8027,34
bef66dae,PASSEIG,TORRAS I BAGES,129,41.44336,2.19063,29,9,Sant Andreu,60,Sant Andreu,8030,24
e644f81f,CARRER,FERNANDO PESSOA,72,41.44571,2.19298,26,9,Sant Andreu,60,Sant Andreu,8030,27
4250574f,,VIA BARCINO,121,41.44815,2.19294,26,9,Sant Andreu,57,La Trinitat Vella,8033,20
ae133b7c,,270 - CRTA. DE RIBES,77,41.44863,2.18983,35,9,Sant Andreu,57,La Trinitat Vella,8033,27
5e20dd5a,,VIA DE BÀRCINO,54,41.45137,2.19229,0,9,Sant Andreu,57,La Trinitat Vella,8033,21
76f76484,CARRER,CONCEPCIÓ ARENAL,281,41.43250,2.18420,32,9,Sant Andreu,60,Sant Andreu,8033,27
da354038,AVINGUDA,MERIDIANA,404,41.43041,2.18341,38,9,Sant Andreu,60,Sant Andreu,8030,36
b0257112,RAMBLA,FABRA I PUIG,67,41.42992,2.18498,33,9,Sant Andreu,60,Sant Andreu,8030,32
359cb5c1,AVINGUDA,RIO DE JANEIRO,3,41.43068,2.18218,38,8,Nou Barris,45,Porta,8016,32
01d3e4c7,PLAÇA,ALFONS X EL SAVI,,41.41213,2.16522,88,7,Horta-Guinardó,33,El Baix Guinardó,8024,27
ff52324d,,TRAVESSERA DE GRÀCIA,328,41.40821,2.16899,60,7,Horta-Guinardó,33,El Baix Guinardó,8025,27
fe3e8ef2,,TRAVESSERA DE GRÀCIA,368,41.40988,2.17152,59,7,Horta-Guinardó,33,El Baix Guinardó,8025,27
d050923d,CARRER,MAS CASANOVAS,137,41.41589,2.17455,75,7,Horta-Guinardó,35,El Guinardó,8041,27
ea2d0e3b,CARRER,SANT ANTONI Mª CLARET,290,41.41386,2.17772,49,7,Horta-Guinardó,35,El Guinardó,8041,27
419c4b2a,CARRER,D'ESCORNALBOU,51,41.41807,2.17639,74,7,Horta-Guinardó,35,El Guinardó,8041,24
2dd0aa51,PASSEIG,FONT D´EN- FARGAS,1,41.42755,2.16598,75,7,Horta-Guinardó,36,La Font D'en Fargues,8031,27
3709f9d3,CARRER,FULTON,1,41.42972,2.16170,76,7,Horta-Guinardó,43,Horta,8032,20
eb4c9f31,AVINGUDA,DIAGONAL,652,41.38946,2.13149,63,4,Les Corts,19,Les Corts,8034,27
be2b00c9,CARRER,MALATS,98,41.43667,2.18610,35,9,Sant Andreu,60,Sant Andreu,8030,15
5924dd7e,CARRER,BOLIVIA,76,41.40302,2.19135,7,10,Sant Martí,66,El Parc I La Llacuna Del Poblenou,8018,18
5060dcb0,GRAN VIA,DE LES CORTS CATALANES,632,41.38906,2.16793,22,2,Eixample,7,La Dreta De L'eixample,8007,16
b2b54a41,PLAÇA,VIRREI AMAT,,41.42964,2.17444,55,8,Nou Barris,44,Vilapicina I La Torre Llobeta,8016,32
24111c0f,CARRER,MÚRCIA,64,41.41669,2.19099,17,9,Sant Andreu,63,Navas,8027,27
9e6b7dfa,PLAÇA,DELS JARDINS D'ALFÀBIA,1,41.43733,2.17409,66,8,Nou Barris,45,Porta,8016,17
77ffe56d,CARRER,CUBELLES,2,41.42607,2.17515,57,8,Nou Barris,44,Vilapicina I La Torre Llobeta,8031,27
f834e126,CARRER,AMILCAR,1,41.43001,2.17201,61,8,Nou Barris,44,Vilapicina I La Torre Llobeta,8031,12
7978f2bf,CARRER,GRANOLLERS,1,41.42831,2.16298,78,7,Horta-Guinardó,43,Horta,8032,24
c0235285,,SEU DEL DISTRICTE (NOU BARRIS),,41.43634,2.17067,72,8,Nou Barris,48,La Guineueta,8042,24
0abdb63a,CARRER,SANT ISCLE,60,41.43338,2.17163,61,8,Nou Barris,46,El Turó De La Peira,8031,27
5e4b70a1,CARRER,DE ROSSELLÓ I PORCEL,1,41.43648,2.18410,41,8,Nou Barris,45,Porta,8016,33
093916a6,CARRER,TURÓ BLAU,1,41.43882,2.17678,62,8,Nou Barris,52,La Prosperitat,8016,24
aa13e64a,CARRER,ANDREU NIN,22,41.43472,2.18177,41,8,Nou Barris,45,Porta,8016,32
fee7d94f,CARRER,DE L'ESCULTOR ORDÓÑEZ,55,41.43408,2.17482,53,8,Nou Barris,45,Porta,8016,27
d7d7164f,CARRER,DE MALADETA,1,41.43158,2.17691,44,8,Nou Barris,45,Porta,8016,18
ef8c7030,CARRER,MARIE CURIE,8,41.43668,2.16931,73,8,Nou Barris,48,La Guineueta,8042,27
408284d5,CARRER,CAVALLERS,41,41.39063,2.11154,111,4,Les Corts,21,Pedralbes,8034,39
bb61a0a8,CARRER,CAVALLERS,67,41.39343,2.11510,101,4,Les Corts,21,Pedralbes,8034,27
cf5fb4fc,PASSEIG,MANUEL GIRONA,7,41.39038,2.121,78,4,Les Corts,23,Sarrià,8034,26
6fc29098,AVINGUDA,DIAGONAL,680,41.38752,2.12371,65,4,Les Corts,21,Pedralbes,8034,27
93572f6b,CARRER,DOCTOR SALVADOR CARDENAL,1,41.38538,2.12289,60,4,Les Corts,20,La Maternitat I Sant Ramon,8028,31
f81496dd,CARRER,PINTOR RIBALTA,,41.37919,2.11358,60,4,Les Corts,20,La Maternitat I Sant Ramon,8028,32
ceae3c22,CARRER,CARDENAL REIG,11,41.37684,2.11402,54,4,Les Corts,20,La Maternitat I Sant Ramon,8028,27
9e6c3691,CARRER,SANT RAMON NONAT,26,41.37701,2.11698,50,4,Les Corts,20,La Maternitat I Sant Ramon,8028,22
8d671020,CARRER,JOSEP SAMITIER,,41.38121,2.11908,46,4,Les Corts,20,La Maternitat I Sant Ramon,8028,27
7d15fcb0,CARRER,GALLEGO,2,41.37856,2.12024,43,4,Les Corts,20,La Maternitat I Sant Ramon,8028,23
d3eda0cc,CARRER,ARIZALA,77,41.37890,2.12330,40,4,Les Corts,20,La Maternitat I Sant Ramon,8028,36
26be4a31,CARRER,FELIU DE CASANOVA,1,41.37541,2.12978,28,3,Sants-Montjuïc,17,Sants - Badal,8028,29
fe4a055d,RAMBLA,DEL BRASIL,44,41.37830,2.12973,35,3,Sants-Montjuïc,18,Sants,8028,24
e5b8da82,CARRER,DEL GUINARDÓ,32,41.41562,2.18178,38,10,Sant Martí,64,El Camp De L'arpa Del Clot,8041,27
4eb7790b,CARRER,CANTÀBRIA,55,41.42240,2.19807,9,10,Sant Martí,73,La Verneda I La Pau,8020,26
2c5146c6,RAMBLA,DE PRIM,256,41.42566,2.20086,11,10,Sant Martí,73,La Verneda I La Pau,8020,27
04197d2f,CARRER,CASTILLEJOS,388,41.41242,2.17059,77,7,Horta-Guinardó,33,El Baix Guinardó,8025,32
0b8b16f4,CARRER,SAGUÉS,1,41.39374,2.14550,51,5,Sarrià-sant Gervasi,26,Sant Gervasi - Galvany,8021,31
f2238cd3,CARRER,MADRAZO,39,41.40030,2.14914,67,5,Sarrià-sant Gervasi,26,Sant Gervasi - Galvany,8006,27
436c0bee,CARRER,SANT HERMENEGILD,30,41.40315,2.14458,79,5,Sarrià-sant Gervasi,27,El Putxet I El Farró,8006,27
800d0e34,CARRER,SANTALÓ,165,41.4009,2.13892,106,5,Sarrià-sant Gervasi,26,Sant Gervasi - Galvany,8021,24
e0edca5e,CARRER,VALLMAJOR,13,41.39816,2.13867,88,5,Sarrià-sant Gervasi,26,Sant Gervasi - Galvany,8021,27
1677955f,CARRER,REINA VICTORIA,31,41.39694,2.13634,80,5,Sarrià-sant Gervasi,26,Sant Gervasi - Galvany,8021,27
2f840120,CARRER,ALT DE GIRONELLA,13,41.39496,2.13027,82,5,Sarrià-sant Gervasi,24,Les Tres Torres,8017,23
d88ff1c5,CARRER,BALMES,409,41.40741,2.13810,111,5,Sarrià-sant Gervasi,25,Sant Gervasi - La Bonanova,8022,32
463313be,CARRER,REUS,23,41.40500,2.13460,114,5,Sarrià-sant Gervasi,25,Sant Gervasi - La Bonanova,8022,24
c7195e0b,CARRER,ARTESA DE SEGRE,2,41.40298,2.13446,106,5,Sarrià-sant Gervasi,25,Sant Gervasi - La Bonanova,8022,27
ea7e6965,CARRER,DE LES ESCOLES PIES,99,41.40299,2.12838,121,5,Sarrià-sant Gervasi,24,Les Tres Torres,8017,27
0de38ef5,CARRER,PAU ALCOVER,94,41.40188,2.13152,108,5,Sarrià-sant Gervasi,24,Les Tres Torres,8017,27
1c21f3f7,CARRER,CASTELLNOU,65,41.39704,2.12794,95,5,Sarrià-sant Gervasi,24,Les Tres Torres,8017,31
ccfcaa2c,CARRER,DOCTOR ROUX,86,41.39989,2.12819,104,5,Sarrià-sant Gervasi,24,Les Tres Torres,8017,27
8d300263,,PASSATGE DE SENILLOSA,3,41.39547,2.12504,94,5,Sarrià-sant Gervasi,23,Sarrià,8034,27
7c1614a9,PASSEIG,BONANOVA,100,41.40079,2.12288,117,5,Sarrià-sant Gervasi,23,Sarrià,8017,26
01299ece,CARRER,SANTA AMÈLIA,2,41.39353,2.12312,92,5,Sarrià-sant Gervasi,23,Sarrià,8034,27
fb30a0a8,AVINGUDA,JOSEP VICENÇ FOIX,52,41.39487,2.12053,96,5,Sarrià-sant Gervasi,23,Sarrià,8034,23
babcf5df,CARRER,CARME KARR,12,41.39862,2.12049,117,5,Sarrià-sant Gervasi,23,Sarrià,8034,23
fa4ff748,AVINGUDA,JOSEP VICENÇ FOIX,63,41.39772,2.11945,111,5,Sarrià-sant Gervasi,23,Sarrià,8034,36
23aa54bb,CARRER,RAMON TURRÓ,246,41.40170,2.20538,2,10,Sant Martí,68,El Poblenou,8005,27
9fba2951,CARRER,SANT ADRIÀ,113,41.43617,2.20470,13,9,Sant Andreu,59,El Bon Pastor,8030,24
3f35015a,PASSEIG,D'ENRIC SANCHIS,33,41.43392,2.20622,11,9,Sant Andreu,59,El Bon Pastor,8030,27
c233ce93,CARRER,ROC BORONAT,134,41.40349,2.19365,5,10,Sant Martí,66,El Parc I La Llacuna Del Poblenou,8018,43
accab154,,AMPANA DE LA MAQUINISTA (SAO PAULO I PL. DE,,41.43896,2.19961,14,9,Sant Andreu,59,El Bon Pastor,8030,27
7c2f435c,CARRER,CIUTAT D'ASUNCIÓN,73,41.44314,2.19960,16,9,Sant Andreu,58,Baró De Viver,8030,27
b40e7575,PLAÇA,TERESA DE CLARAMUNT,,41.36310,2.13983,10,3,Sants-Montjuïc,13,La Marina De Port,8038,32
c6c0e1d8,PASSEIG,ZONA FRANCA,182,41.36079,2.13893,8,3,Sants-Montjuïc,13,La Marina De Port,8038,36
e09a18e0,CARRER,ALTS FORNS,77,41.35954,2.14177,9,3,Sants-Montjuïc,13,La Marina De Port,8038,32
54d67609,,JARDINS DE CAN FERRERO,,41.35706,2.14156,7,3,Sants-Montjuïc,13,La Marina De Port,8038,33
5998b393,CARRER,DE L'ENERGIA,2,41.35732,2.13719,7,3,Sants-Montjuïc,13,La Marina De Port,8038,31
8358c6b9,CARRER,LONDRES,63,41.39175,2.14829,0,2,Eixample,8,L'antiga Esquerra De L'eixample,8036,31
9bf2a936,CARRER,JANE ADDAMS,26,41.36212,2.13561,9,3,Sants-Montjuïc,13,La Marina De Port,8038,33
08cd3810,,RADI,10,41.36327,2.13415,9,3,Sants-Montjuïc,13,La Marina De Port,8038,28
5de3ce73,CARRER,MUNNÉ  2-6,,41.37541,2.12325,34,3,Sants-Montjuïc,17,Sants - Badal,8028,31
79f3fa2b,RAMBLA,DEL BRASIL,5,41.37594,2.12995,28,3,Sants-Montjuïc,17,Sants - Badal,8028,26
dbaa0647,CARRER,RIERA BLANCA,123,41.37145,2.12785,22,3,Sants-Montjuïc,17,Sants - Badal,8028,27
56aaf03f,CARRER,CAMÈLIES,73,41.41345,2.16310,106,7,Horta-Guinardó,33,El Baix Guinardó,8024,35
d70d2662,CARRER,CARDENER,59,41.41059,2.15798,87,6,Gràcia,31,La Vila De Gràcia,8024,27
044647e6,CARRER,GOMBAU,24,41.38724,2.17930,5,1,Ciutat Vella,4,"Sant Pere, Santa Caterina I La Ribera",8003,26
02f29d2c,CARRER,MÉNDEZ NÚÑEZ,16,41.39005,2.17755,12,1,Ciutat Vella,4,"Sant Pere, Santa Caterina I La Ribera",8003,26
fb55425f,CARRER,BAILÉN,62,41.39525,2.17300,22,2,Eixample,7,La Dreta De L'eixample,8009,30
20f482f3,PASSEIG,DE COLOM (LES RAMBLES),,41.37652,2.17881,5,1,Ciutat Vella,2,El Barri Gòtic,8039,32
4cdb36c4,CARRER,BAILÉN,100,41.39699,2.17063,27,2,Eixample,7,La Dreta De L'eixample,8009,32
eb62b1ec,CARRER,BRUC,20,41.39083,2.17437,16,2,Eixample,7,La Dreta De L'eixample,8010,24
7368628b,PASSEIG,DE GRÀCIA,61,41.39306,2.16332,32,2,Eixample,7,La Dreta De L'eixample,8007,33
ed457349,CARRER,VILADOMAT,244,41.38757,2.14693,39,2,Eixample,9,La Nova Esquerra De L'eixample,8029,31
2b521388,CARRER,MARQUÈS DE SENTMENAT,46,41.38497,2.13762,44,4,Les Corts,19,Les Corts,8029,31
9d46a119,CARRER,DIPUTACIÓ,373,41.39683,2.17565,21,2,Eixample,7,La Dreta De L'eixample,8013,27
1ef9d53a,CARRER,CONSELL DE CENT,482,41.40013,2.17801,23,2,Eixample,5,El Fort Pienc,8013,27
d4236fd4,CARRER,SARDENYA,326,41.40396,2.17290,37,2,Eixample,6,La Sagrada Família,8025,32
b7b63a1e,CARRER,DELS ENAMORATS,49,41.40405,2.18119,19,2,Eixample,6,La Sagrada Família,8013,36
d59e4e74,CARRER,RIBES,77,41.40010,2.18417,9,2,Eixample,5,El Fort Pienc,8013,27
0c90cd22,AVINGUDA,PARAL.LEL,132,41.37509,2.16138,13,2,Eixample,10,Sant Antoni,8015,30
3e42fd82,PASSEIG,DE GRÀCIA,89,41.39497,2.16128,37,2,Eixample,7,La Dreta De L'eixample,8008,33
61026db8,,WORLD TRADE CENTER,,41.37202,2.18044,3,1,Ciutat Vella,1,El Raval,8039,43
6a1c634f,,WORLD TRADE CENTER,,41.37187,2.18030,3,1,Ciutat Vella,1,El Raval,8039,43
ec83d538,PLAÇA,ICTÍNEO,,41.37762,2.18368,2,1,Ciutat Vella,2,El Barri Gòtic,8039,29
ea5e6b49,PLAÇA,JOAQUIM XIRAU I PALAU,1,41.37853,2.17674,5,1,Ciutat Vella,2,El Barri Gòtic,8002,21
7bbcf479,AVINGUDA,JOSEP TARRADELLAS,27,41.38293,2.14207,35,3,Sants-Montjuïc,18,Sants,8029,20
dc76cdeb,CARRER,DURAN I BAS,2,41.38540,2.17401,11,1,Ciutat Vella,2,El Barri Gòtic,8002,24
90f3acad,CARRER,AGUSTÍ DURAN I SANPERE,10,41.38163,2.16772,0,1,Ciutat Vella,1,El Raval,8001,40
fd328441,CARRER,LOPE DE VEGA,79,41.40389,2.20411,3,10,Sant Martí,68,El Poblenou,8005,27
4e608d4d,CARRER,NUMÀNCIA,2,41.38121,2.14176,32,3,Sants-Montjuïc,18,Sants,8029,24
673a64a4,CARRER,VILAMARÍ,85,41.38070,2.14683,28,2,Eixample,9,La Nova Esquerra De L'eixample,8015,25
a18839f6,CARRER,CASANOVA,119,41.38788,2.15529,30,2,Eixample,8,L'antiga Esquerra De L'eixample,8036,30
7e22589b,AVINGUDA,PARAL.LEL,164,41.37518,2.15687,17,2,Eixample,10,Sant Antoni,8015,18
32c313f9,CARRER,NÀPOLS,125,41.39578,2.17870,15,2,Eixample,5,El Fort Pienc,8013,32
1fbe7413,CARRER,RIERA ALTA,6,41.38064,2.16716,10,1,Ciutat Vella,1,El Raval,8001,35
262809a4,,RECINTE PARC DE LA CIUTADELLA,,41.38739,2.18754,4,1,Ciutat Vella,4,"Sant Pere, Santa Caterina I La Ribera",8003,27
1e30ac2c,CARRER,COMERÇ,36,41.38696,2.18201,5,1,Ciutat Vella,4,"Sant Pere, Santa Caterina I La Ribera",8003,25
5e3d13bd,CARRER,GRAN DE LA SAGRERA,74,41.42305,2.19137,22,9,Sant Andreu,61,La Sagrera,8027,27
be14f0bf,CARRER,RAMON TURRÓ,4,41.39053,2.19063,5,10,Sant Martí,67,La Vila Olímpica Del Poblenou,8005,19
c6d4eeff,CARRER,LLACUNA,86,41.40226,2.19762,3,10,Sant Martí,68,El Poblenou,8005,32
79c8c4ff,CARRER,DIPUTACIÓ,226,41.38730,2.16312,25,2,Eixample,8,L'antiga Esquerra De L'eixample,8007,26
d795a4d0,PLAÇA,CATALUNYA,22,41.38606,2.17024,15,2,Eixample,2,El Barri Gòtic,8002,33
72abf7fd,CARRER,JOAN MIRÓ,2,41.38902,2.19682,5,10,Sant Martí,67,La Vila Olímpica Del Poblenou,8005,32
4f5d3baf,AVINGUDA,LITORAL (PG MARÍTIM DEL PORT OLÍMPIC),,41.38891,2.19931,6,10,Sant Martí,67,La Vila Olímpica Del Poblenou,8005,27
5e319dd9,PASSEIG,MARÍTIM DE LA BARCELONETA,,41.38095,2.19346,4,1,Ciutat Vella,3,La Barceloneta,8003,35
5a7aded0,CARRER,PAVIA,3,41.37347,2.13326,23,3,Sants-Montjuïc,18,Sants,8028,27
7c503fa0,,MOLL ORIENTAL,,41.36945,2.18795,3,1,Ciutat Vella,3,La Barceloneta,8039,44
e77f3a75,,A DE PALAU,,41.38241,2.18372,4,1,Ciutat Vella,2,El Barri Gòtic,8002,24
dc2a5366,PASSEIG,DE COLOM (VIA LAIETANA),,41.38062,2.18219,4,1,Ciutat Vella,2,El Barri Gòtic,8002,31
c29e2d57,CARRER,VALLESPIR,49,41.37964,2.13682,32,3,Sants-Montjuïc,18,Sants,8014,22
10f9634c,CARRER,JUAN GRIS,28,41.36534,2.13313,11,3,Sants-Montjuïc,16,La Bordeta,8014,32
bab089e0,CARRER,COMTE BORRELL,198,41.38540,2.15218,28,2,Eixample,9,La Nova Esquerra De L'eixample,8029,26
efd7bf86,GRAN VIA,DE LES CORTS CATALANES,592,41.38637,2.16466,21,2,Eixample,7,La Dreta De L'eixample,8007,33
ddd3b1f2,CARRER,RAMON TRIAS FARGAS,23,41.38899,2.19232,5,10,Sant Martí,67,La Vila Olímpica Del Poblenou,8005,39
08d0296a,CARRER,JOAN D'ÀUSTRIA,31,41.39238,2.19250,5,10,Sant Martí,67,La Vila Olímpica Del Poblenou,8005,27
fcafbc35,,DE COLOM (LES RAMBLES),,41.37643,2.17871,5,1,Ciutat Vella,2,El Barri Gòtic,8039,38
98c39aed,CARRER,JOSEP PLA,67,41.41138,2.21220,4,10,Sant Martí,69,Diagonal Mar I El Front Marítim Del Poblenou,8019,24
30cc698b,PLAÇA,URQUINAONA,3,41.38930,2.17274,17,2,Eixample,7,La Dreta De L'eixample,8010,27
902d444f,CARRER,BRUC,66,41.39348,2.17074,24,2,Eixample,7,La Dreta De L'eixample,8009,32
08c657d1,CARRER,CASP,67,41.39372,2.17642,16,2,Eixample,7,La Dreta De L'eixample,8010,33
24495767,RAMBLA,DEL RAVAL,13,41.37935,2.16895,8,1,Ciutat Vella,1,El Raval,8001,25
81cd7202,RAMBLA,DEL RAVAL,20,41.37810,2.16967,6,1,Ciutat Vella,1,El Raval,8001,26
3970b421,CARRER,VILLAR,2,41.41648,2.18010,46,7,Horta-Guinardó,35,El Guinardó,8041,32
77c6b302,PASSEIG,DE LLUIS COMPANYS (ARC DE TRIOMF),,41.39106,2.18011,10,1,Ciutat Vella,4,"Sant Pere, Santa Caterina I La Ribera",8018,27
2717da41,PASSEIG,DE LLUIS COMPANYS (ARC DE TRIOMF),,41.39131,2.18083,10,1,Ciutat Vella,4,"Sant Pere, Santa Caterina I La Ribera",8018,33
b2679a95,GRAN VIA,DE LES CORTS CATALANES,368,41.37433,2.14793,24,3,Sants-Montjuïc,11,El Poble-sec,8010,27
a18a708f,CARRER,VALLESPIR,13,41.37811,2.13786,30,3,Sants-Montjuïc,18,Sants,8014,25
5912944c,CARRER,JORDI GIRONA,29,41.38811,2.11541,82,4,Les Corts,21,Pedralbes,8034,44
849c69f1,CARRER,HONDURAS,32,41.42024,2.18948,22,9,Sant Andreu,61,La Sagrera,8027,32
d16cbb98,PASSEIG,MARÍTIM DE LA BARCELONETA,6,41.37958,2.19251,7,1,Ciutat Vella,3,La Barceloneta,8003,27
b97293cb,CARRER,DE CERVELLÓ,5,41.37656,2.17486,5,1,Ciutat Vella,1,El Raval,8001,24
c3d683a0,CARRER,DE RIBES,59,41.39828,2.18303,12,2,Eixample,5,El Fort Pienc,8013,33
6ab4faf5,CARRER,DE SANT PAU,119,41.37540,2.16800,9,1,Ciutat Vella,1,El Raval,8001,26
482e97b3,CARRER,PUJADES,103,41.39839,2.19607,3,10,Sant Martí,68,El Poblenou,8005,33
d8ffb3bf,CARRER,GRAN CAPITÀ,9,41.38812,2.10915,105,4,Les Corts,21,Pedralbes,8034,28
9d56b458,CARRER,ALFAMBRA,2,41.38564,2.11309,77,4,Les Corts,21,Pedralbes,8034,27
81a8c721,AVINGUDA,JOAN XXIII,17,41.38346,2.12217,53,4,Les Corts,20,La Maternitat I Sant Ramon,8028,20
75cd128e,CARRER,MARTÍ I FRANQUÈS,1,41.38470,2.11707,63,4,Les Corts,20,La Maternitat I Sant Ramon,8028,28
4498efb0,CARRER,J. MAYNARD KEYNES,2,41.38622,2.11686,70,4,Les Corts,21,Pedralbes,8034,53
517c6584,CARRER,ROGER,24,41.37675,2.12691,34,3,Sants-Montjuïc,17,Sants - Badal,8028,27
5c5700c9,AVINGUDA,DOCTOR MARAÑON,25,41.38358,2.11218,64,4,Les Corts,20,La Maternitat I Sant Ramon,8028,28
efbaaff6,PASSEIG,ZONA FRANCA,54,41.35454,2.14330,6,3,Sants-Montjuïc,12,La Marina Del Prat Vermell,8038,19
4d4fb14e,PASSEIG,ZONA FRANCA,9,41.35132,2.14509,5,3,Sants-Montjuïc,12,La Marina Del Prat Vermell,8038,36
c608a7c9,CARRER,NÀPOLS,183,41.39816,2.17548,22,2,Eixample,7,La Dreta De L'eixample,8013,27
f89604a8,RAMBLA,BADAL,73,41.36853,2.13284,14,3,Sants-Montjuïc,16,La Bordeta,8014,17
94f1fc87,CARRER,SELVA DE MAR,230,41.41769,2.19768,9,10,Sant Martí,72,Sant Martí De Provençals,8020,27
c85e8b8b,CARRER,WATT,2,41.37544,2.13984,25,3,Sants-Montjuïc,18,Sants,8014,18
02da30ca,CARRER,MINERIA,30,41.36492,2.13859,11,3,Sants-Montjuïc,13,La Marina De Port,8038,18
c3f73f02,CARRER,CASANOVA,139,41.38871,2.15422,33,2,Eixample,8,L'antiga Esquerra De L'eixample,8036,32
a8896745,CARRER,LLEIDA,40,41.37173,2.15540,33,3,Sants-Montjuïc,11,El Poble-sec,8004,27
636b2120,CARRER,VILAMARÍ,2,41.37550,2.15400,21,2,Eixample,10,Sant Antoni,8015,24
34ca7cba,PASSEIG,JOAN DE BORBÓ,42,41.37799,2.18842,4,1,Ciutat Vella,3,La Barceloneta,8003,15
caca1934,CARRER,ALMOGÀVERS,63,41.39430,2.18602,10,2,Eixample,5,El Fort Pienc,8018,27
ee7484cb,CARRER,RAMON TURRÓ,160,41.39728,2.19978,3,10,Sant Martí,68,El Poblenou,8005,27
4b9adbc0,CARRER,BOLIVIA,120,41.40581,2.19494,5,10,Sant Martí,71,Provençals Del Poblenou,8018,27
6107817e,CARRER,CRISTOBAL DE MOURA,84,41.41071,2.20616,3,10,Sant Martí,71,Provençals Del Poblenou,8019,27
8fcd38f1,CARRER,PALLARS,504,41.41405,2.21504,4,10,Sant Martí,70,El Besòs I El Maresme,8019,24
4bc1757a,GRAN VIA,DE LES CORTS CATALANES,1157,41.41949,2.20934,8,10,Sant Martí,73,La Verneda I La Pau,8020,54
6214bd15,CARRER,SARDENYA,402,41.40723,2.16847,56,7,Horta-Guinardó,33,El Baix Guinardó,8025,26
538fdeca,CARRER,MÚRCIA,1,41.41433,2.18745,22,10,Sant Martí,65,El Clot,8026,21
8be8656c,CARRER,GRANADELLA,10,41.43831,2.20398,12,9,Sant Andreu,59,El Bon Pastor,8030,18
176bfe40,CARRER,TUCUMÁN,21,41.44579,2.20104,17,9,Sant Andreu,59,El Bon Pastor,8030,24
f356e4f6,PASSEIG,SANTA COLOMA,105,41.44794,2.19767,24,9,Sant Andreu,57,La Trinitat Vella,8030,39
fe0494b7,CARRER,MIREIA,28,41.45138,2.18947,56,9,Sant Andreu,57,La Trinitat Vella,8033,15
611f9303,AVINGUDA,RIO DE JANEIRO,118,41.44248,2.18572,43,8,Nou Barris,52,La Prosperitat,8016,28
933026bc,CARRER,PALAMÓS,33,41.44692,2.18485,61,8,Nou Barris,53,La Trinitat Nova,8033,28
8e45597e,CARRER,PEDROSA,24,41.44906,2.18338,68,8,Nou Barris,53,La Trinitat Nova,8033,24
40bcbdb1,AVINGUDA,RIO DE JANEIRO,96,41.43969,2.18233,47,8,Nou Barris,52,La Prosperitat,8016,24
a24b8771,CARRER,ROSSELLÓ,261,41.39540,2.15994,41,2,Eixample,7,La Dreta De L'eixample,8008,27
45775ba6,CARRER,PABLO IGLESIAS,21,41.44338,2.18130,63,8,Nou Barris,52,La Prosperitat,8016,30
2cc300ee,PLAÇA,JESÚS CARRASCO,,41.44504,2.17672,93,8,Nou Barris,51,Verdun,8042,20
1bdc8a1c,CARRER,NOU BARRIS,23,41.44804,2.17751,107,8,Nou Barris,50,Les Roquetes,8042,18
8d97ab6e,CARRER,SANT FRANCESC XAVIER,1,41.44170,2.17815,72,8,Nou Barris,52,La Prosperitat,8016,12
5fcbd869,CARRER,GÒNGORA,23,41.44327,2.17462,93,8,Nou Barris,51,Verdun,8042,24
76045421,PASSEIG,VALLDAURA,171,41.43890,2.17155,78,8,Nou Barris,48,La Guineueta,8042,24
46b51e5c,,VIA FAVÈNCIA,186,41.44273,2.17039,105,8,Nou Barris,48,La Guineueta,8042,23
f63b8dca,PASSEIG,FABRA I PUIG,449,41.43886,2.16575,94,8,Nou Barris,48,La Guineueta,8042,21
dff5279f,,VIA FAVÈNCIA,47,41.44186,2.16642,102,8,Nou Barris,49,Canyelles,8042,24
6b142274,CARRER,CAMPO FLORIDO,66,41.42167,2.17998,46,9,Sant Andreu,62,El Congrés I Els Indians,8027,19
32764123,CARRER,PERIODISTES,9,41.42203,2.17440,80,7,Horta-Guinardó,35,El Guinardó,8032,18
6df48b08,CARRER,AMILCAR,78,41.42607,2.17225,69,7,Horta-Guinardó,36,La Font D'en Fargues,8032,26
d9052b84,CARRER,ESCULTOR LLIMONA,7,41.42760,2.16975,65,8,Nou Barris,44,Vilapicina I La Torre Llobeta,8031,30
971891dd,PASSEIG,FABRA I PUIG,344,41.43062,2.16710,73,8,Nou Barris,46,El Turó De La Peira,8031,18
2ca50c39,PASSEIG,FABRA I PUIG,385,41.43332,2.16292,92,7,Horta-Guinardó,43,Horta,8031,28
e0134458,PASSEIG,FABRA I PUIG,411,41.43579,2.16387,89,7,Horta-Guinardó,43,Horta,8031,27
49ca3d4a,PASSEIG,UNIVERSAL,29,41.43720,2.16202,95,7,Horta-Guinardó,43,Horta,8042,22
f87f2f87,,BAIXADA DE LA PLANA,35,41.42948,2.15908,0,7,Horta-Guinardó,43,Horta,8032,32
b6c3605f,CARRER,EDUARD TODA,33,41.43459,2.15852,104,7,Horta-Guinardó,43,Horta,8031,27
4c21c277,PASSEIG,VALLDAURA,26,41.43749,2.15657,121,7,Horta-Guinardó,43,Horta,8031,27
0b3c5585,CARRER,PORTO,35,41.43061,2.15645,81,7,Horta-Guinardó,43,Horta,8032,28
8154c300,CARRER,LISBOA,128,41.42676,2.15219,98,7,Horta-Guinardó,42,La Clota,8032,27
0ab6411a,AVINGUDA,CAN MARCET,36,41.43478,2.14790,132,7,Horta-Guinardó,41,La Vall D'hebron,8035,27
685e4b50,CARRER,JORGE MANRIQUE,15,41.43123,2.14991,119,7,Horta-Guinardó,41,La Vall D'hebron,8035,27
b635750e,PASSEIG,VALL D'HEBRÓN,168,41.42806,2.14437,150,7,Horta-Guinardó,41,La Vall D'hebron,8035,49
11189e88,CARRER,PARE MARIANA,24,41.43066,2.14564,125,7,Horta-Guinardó,41,La Vall D'hebron,8035,27
7d923446,PLAÇA,TETUAN,,41.39434,2.17517,18,2,Eixample,7,La Dreta De L'eixample,8010,23
c6071172,PASSEIG,VALL D'HEBRÓN,80,41.41996,2.14018,166,6,Gràcia,28,Vallcarca I Els Penitents,8023,24
80b6e949,RAMBLA,CATALUNYA,33,41.38969,2.16521,25,2,Eixample,7,La Dreta De L'eixample,8007,24
839dc5ac,CARRER,DIPUTACIÓ,22,41.37784,2.15052,24,2,Eixample,9,La Nova Esquerra De L'eixample,8015,21
6396613a,CARRER,PROVENÇA,445,41.40486,2.17479,33,2,Eixample,6,La Sagrada Família,8025,18
ce6c6f02,,PTGE. MALUQUER,16,41.40954,2.13603,124,5,Sarrià-sant Gervasi,25,Sant Gervasi - La Bonanova,8022,27
98234124,CARRER,ESTEVE TERRADAS,42,41.41449,2.14024,145,6,Gràcia,28,Vallcarca I Els Penitents,8023,26
9d2ef29a,AVINGUDA,VALLCARCA,196,41.41605,2.14215,127,6,Gràcia,28,Vallcarca I Els Penitents,8023,27
b4346267,CARRER,ARGENTERA,23,41.41176,2.14534,101,6,Gràcia,28,Vallcarca I Els Penitents,8023,23
9ef953a0,CARRER,ELISA,1,41.40526,2.14202,95,5,Sarrià-sant Gervasi,27,El Putxet I El Farró,8023,16
74cee130,AVINGUDA,VALLCARCA,11,41.40744,2.14920,88,6,Gràcia,28,Vallcarca I Els Penitents,8023,19
c7fa4134,CARRER,MAIGNON,31,41.40959,2.15249,105,6,Gràcia,30,La Salut,8024,30
0c1b0be0,CARRER,MASSENS,76,41.40923,2.15577,87,6,Gràcia,31,La Vila De Gràcia,8024,28
2eb47162,CARRER,CAMÈLIES,78,41.41456,2.16586,118,7,Horta-Guinardó,33,El Baix Guinardó,8024,27
dae7eaf8,CARRER,GARRIGA I ROCA,2,41.41919,2.17184,107,7,Horta-Guinardó,35,El Guinardó,8041,15
223dce94,CARRER,SARDENYA,494,41.41076,2.16409,81,7,Horta-Guinardó,33,El Baix Guinardó,8024,23
bc06fac4,CARRER,SARDENYA,465,41.40909,2.16563,70,6,Gràcia,32,El Camp D'en Grassot I Gràcia Nova,8025,26
30dc48bd,CARRER,TORRENT DE L'OLLA,11,41.39897,2.16067,46,6,Gràcia,31,La Vila De Gràcia,8012,32
8c9f4517,CARRER,GRAN DE GRÀCIA,37,41.39891,2.15642,55,6,Gràcia,31,La Vila De Gràcia,8012,27
03376461,CARRER,GRAN DE GRÀCIA,91,41.40068,2.15433,61,6,Gràcia,31,La Vila De Gràcia,8012,20
967ebed2,CARRER,D'ALACANT,12,41.40007,2.13269,96,5,Sarrià-sant Gervasi,24,Les Tres Torres,8017,27
078bc469,,VIA AUGUSTA,317,41.39901,2.12432,111,5,Sarrià-sant Gervasi,24,Les Tres Torres,8017,28
e5204f51,CARRER,ARAGÓ,614,41.40950,2.18850,16,10,Sant Martí,65,El Clot,8018,24
e29d2ba2,CARRER,SANT ADRIÀ,43,41.43520,2.19480,19,9,Sant Andreu,59,El Bon Pastor,8030,24
88d90b92,CARRER,SANT ADRIÀ,88,41.43546,2.20015,15,9,Sant Andreu,59,El Bon Pastor,8030,21
a636d57d,AVINGUDA,RASOS DE PEGUERA,10,41.46209,2.17895,44,8,Nou Barris,55,Ciutat Meridiana,8033,20
104da435,CARRER,LLOBREGÓS,115,41.42468,2.15704,112,7,Horta-Guinardó,37,El Carmel,8032,27
bc8b6626,CARRER,PEDRELL,52,41.42465,2.16628,110,7,Horta-Guinardó,36,La Font D'en Fargues,8032,24
c8f73d35,CARRER,TARONGERS,,41.36838,2.16450,93,3,Sants-Montjuïc,11,El Poble-sec,8038,27
7c1b2789,PASSEIG,OLIMPIC,8,41.36197,2.15432,0,3,Sants-Montjuïc,11,El Poble-sec,8038,36
9c9bae2a,AVINGUDA,ESTADI,12,41.36536,2.14760,75,3,Sants-Montjuïc,11,El Poble-sec,8038,40
467de5c2,AVINGUDA,ESTADI,38,41.36631,2.15220,86,3,Sants-Montjuïc,11,El Poble-sec,8038,24
46cf9251,CARRER,FRANÇA XICA,4,41.37217,2.16021,26,3,Sants-Montjuïc,11,El Poble-sec,8004,16
33cab601,CARRER,MANDONI,6,41.36934,2.14260,18,3,Sants-Montjuïc,14,La Font De La Guatlla,8004,20
fe3ef735,CARRER,MARBRE,2,41.36141,2.14761,28,3,Sants-Montjuïc,13,La Marina De Port,8038,28
df24d4c9,CARRER,MONTFAR,1,41.37049,2.14872,0,3,Sants-Montjuïc,14,La Font De La Guatlla,8004,24
4e0bbc37,CARRER,MALLORCA,194,41.38997,2.15772,33,2,Eixample,8,L'antiga Esquerra De L'eixample,8036,23
679b1999,,VIA AUGUSTA,68,41.40051,2.15181,61,6,Gràcia,31,La Vila De Gràcia,8006,32
696f1f8c,CARRER,AVENIR,35,41.39578,2.14686,58,5,Sarrià-sant Gervasi,26,Sant Gervasi - Galvany,8021,23
8d9e0fe2,RAMBLA,MUNTANYA,49,41.42094,2.17683,62,7,Horta-Guinardó,35,El Guinardó,8041,36
1a4814c9,CARRER,MANILA,53,41.39007,2.12649,69.4,4,Les Corts,21,Pedralbes,8034,24
50fcb39b,CARRER,ENTENÇA,301,41.38952,2.13862,54,4,Les Corts,19,Les Corts,8029,24
150032d8,CARRER,CARRERA,1,41.37443,2.17486,0,3,Sants-Montjuïc,11,El Poble-sec,8004,28
be8d1b31,CARRER,FRA JUNÍPER SERRA,53,41.43214,2.20548,0,9,Sant Andreu,59,El Bon Pastor,8020,28
2e15c2f5,CARRER,CRISTOBAL DE MOURA,163,41.41351,2.20935,9.98,10,Sant Martí,71,Provençals Del Poblenou,8019,17
c08d028e,CARRER,RAMON TURRÓ,182,41.39816,2.20085,3.66,10,Sant Martí,68,El Poblenou,8005,23
a49b8bc3,CARRER,ROMÁN MACAYA,8,41.41346,2.13520,154.72,5,Sarrià-sant Gervasi,25,Sant Gervasi - La Bonanova,8022,24
2bda7aed,CARRER,QUATRE CAMINS,46,41.41047,2.13120,151,5,Sarrià-sant Gervasi,25,Sant Gervasi - La Bonanova,8022,28
bb5f95f0,AVINGUDA,CAN MARCET,3,41.43418,2.15187,115,7,Horta-Guinardó,41,La Vall D'hebron,8035,24
cf45e90f,AVINGUDA,MARTÍ CODOLAR,2,41.42499,2.14819,122.88,7,Horta-Guinardó,41,La Vall D'hebron,8035,20
b7bd9299,,PTGE. CALAFELL,3,41.42377,2.15461,129.15,7,Horta-Guinardó,37,El Carmel,8032,23
7be6b433,AVINGUDA,JORDÀ,18,41.42677,2.13841,184,7,Horta-Guinardó,39,Sant Genís Dels Agudells,8035,28
b89a8911,CARRER,JUDEA,1,41.42506,2.14117,164.88,7,Horta-Guinardó,39,Sant Genís Dels Agudells,8035,31
d0d2108f,CARRER,BRUC,88,41.39457,2.16929,0,2,Eixample,7,La Dreta De L'eixample,8009,16
cfb7e3de,CARRER,DIPUTACIÓ,303,41.39263,2.16964,0,2,Eixample,7,La Dreta De L'eixample,8009,23
ba48087b,CARRER,PROVENÇA,310,41.39596,2.16354,0,2,Eixample,7,La Dreta De L'eixample,8008,28
32cd6655,CARRER,BRUC,103,41.39582,2.16728,31,2,Eixample,7,La Dreta De L'eixample,8009,23
e3b368fc,CARRER,VALÈNCIA,312,41.39509,2.16669,31.79,2,Eixample,7,La Dreta De L'eixample,8009,23
a2022db6,CARRER,VALÈNCIA,237,41.39187,2.16202,32,2,Eixample,7,La Dreta De L'eixample,8007,24
b2cbbbaf,CARRER,ROSSELLÓ,497,41.40811,2.17675,37.11,2,Eixample,6,La Sagrada Família,8025,20
09d15964,CARRER,CÒRSEGA,612,41.40931,2.17657,40.65,2,Eixample,6,La Sagrada Família,8025,24
cc69e857,CARRER,CÒRSEGA,578,41.40794,2.17486,0,2,Eixample,6,La Sagrada Família,8025,28
92990b69,CARRER,PAMPLONA,116,41.39908,2.18839,4.4,10,Sant Martí,66,El Parc I La Llacuna Del Poblenou,8018,24
8f66729a,CARRER,ÀVILA,94,41.39845,2.19372,4.76,10,Sant Martí,66,El Parc I La Llacuna Del Poblenou,8018,24
beac6ec9,CARRER,ÀVILA,102,41.39901,2.19289,4.64,10,Sant Martí,66,El Parc I La Llacuna Del Poblenou,8018,27
