barId,barName,barType,addressType,addressName,addressNumber,neighborhoodId,neighborhoodName,districtId,districtName,postCode,latitude,longitude
﻿99400533969,Restaurant Maná 75,Cocteleries|Xampanyeries|Restaurants,PASSEIG,JOAN BORBÓ COMTE BARCELONA,101,3,La Barceloneta,1,Ciutat Vella,8039,41.37133,2.18762
﻿99400533974,Restaurant Nº 30,Cocteleries|Xampanyeries|Restaurants,PASSEIG,JOAN BORBÓ COMTE BARCELONA,30,3,La Barceloneta,1,Ciutat Vella,8003,41.37904,2.18804
﻿283174133,Bar La Confiteria,Bars I Pubs Musicals|Cocteleries|Xampanyeries,,SANT PAU,128,1,El Raval,1,Ciutat Vella,8001,41.37551,2.16794
﻿99400698842,Cocteleria Monk,Cocteleries|Xampanyeries,CARRER,DELS ABAIXADORS,6,4,"Sant Pere, Santa Caterina I La Ribera",1,Ciutat Vella,8003,41.38310,2.18119
﻿99400594206,Restaurant Saraya Shisha Club,Cocteleries|Xampanyeries|Restaurants,CARRER,MUNTANER,102,8,L'antiga Esquerra De L'eixample,2,Eixample,8036,41.38868,2.15691
﻿99400574272,Restaurant Cocteleria Barítimo *maremàgnum,Cocteleries|Xampanyeries|Restaurants,,MOLL ESPANYA,5,2,El Barri Gòtic,1,Ciutat Vella,8039,41.37545,2.18239
﻿325120406,Atlàntic Bar,Bars I Pubs Musicals,AVINGUDA,TIBIDABO,56,25,Sant Gervasi - La Bonanova,5,Sarrià-sant Gervasi,8035,41.41536,2.13161
﻿92086025238,Bar Musical Abanico,Bars I Pubs Musicals|Cocteleries|Xampanyeries,CARRER,CAMP,3,26,Sant Gervasi - Galvany,5,Sarrià-sant Gervasi,8021,41.40162,2.13817
﻿99088120250,Discoteca La Terrrazza *poble Espanyol,Discoteques,AVINGUDA,FRANCESC FERRER GUÀRDIA,13,11,El Poble-sec,3,Sants-Montjuïc,8038,41.36914,2.14674
﻿75990174460,Sala Plataforma,Bars I Pubs Musicals|Discoteques,CARRER,NOU DE LA RAMBLA,145,11,El Poble-sec,3,Sants-Montjuïc,8004,41.37292,2.16800
﻿75990210498,Bar Musical Marley,Bars I Pubs Musicals,CARRER,JOAN TORRAS,25,60,Sant Andreu,9,Sant Andreu,8030,41.43784,2.19169
﻿99400152408,Salsongu,Discoteques,,PTGE UTSET,11,6,La Sagrada Família,2,Eixample,8013,41.40449,2.17791
﻿75990102529,Discoteca Performance Con Atxé,Discoteques,CARRER,PROVENÇA,43,9,La Nova Esquerra De L'eixample,2,Eixample,8029,41.38423,2.14717
﻿99400384119,Bar Treze,Cocteleries|Xampanyeries,CARRER,MAJOR DE SARRIÀ,115,23,Sarrià,5,Sarrià-sant Gervasi,8017,41.40056,2.12077
﻿75990053121,Club Sauvage,Bars I Pubs Musicals|Discoteques,PLAÇA,REIAL,7,2,El Barri Gòtic,1,Ciutat Vella,8002,41.38057,2.17519
﻿1033142110,Cerveseria Antibiòtic,Bars I Pubs Musicals,,ROCAFORT,225,9,La Nova Esquerra De L'eixample,2,Eixample,8029,41.38450,2.14627
﻿75990118547,Cocteleria Gimlet,Cocteleries|Xampanyeries,CARRER,SANTALÓ,46,26,Sant Gervasi - Galvany,5,Sarrià-sant Gervasi,8021,41.39612,2.14538
﻿92274113445,Bar Musical Aire - Sala Diana,Bars I Pubs Musicals,,VALÈNCIA,236,8,L'antiga Esquerra De L'eixample,2,Eixample,8007,41.39036,2.16038
﻿99400621096,Discoteca Ku Barcelona,Discoteques|Restaurants,PASSEIG,MARÍTIM DE LA BARCELONETA - ORIOL BOHIGAS,38,3,La Barceloneta,1,Ciutat Vella,8003,41.38346,2.19523
﻿99400709288,Cocteleria Two Schmucks,Cocteleries|Xampanyeries,CARRER,JOAQUÍN COSTA,52,1,El Raval,1,Ciutat Vella,8001,41.38316,2.16520
﻿99400707531,Bar Soda Bus & Verne,Cocteleries|Xampanyeries|Restaurants,CARRER,D'ARIBAU,150,8,L'antiga Esquerra De L'eixample,2,Eixample,8036,41.39207,2.15465
﻿99400191214,Jamming Lounge,Bars I Pubs Musicals,CARRER,VALLFOGONA,23,31,La Vila De Gràcia,6,Gràcia,8012,41.40355,2.15797
﻿99400628372,Bar Musical Acústic Sant Andreu,Bars I Pubs Musicals,,RIER SANT ANDREU,9,60,Sant Andreu,9,Sant Andreu,8030,41.43384,2.18874
﻿99400608660,Restaurant The Alchemix,Cocteleries|Xampanyeries|Restaurants,CARRER,DE VALÈNCIA,212,8,L'antiga Esquerra De L'eixample,2,Eixample,8011,41.38932,2.15899
﻿99400149745,Cocteleria Mareva,Cocteleries|Xampanyeries,CARRER,ARIBAU,54,8,L'antiga Esquerra De L'eixample,2,Eixample,8011,41.38807,2.15998
﻿75990210235,Bar Musical Samba Brasil *horta,Bars I Pubs Musicals,CARRER,SANTES CREUS,20,43,Horta,7,Horta-Guinardó,8031,41.43005,2.16211
﻿99400683088,Especiarium Bar,Cocteleries|Xampanyeries,CARRER,DE LA PRINCESA,29,4,"Sant Pere, Santa Caterina I La Ribera",1,Ciutat Vella,8003,41.38570,2.18079
﻿75990129349,Bar Musical Les Qents Que J'aime,Bars I Pubs Musicals,CARRER,VALÈNCIA,286,7,La Dreta De L'eixample,2,Eixample,8007,41.39373,2.16486
﻿75990092643,Taverna Anglesa City Arms,Bars I Pubs Musicals,PLAÇA,NARCÍS OLLER,9,31,La Vila De Gràcia,6,Gràcia,8006,41.39698,2.15547
﻿75990292800,Bar Cafeteria Cinemateca,Bars I Pubs Musicals,CARRER,PAU CLARIS,120,7,La Dreta De L'eixample,2,Eixample,8009,41.39235,2.16784
﻿99400701255,Bar Trikini,Cocteleries|Xampanyeries,CARRER,DE PUJADES,226,68,El Poblenou,10,Sant Martí,8005,41.40306,2.20269
﻿99400709303,Bar Pantera Mambo Barcelona,Cocteleries|Xampanyeries,CARRER,JOAQUÍN COSTA,39,1,El Raval,1,Ciutat Vella,8001,41.38261,2.16563
﻿99400453809,Taberna Tio Carlos,Bars I Pubs Musicals|Restaurants,,PTGE GUTENBERG,7,1,El Raval,1,Ciutat Vella,8001,41.37693,2.17471
﻿99400420446,Cocteleria Doble,Cocteleries|Xampanyeries,PASSEIG,GRÀCIA,116,31,La Vila De Gràcia,6,Gràcia,8008,41.39721,2.15921
﻿99400685836,Cocteleria Popular Gopnik,Cocteleries|Xampanyeries,CARRER,DE VALLFOGONA,23,31,La Vila De Gràcia,6,Gràcia,8012,41.40352,2.15796
﻿99400596754,Bar Pub The James Joyce,Bars I Pubs Musicals,CARRER,CASP,92,7,La Dreta De L'eixample,2,Eixample,8010,41.39362,2.17654
﻿99400689374,Bar Musical Karaoke A Viva Voz *aribau,Bars I Pubs Musicals|Karaokes,CARRER,D'ARIBAU,103,8,L'antiga Esquerra De L'eixample,2,Eixample,8036,41.39034,2.15656
﻿99400370686,Restaurant Lounge My Way,Bars I Pubs Musicals|Restaurants,CARRER,HEURES,4,2,El Barri Gòtic,1,Ciutat Vella,8002,41.38077,2.17528
﻿99400576585,Bar Musical Bar De Retro,Bars I Pubs Musicals,CARRER,TORRENT DE L'OLLA,141,31,La Vila De Gràcia,6,Gràcia,8012,41.40357,2.15557
﻿99400592902,Bar Musical Revival,Bars I Pubs Musicals,,TRAV GRÀCIA,40,26,Sant Gervasi - Galvany,5,Sarrià-sant Gervasi,8021,41.39538,2.14861
﻿99400576356,Bar Musical The Good Feeling,Bars I Pubs Musicals,CARRER,CONSELL DE CENT,319,7,La Dreta De L'eixample,2,Eixample,8007,41.38947,2.16334
﻿99400596517,Bar Musical Decode,Bars I Pubs Musicals,CARRER,ARIBAU,97,8,L'antiga Esquerra De L'eixample,2,Eixample,8036,41.39025,2.15673
﻿99400596554,Bar Village Club,Bars I Pubs Musicals,CARRER,VALÈNCIA,193,8,L'antiga Esquerra De L'eixample,2,Eixample,8011,41.38954,2.15891
﻿99400596605,Bar Nevermind,Cocteleries|Xampanyeries|Altres Esports|Instal·lacions Esportives,CARRER,TALLERS,68,1,El Raval,1,Ciutat Vella,8001,41.38505,2.16644
﻿99400191791,Sala Monasterio,Bars I Pubs Musicals|Discoteques,,MOLL MESTRAL,30,67,La Vila Olímpica Del Poblenou,10,Sant Martí,8005,41.38801,2.19957
﻿99400576535,Bar Musical Le Standard,Bars I Pubs Musicals,CARRER,TOPAZI,24,31,La Vila De Gràcia,6,Gràcia,8012,41.40509,2.15485
﻿99400164991,Cocteleria Milk,Cocteleries|Xampanyeries,CARRER,GIGNÀS,21,2,El Barri Gòtic,1,Ciutat Vella,8002,41.38134,2.18014
﻿99400188606,Bar Musical Jazzman,Bars I Pubs Musicals,CARRER,ROGER DE FLOR,238,7,La Dreta De L'eixample,2,Eixample,8025,41.40152,2.16929
﻿99400128206,Pub Irlandès Mccarthy's Bar,Bars I Pubs Musicals|Cocteleries|Xampanyeries,,VIA LAIETANA,44,4,"Sant Pere, Santa Caterina I La Ribera",1,Ciutat Vella,8003,41.38622,2.17598
﻿98238104125,Pub Anglès The Black Horse,Bars I Pubs Musicals,CARRER,ALLADA-VERMELL,16,4,"Sant Pere, Santa Caterina I La Ribera",1,Ciutat Vella,8003,41.38670,2.18105
﻿75990100097,Bar Musical La Torre Rosa,Bars I Pubs Musicals|Cocteleries|Xampanyeries,CARRER,FRANCESC TÀRREGA,22,62,El Congrés I Els Indians,9,Sant Andreu,8027,41.42271,2.18050
﻿75990174513,Dome Club Barcelona,Discoteques|Salons De Ball,,LA RAMBLA,33,1,El Raval,1,Ciutat Vella,8002,41.37904,2.17489
﻿99400155586,Cocteleria Paradiso,Cocteleries|Xampanyeries,CARRER,RERE PALAU,4,4,"Sant Pere, Santa Caterina I La Ribera",1,Ciutat Vella,8003,41.38371,2.18369
﻿92086021222,Bar Musical Miramelindo,Bars I Pubs Musicals,PASSEIG,BORN,15,4,"Sant Pere, Santa Caterina I La Ribera",1,Ciutat Vella,8003,41.38461,2.18255
﻿92205145712,Jamboree,Bars I Pubs Musicals|Discoteques,,REIAL,17,2,El Barri Gòtic,1,Ciutat Vella,8002,41.37973,2.17528
﻿75990477616,Bar Restaurant Hard Rock Café,Bars I Pubs Musicals|Restaurants,,DE CATALUNYA,21,2,El Barri Gòtic,1,Ciutat Vella,8002,41.38594,2.17073
﻿75990411185,Bar Musical Espai Barroc,Bars I Pubs Musicals,CARRER,MONTCADA,20,4,"Sant Pere, Santa Caterina I La Ribera",1,Ciutat Vella,8003,41.38465,2.18155
﻿99400209562,Bar Musical Paspartú,Bars I Pubs Musicals|Cocteleries|Xampanyeries,CARRER,BASSES DE SANT PERE,14,4,"Sant Pere, Santa Caterina I La Ribera",1,Ciutat Vella,8003,41.38871,2.17996
﻿75990035678,Bar Musical Flann O'brien's,Bars I Pubs Musicals,CARRER,CASANOVA,264,26,Sant Gervasi - Galvany,5,Sarrià-sant Gervasi,8021,41.39415,2.14741
﻿75990079636,Disco Bar Joe's,Bars I Pubs Musicals,PASSEIG,SANT ANTONI,19,18,Sants,3,Sants-Montjuïc,8014,41.37719,2.13702
﻿75990090372,Bar Musical Punto Bcn,Bars I Pubs Musicals|Cocteleries|Xampanyeries,CARRER,MUNTANER,63,8,L'antiga Esquerra De L'eixample,2,Eixample,8011,41.38672,2.15914
﻿99400355659,Sala Artte,Cocteleries|Xampanyeries,CARRER,MUNTANER,83,8,L'antiga Esquerra De L'eixample,2,Eixample,8011,41.38771,2.15783
﻿75990106254,Bar Musical Lunatic Pub,Bars I Pubs Musicals,CARRER,REGENT MENDIETA,38,20,La Maternitat I Sant Ramon,4,Les Corts,8028,41.37743,2.12359
﻿99400566604,Discoteca Downtown Barcelona,Discoteques,AVINGUDA,DOCTOR MARAÑÓN,17,20,La Maternitat I Sant Ramon,4,Les Corts,8028,41.38128,2.11445
﻿75990085638,Bar Musical Alfa,Bars I Pubs Musicals|Discoteques,,GRAN DE GRÀCIA,36,31,La Vila De Gràcia,6,Gràcia,8012,41.39883,2.15685
﻿99400224722,Discoteca The Roxy Blue Barcelona,Discoteques,CARRER,CONSELL DE CENT,294,7,La Dreta De L'eixample,2,Eixample,8007,41.38984,2.16420
﻿75990173036,Bar Musical Merbeyé,Bars I Pubs Musicals|Cocteleries|Xampanyeries,PLAÇA,DOCTOR ANDREU,1,25,Sant Gervasi - La Bonanova,5,Sarrià-sant Gervasi,8035,41.41630,2.13141
﻿99400236992,Banker's Bar,Cocteleries|Xampanyeries,PASSEIG,GRÀCIA,38,7,La Dreta De L'eixample,2,Eixample,8007,41.39120,2.16666
﻿75990097460,Slow Barcelona Cocktails & Boite,Bars I Pubs Musicals|Cocteleries|Xampanyeries|Restaurants,CARRER,PARÍS,186,8,L'antiga Esquerra De L'eixample,2,Eixample,8036,41.39361,2.15338
﻿75990103859,Sala Continental,Bars I Pubs Musicals,,PROVIDÈNCIA,30,31,La Vila De Gràcia,6,Gràcia,8024,41.40625,2.15643
﻿75990108061,Cocteleria Scotch Corner,Bars I Pubs Musicals|Cocteleries|Xampanyeries,CARRER,SABINO ARANA,8,20,La Maternitat I Sant Ramon,4,Les Corts,8028,41.38560,2.12626
﻿99344155409,Bar Musical Tinta Roja,Bars I Pubs Musicals,,CREU DELS MOLERS,17,11,El Poble-sec,3,Sants-Montjuïc,8004,41.37422,2.16193
﻿99400070357,Diobar,Bars I Pubs Musicals,AVINGUDA,MARQUÈS DE L'ARGENTERA,27,4,"Sant Pere, Santa Caterina I La Ribera",1,Ciutat Vella,8003,41.38550,2.18545
﻿96309203840,Bar Musical Contraste,Karaokes,CARRER,MUNTANER,130,8,L'antiga Esquerra De L'eixample,2,Eixample,8036,41.38982,2.15541
﻿98049115349,Bar Musical Sol De Nit,Bars I Pubs Musicals,PLAÇA,SOL,9,31,La Vila De Gràcia,6,Gràcia,8012,41.40183,2.15693
﻿99400142309,Venta Flamenco Barcelona,Tablaos Flamencs,CARRER,MARQUÈS DE BARBERÀ,6,1,El Raval,1,Ciutat Vella,8001,41.37873,2.17251
﻿75990090931,Luz De Gas * En Remodelació,Teatres|Discoteques,CARRER,MUNTANER,246,26,Sant Gervasi - Galvany,5,Sarrià-sant Gervasi,8021,41.39462,2.14906
﻿96005085900,Bar Musical Barroc,Bars I Pubs Musicals,,REC,67,4,"Sant Pere, Santa Caterina I La Ribera",1,Ciutat Vella,8003,41.38468,2.18347
﻿75990076519,Bar Musical Basel 79,Bars I Pubs Musicals,CARRER,LORETO,5,19,Les Corts,4,Les Corts,8029,41.38890,2.14172
﻿99400033861,Bar La Rouge Raval Barcelona,Bars I Pubs Musicals,RAMBLA,RAVAL,10,1,El Raval,1,Ciutat Vella,8001,41.37867,2.16893
﻿277161249,Bar Musical Barcota,Bars I Pubs Musicals,,CANVIS NOUS,14,4,"Sant Pere, Santa Caterina I La Ribera",1,Ciutat Vella,8003,41.38306,2.18190
﻿99400258359,Bar Musical Polaroid Bar,Bars I Pubs Musicals,CARRER,CÒDOLS,29,2,El Barri Gòtic,1,Ciutat Vella,8002,41.37935,2.17874
﻿75990272030,Bar Musical Inercia,Bars I Pubs Musicals,CARRER,ARIBAU,124,8,L'antiga Esquerra De L'eixample,2,Eixample,8036,41.39119,2.15585
﻿75990263715,Discoteca Otto Zutz,Discoteques,CARRER,DE LINCOLN,15,26,Sant Gervasi - Galvany,5,Sarrià-sant Gervasi,8006,41.40043,2.15000
﻿75990421116,Cocteleria Sips Drinkery House,Cocteleries|Xampanyeries,,MUNTANER,108,8,L'antiga Esquerra De L'eixample,2,Eixample,8036,41.38885,2.15669
﻿75990355982,Solange Cocktails & Luxury Spirits,Cocteleries|Xampanyeries,CARRER,ARIBAU,143,8,L'antiga Esquerra De L'eixample,2,Eixample,8036,41.39226,2.15402
﻿99400194361,Opium Mar Bcn,Discoteques|Restaurants,PASSEIG,MARÍTIM DE LA BARCELONETA - ORIOL BOHIGAS,34,3,La Barceloneta,1,Ciutat Vella,8003,41.38347,2.19548
﻿99400158516,Creperia Creps Al Born,Cocteleries|Xampanyeries,PASSEIG,BORN,12,4,"Sant Pere, Santa Caterina I La Ribera",1,Ciutat Vella,8003,41.38434,2.18270
﻿99400158645,Karaoke Touch Music,Karaokes,CARRER,JOAN MIRÓ,8,67,La Vila Olímpica Del Poblenou,10,Sant Martí,8005,41.38996,2.19658
﻿99400169910,Bar De Copes Sub-rosa,Bars I Pubs Musicals,CARRER,RAURIC,23,2,El Barri Gòtic,1,Ciutat Vella,8002,41.38077,2.17570
﻿75990075446,Bar Musical Samba Brasil *lepant,Bars I Pubs Musicals|Cocteleries|Xampanyeries,CARRER,LEPANT,297,6,La Sagrada Família,2,Eixample,8025,41.40574,2.17482
﻿99400168903,Cocteleria Nosé,Cocteleries|Xampanyeries,PASSEIG,BORN,21,4,"Sant Pere, Santa Caterina I La Ribera",1,Ciutat Vella,8003,41.38501,2.18280
﻿99400109274,Sala De Ball Nueva Época,Discoteques|Salons De Ball,,G.V. CORTS CATALANES,770,5,El Fort Pienc,2,Eixample,8013,41.39848,2.18075
﻿99400204473,Sala-escenari,Discoteques,PLAÇA,REIAL,7,2,El Barri Gòtic,1,Ciutat Vella,8002,41.38057,2.17519
﻿99400105865,Bar Mau Mau,Cocteleries|Xampanyeries,CARRER,FONTRODONA,33,11,El Poble-sec,3,Sants-Montjuïc,8004,41.37245,2.16671
﻿99400158658,Bar Musical Le Journal,Bars I Pubs Musicals|Cocteleries|Xampanyeries,CARRER,FRANCISCO GINER,36,31,La Vila De Gràcia,6,Gràcia,8012,41.39951,2.15882
﻿99400073886,Flaherty's Irish Bar,Bars I Pubs Musicals,PLAÇA,JOAQUIM XIRAU I PALAU,3,2,El Barri Gòtic,1,Ciutat Vella,8002,41.37836,2.17659
﻿99400161793,Bar Musical Vinilo,Bars I Pubs Musicals|Cocteleries|Xampanyeries,CARRER,MATILDE,2,31,La Vila De Gràcia,6,Gràcia,8012,41.40052,2.15700
﻿99400172660,Bar Musical Ballbreak,Bars I Pubs Musicals,CARRER,MATILDE,7,31,La Vila De Gràcia,6,Gràcia,8012,41.40050,2.15691
﻿99400476312,Discoteca Hyde Club,Discoteques,,PTGE DOMINGO,3,7,La Dreta De L'eixample,2,Eixample,8007,41.39272,2.16252
﻿99400201862,Pub The George Payne Irish Bar,Bars I Pubs Musicals,PLAÇA,URQUINAONA,5,7,La Dreta De L'eixample,2,Eixample,8010,41.38951,2.17297
﻿99400466415,Restaurant El Mamón,Cocteleries|Xampanyeries|Restaurants,,PTGE PERE CALDERS,2,10,Sant Antoni,2,Eixample,8015,41.37611,2.16291
﻿92086037747,Discoteca Magic Rock Barcelona,Discoteques,PASSEIG,PICASSO,40,4,"Sant Pere, Santa Caterina I La Ribera",1,Ciutat Vella,8003,41.38596,2.18501
﻿99400566394,Bar Muy Buenas,Cocteleries|Xampanyeries,CARRER,CARME,63,1,El Raval,1,Ciutat Vella,8001,41.38093,2.16803
﻿99400596452,Restaurant Pur - Impur,Cocteleries|Xampanyeries|Restaurants,,PTGE CONCEPCIÓ,11,7,La Dreta De L'eixample,2,Eixample,8008,41.39449,2.16007
﻿93221210635,Bar Musical Com-tu,Bars I Pubs Musicals,CARRER,PERE IV,101,66,El Parc I La Llacuna Del Poblenou,10,Sant Martí,8018,41.39901,2.19445
﻿99400709297,33/45 Bar & Gallery,Cocteleries|Xampanyeries,CARRER,JOAQUÍN COSTA,4,1,El Raval,1,Ciutat Vella,8001,41.38112,2.16739
﻿75990028307,Cocteleria Trípode,Cocteleries|Xampanyeries,PASSEIG,BORN,17,4,"Sant Pere, Santa Caterina I La Ribera",1,Ciutat Vella,8003,41.38473,2.18262
﻿75990017964,Bar Musical Quilombo,Bars I Pubs Musicals,CARRER,ARIBAU,149,8,L'antiga Esquerra De L'eixample,2,Eixample,8036,41.39259,2.15364
﻿119161015,Bar Zelig,Bars I Pubs Musicals,CARRER,CARME,116,1,El Raval,1,Ciutat Vella,8001,41.37979,2.16627
﻿99400384107,Restaurant Club Bananas,Bars I Pubs Musicals|Restaurants,CARRER,FUSINA,7,4,"Sant Pere, Santa Caterina I La Ribera",1,Ciutat Vella,8003,41.38651,2.18319
﻿92086009134,Bar Musical La Garrafa Dels Beatles,Bars I Pubs Musicals,CARRER,JOAN GÜELL,150,19,Les Corts,4,Les Corts,8028,41.38316,2.13149
﻿99400370747,La Sonora De Gràcia,Bars I Pubs Musicals,CARRER,RIERA DE SANT MIQUEL,59,31,La Vila De Gràcia,6,Gràcia,8006,41.39851,2.15500
﻿75990281100,Sala Soda Acústic,Bars I Pubs Musicals,CARRER,GUILLERIES,6,31,La Vila De Gràcia,6,Gràcia,8012,41.40310,2.15701
﻿99400328189,Discoteca Sala Bloc,Discoteques,,RDA SANT PERE,19,7,La Dreta De L'eixample,2,Eixample,8010,41.38962,2.17404
﻿75990271886,Sala Vivaldi,Bars I Pubs Musicals|Restaurants,CARRER,LLANÇA,5,10,Sant Antoni,2,Eixample,8015,41.37558,2.15133
﻿75990044525,Sala De Ball Duvet,Discoteques|Salons De Ball,,CÒRSEGA,327,31,La Vila De Gràcia,6,Gràcia,8037,41.39722,2.16005
﻿99400723716,Espai Gastronòmic Born 14,Cocteleries|Xampanyeries|Restaurants,CARRER,DEL SABATERET,2,4,"Sant Pere, Santa Caterina I La Ribera",1,Ciutat Vella,8003,41.38556,2.18211
﻿75990162835,Bar Musical Ceferino,Bars I Pubs Musicals,,PAMPLONA,88,66,El Parc I La Llacuna Del Poblenou,10,Sant Martí,8018,41.39691,2.19130
﻿75990029749,Cocteleria Caribbean Club,Cocteleries|Xampanyeries,CARRER,SITGES,5,1,El Raval,1,Ciutat Vella,8001,41.38449,2.16961
﻿75990431415,Bar Musical New Underground,Bars I Pubs Musicals,CARRER,AVIACIÓ,5,19,Les Corts,4,Les Corts,8029,41.38737,2.13545
﻿75990473394,Harlem Jazz Club,Bars I Pubs Musicals,CARRER,COMTESSA DE SOBRADIEL,8,2,El Barri Gòtic,1,Ciutat Vella,8002,41.38117,2.17842
﻿75990473967,Restaurant Bar Margarita Blue,Bars I Pubs Musicals|Restaurants,CARRER,JOSEP ANSELM CLAVÉ,6,2,El Barri Gòtic,1,Ciutat Vella,8002,41.37797,2.17841
﻿75990364728,Sala Almo2bar,Discoteques,CARRER,BRUNIQUER,59,31,La Vila De Gràcia,6,Gràcia,8024,41.40563,2.16212
﻿99400504492,Sala De Festes La Paloma,Sales De Festes,CARRER,TIGRE,27,1,El Raval,1,Ciutat Vella,8001,41.38241,2.16421
﻿75990368466,Sala Almodobar,Discoteques|Karaokes,CARRER,GRASSOT,36,32,El Camp D'en Grassot I Gràcia Nova,6,Gràcia,8025,41.40361,2.16756
﻿75990348434,Bar Café Del Born Nou,Bars I Pubs Musicals,PLAÇA,COMERCIAL,10,4,"Sant Pere, Santa Caterina I La Ribera",1,Ciutat Vella,8003,41.38514,2.18365
﻿75990363296,Cocteleria Stereo 18,Cocteleries|Xampanyeries,PASSEIG,BORN,18,4,"Sant Pere, Santa Caterina I La Ribera",1,Ciutat Vella,8003,41.38450,2.18280
﻿99400631235,Jardín De Diana,Cocteleries|Xampanyeries,,G.V. CORTS CATALANES,668,7,La Dreta De L'eixample,2,Eixample,8010,41.39159,2.17158
﻿75990497941,The Philharmonic,Bars I Pubs Musicals|Restaurants,CARRER,MALLORCA,204,8,L'antiga Esquerra De L'eixample,2,Eixample,8036,41.39031,2.15833
﻿99400603521,Restaurant Volta Al Món,Cocteleries|Xampanyeries|Restaurants,CARRER,MUNTANER,51,8,L'antiga Esquerra De L'eixample,2,Eixample,8011,41.38607,2.16000
﻿75990331974,Bar Restaurant La Fourmi,Cocteleries|Xampanyeries|Restaurants,CARRER,ALBA,2,31,La Vila De Gràcia,6,Gràcia,8012,41.40200,2.16176
﻿75990491713,Discoteca Mojito Club,Discoteques,CARRER,ROSSELLÓ,217,8,L'antiga Esquerra De L'eixample,2,Eixample,8008,41.39315,2.15693
﻿99400594182,Pub The Lima House,Bars I Pubs Musicals,CARRER,CARDERS,31,4,"Sant Pere, Santa Caterina I La Ribera",1,Ciutat Vella,8003,41.38699,2.18030
﻿99400595721,Restaurant Nº30 Barceloneta,Cocteleries|Xampanyeries|Restaurants,PASSEIG,JOAN BORBÓ COMTE BARCELONA,30,3,La Barceloneta,1,Ciutat Vella,8003,41.37904,2.18804
﻿75990662594,Santé Café,Cocteleries|Xampanyeries,,COMTE D'URGELL,171,9,La Nova Esquerra De L'eixample,2,Eixample,8036,41.38795,2.15064
﻿75990699880,Bar Origginals Club,Bars I Pubs Musicals,CARRER,GAIARRE,50,18,Sants,3,Sants-Montjuïc,8014,41.37347,2.14029
﻿92086026486,Bar Musical Kahala,Bars I Pubs Musicals,AVINGUDA,DIAGONAL,537,19,Les Corts,4,Les Corts,8029,41.39071,2.13804
﻿99400061927,Bar Musical Bubblic Bar,Bars I Pubs Musicals,CARRER,MARIÀ CUBÍ,183,26,Sant Gervasi - Galvany,5,Sarrià-sant Gervasi,8021,41.39538,2.14488
﻿75990334360,Sala Tarantos,Discoteques,PLAÇA,REIAL,17,2,El Barri Gòtic,1,Ciutat Vella,8002,41.37973,2.17528
﻿75990334365,Restaurant Tablao De Carmen *poble Espanyol,Tablaos Flamencs|Restaurants,AVINGUDA,FRANCESC FERRER I GUÀRDIA,13,11,El Poble-sec,3,Sants-Montjuïc,8038,41.36914,2.14674
﻿99400603947,Restaurant Tapas&beer,Karaokes|Restaurants,,G.V. CORTS CATALANES,640,7,La Dreta De L'eixample,2,Eixample,8007,41.38993,2.16937
﻿99400604213,Discoteca Pub Dixit 724,Bars I Pubs Musicals|Discoteques,CARRER,PALLARS,115,66,El Parc I La Llacuna Del Poblenou,10,Sant Martí,8018,41.39701,2.19199
﻿75990490801,Bar Musical La Concha,Bars I Pubs Musicals,CARRER,GUÀRDIA,14,1,El Raval,1,Ciutat Vella,8001,41.37769,2.17419
﻿75990145637,Bar Musical London Bar,Bars I Pubs Musicals,CARRER,NOU DE LA RAMBLA,34,1,El Raval,1,Ciutat Vella,8001,41.37814,2.17318
﻿99400676456,Bar Musical Sala Taro,Bars I Pubs Musicals,CARRER,DE ROSSEND ARÚS,9,18,Sants,3,Sants-Montjuïc,8014,41.37367,2.13740
﻿75990127095,Discoteca The Sutton Club Barcelona,Discoteques,CARRER,TUSET,13,26,Sant Gervasi - Galvany,5,Sarrià-sant Gervasi,8006,41.39601,2.15171
﻿75990176444,Bar Musical New Fizz Barcelona,Bars I Pubs Musicals|Cocteleries|Xampanyeries,,BALMES,83,8,L'antiga Esquerra De L'eixample,2,Eixample,8008,41.39102,2.16023
﻿75990356127,Discoteca Distrito Diagonal,Bars I Pubs Musicals|Discoteques,AVINGUDA,DIAGONAL,442,7,La Dreta De L'eixample,2,Eixample,8037,41.39708,2.16072
﻿75990410263,Bar Musical Dow Jones,Bars I Pubs Musicals,,BRUC,97,7,La Dreta De L'eixample,2,Eixample,8009,41.39557,2.16773
﻿92086017325,Discoteca Boulevard Culture Club,Discoteques,CARRER,LA RAMBLA,27,1,El Raval,1,Ciutat Vella,8002,41.37871,2.17527
﻿98289134934,Discoteca Undead Dark Club,Discoteques,CARRER,VIOLANT HONGRIA REINA ARAGÓ,128,18,Sants,3,Sants-Montjuïc,8028,41.37988,2.13333
﻿75990469788,Tablao Flamenco Cordobés,Tablaos Flamencs|Restaurants,CARRER,LA RAMBLA,35,1,El Raval,1,Ciutat Vella,8002,41.37899,2.17464
﻿99350182951,Discoteca Bachata Dance Club,Discoteques,CARRER,CASANOVA,171,8,L'antiga Esquerra De L'eixample,2,Eixample,8036,41.39189,2.15005
﻿99400069768,Bar Musical Gran Bodega Saltó,Bars I Pubs Musicals,CARRER,BLESA,36,11,El Poble-sec,3,Sants-Montjuïc,8004,41.37276,2.16717
﻿99111164534,Discoteca New Kimbara,Discoteques,,TAJO,35,43,Horta,7,Horta-Guinardó,8031,41.42957,2.16240
﻿75990099622,Virreina Bar,Bars I Pubs Musicals,PLAÇA,VIRREINA,1,31,La Vila De Gràcia,6,Gràcia,8024,41.40496,2.15759
﻿75990489733,Restaurant Xampanyeria Xampú Xampany,Cocteleries|Xampanyeries|Restaurants,,G.V. CORTS CATALANES,702,7,La Dreta De L'eixample,2,Eixample,8010,41.39370,2.17439
﻿99400069053,Bar Tequila Bom Bom,Bars I Pubs Musicals,CARRER,NOU DE LA RAMBLA,103,1,El Raval,1,Ciutat Vella,8001,41.37544,2.17055
﻿97338091450,Discoteca Costa Breve,Discoteques,,ARIBAU,230,26,Sant Gervasi - Galvany,5,Sarrià-sant Gervasi,8006,41.39555,2.15008
﻿75990363427,Discoteca Nick,Discoteques|Karaokes,AVINGUDA,MADRID,160,18,Sants,3,Sants-Montjuïc,8028,41.38028,2.13119
﻿96127115035,Associació Cultural Heliogàbal,Bars I Pubs Musicals,CARRER,RAMÓN Y CAJAL,80,31,La Vila De Gràcia,6,Gràcia,8012,41.40353,2.16023
﻿75990348460,Restaurant Cocteleria Belvedere,Cocteleries|Xampanyeries|Restaurants,,PTGE MERCADER,3,7,La Dreta De L'eixample,2,Eixample,8008,41.39286,2.15951
﻿92086024565,Bar Pub K.M.,Bars I Pubs Musicals,CARRER,ALCOLEA,100,18,Sants,3,Sants-Montjuïc,8014,41.37977,2.13511
﻿99400084667,Discoteca Restaurant Japonès Shôko,Bars I Pubs Musicals|Discoteques|Restaurants,PASSEIG,MARÍTIM DE LA BARCELONETA - ORIOL BOHIGAS,36,3,La Barceloneta,1,Ciutat Vella,8003,41.38346,2.19523
﻿75990341591,Bar Musical Jazzpetit,Bars I Pubs Musicals,CARRER,PROVENÇA,181,8,L'antiga Esquerra De L'eixample,2,Eixample,8036,41.39103,2.15639
﻿99400050261,Bar Musical Ginger,Bars I Pubs Musicals,CARRER,PALMA DE SANT JUST,1,2,El Barri Gòtic,1,Ciutat Vella,8002,41.38285,2.17855
﻿75990279814,Bar Musical The Daily Telegraph,Bars I Pubs Musicals,CARRER,PAU CLARIS,139,7,La Dreta De L'eixample,2,Eixample,8009,41.39365,2.16575
﻿96292161332,Bar Musical Terra,Bars I Pubs Musicals,PLAÇA,VIRREINA,5,31,La Vila De Gràcia,6,Gràcia,8024,41.40488,2.15701
﻿75990163301,Bar Musical Pastís,Bars I Pubs Musicals,,SANTA MÒNICA,4,1,El Raval,1,Ciutat Vella,8001,41.37736,2.17515
﻿75990691308,Bar Cafeteria Cafè D'annunzio,Cocteleries|Xampanyeries,PLAÇA,VICENÇ MARTORELL,5,1,El Raval,1,Ciutat Vella,8001,41.38440,2.16882
﻿99400182423,Bar Restaurant Café San Telmo,Cocteleries|Xampanyeries|Restaurants,CARRER,BUENOS AIRES,60,8,L'antiga Esquerra De L'eixample,2,Eixample,8036,41.39339,2.14856
﻿99400040582,Bar Restaurant Kasparo,Bars I Pubs Musicals,PLAÇA,VICENÇ MARTORELL,4,1,El Raval,1,Ciutat Vella,8001,41.38447,2.16897
﻿75990415247,Bar Musical Karaoke A Viva Voz *rocafort,Bars I Pubs Musicals|Karaokes,,ROCAFORT,187,9,La Nova Esquerra De L'eixample,2,Eixample,8029,41.38327,2.14789
﻿75990670265,Cerveseria The Fastnet Irish Pub,Bars I Pubs Musicals,PASSEIG,JOAN BORBÓ COMTE BARCELONA,22,3,La Barceloneta,1,Ciutat Vella,8003,41.37959,2.18782
﻿99400096823,Bar Cocteleria 14 De La Rosa,Cocteleries|Xampanyeries,CARRER,MARTÍNEZ DE LA ROSA,14,31,La Vila De Gràcia,6,Gràcia,8012,41.39934,2.15974
﻿75990210543,Cocteleria Stinger,Cocteleries|Xampanyeries,CARRER,CÒRSEGA,340,7,La Dreta De L'eixample,2,Eixample,8037,41.39772,2.16108
﻿99400576029,The Palace Bar,Bars I Pubs Musicals,CARRER,CALÀBRIA,292,9,La Nova Esquerra De L'eixample,2,Eixample,8029,41.38854,2.14353
﻿92086026825,Cocteleria Sucu Sucu,Cocteleries|Xampanyeries,CARRER,PARÍS,150,8,L'antiga Esquerra De L'eixample,2,Eixample,8036,41.39176,2.15092
﻿95188195803,Bar Bobby's Free,Bars I Pubs Musicals,,PAU CLARIS,85,7,La Dreta De L'eixample,2,Eixample,8010,41.38992,2.17069
﻿99400632797,White Shisha Lounge,Discoteques,CARRER,DOCTOR TRUETA,218,68,El Poblenou,10,Sant Martí,8005,41.39863,2.20370
﻿98335121727,Discoteca Antilla Salsa Barcelona,Cocteleries|Discoteques|Xampanyeries,,ARAGÓ,141,9,La Nova Esquerra De L'eixample,2,Eixample,8015,41.38459,2.15461
﻿99400592642,Bar Musical Ende,Bars I Pubs Musicals,CARRER,CASANOVA,210,8,L'antiga Esquerra De L'eixample,2,Eixample,8036,41.39194,2.15035
﻿99400557452,Restaurant Cocteleria Ajoblanco,Cocteleries|Xampanyeries|Restaurants,CARRER,TUSET,20,26,Sant Gervasi - Galvany,5,Sarrià-sant Gervasi,8006,41.39601,2.15210
﻿75990481637,Bar Restaurant Menta,Karaokes|Restaurants,CARRER,CASP,171,5,El Fort Pienc,2,Eixample,8013,41.39902,2.18337
﻿75990121097,Bar Musical Woody,Bars I Pubs Musicals|Cocteleries|Xampanyeries,PLAÇA,SOL,7,31,La Vila De Gràcia,6,Gràcia,8012,41.40178,2.15699
﻿75990017884,Restaurant Season Tapas,Cocteleries|Xampanyeries|Restaurants,CARRER,ARIBAU,125,8,L'antiga Esquerra De L'eixample,2,Eixample,8036,41.39137,2.15526
﻿99400628265,Bar Musical Sinestesia,Bars I Pubs Musicals,CARRER,SANTA CATERINA,52,18,Sants,3,Sants-Montjuïc,8014,41.37962,2.13604
﻿99400628364,Bar Musical Brujas,Bars I Pubs Musicals,CARRER,MASCARÓ,58,35,El Guinardó,7,Horta-Guinardó,8032,41.42258,2.17348
﻿99400593526,Bar Musical Carita Bonita,Bars I Pubs Musicals,CARRER,BALMES,71,8,L'antiga Esquerra De L'eixample,2,Eixample,8007,41.39036,2.16110
﻿99400027886,Cocteleria Upiaywasi,Cocteleries|Xampanyeries,CARRER,ALLADA-VERMELL,11,4,"Sant Pere, Santa Caterina I La Ribera",1,Ciutat Vella,8003,41.38701,2.18108
﻿75990702934,Bar Musical Perifèric,Bars I Pubs Musicals,CARRER,TAJO,5,43,Horta,7,Horta-Guinardó,8031,41.43023,2.16300
﻿75990292924,Bar Musical Mediterráneo,Bars I Pubs Musicals,CARRER,BALMES,129,8,L'antiga Esquerra De L'eixample,2,Eixample,8008,41.39292,2.15772
﻿75990094018,Bar Musical Macarena Club,Bars I Pubs Musicals|Tablaos Flamencs,CARRER,NOU DE SANT FRANCESC,5,2,El Barri Gòtic,1,Ciutat Vella,8002,41.37943,2.17683
﻿75990114488,Bar Musical El Local,Bars I Pubs Musicals,,SANT EUSEBI,36,26,Sant Gervasi - Galvany,5,Sarrià-sant Gervasi,8006,41.40057,2.14777
﻿75990217323,Ideal Cocktail's Bar,Cocteleries|Xampanyeries,CARRER,ARIBAU,89,8,L'antiga Esquerra De L'eixample,2,Eixample,8036,41.38969,2.15747
﻿75990083497,Bar Breston Club,Bars I Pubs Musicals,,MARIÀ CUBÍ,111,26,Sant Gervasi - Galvany,5,Sarrià-sant Gervasi,8021,41.39680,2.14762
﻿99400168325,Bar Musical Sugar,Bars I Pubs Musicals|Cocteleries|Xampanyeries,CARRER,RAURIC,21,2,El Barri Gòtic,1,Ciutat Vella,8002,41.38081,2.17564
﻿75990331366,Restaurant La Bodeguita Del Poble *poble Espanyol,Bars I Pubs Musicals|Cocteleries|Discoteques|Xampanyeries|Restaurants,AVINGUDA,FRANCESC FERRER GUÀRDIA,25,11,El Poble-sec,3,Sants-Montjuïc,8038,41.36914,2.14674
﻿75990157647,Sala Bóveda,Discoteques|Sales De Festes,CARRER,ROC BORONAT,33,68,El Poblenou,10,Sant Martí,8005,41.39844,2.20007
﻿75990014746,Bar Musical Alkimia Barcelona,Bars I Pubs Musicals,CARRER,AMIGÓ,35,26,Sant Gervasi - Galvany,5,Sarrià-sant Gervasi,8021,41.39514,2.14458
﻿99400197039,Restaurant Cocteleria Ebano,Cocteleries|Xampanyeries,AVINGUDA,PARAL·LEL,124,10,Sant Antoni,2,Eixample,8015,41.37520,2.16196
﻿99400320724,Restaurant Fonda Balmes,Cocteleries|Xampanyeries|Restaurants,CARRER,BALMES,175,26,Sant Gervasi - Galvany,5,Sarrià-sant Gervasi,8006,41.39618,2.15347
﻿75990049580,Cocteleria Casablanca,Cocteleries|Xampanyeries,CARRER,DOS DE MAIG,277,6,La Sagrada Família,2,Eixample,8025,41.40895,2.17940
﻿99400165173,Bar Ultramarinos,Bars I Pubs Musicals|Cocteleries|Xampanyeries,CARRER,SANT PAU,126,1,El Raval,1,Ciutat Vella,8001,41.37558,2.16803
﻿97037210405,Discoteca Bembé,Discoteques|Salons De Ball,,VILADOMAT,211,9,La Nova Esquerra De L'eixample,2,Eixample,8029,41.38497,2.15016
﻿94306084135,Shenanigans Irish Pub,Bars I Pubs Musicals,,MARQUÈS DE BARBERÀ,11,1,El Raval,1,Ciutat Vella,8001,41.37868,2.17258
﻿96071124258,Bar Musical Arena Bar,Bars I Pubs Musicals,,CARASSA,4,4,"Sant Pere, Santa Caterina I La Ribera",1,Ciutat Vella,8003,41.38452,2.18027
﻿92086036670,Les Enfants,Discoteques,,GUÀRDIA,3,1,El Raval,1,Ciutat Vella,8001,41.37807,2.17370
﻿99400621024,Lounge Bar Restaurant Cirkuz Land,Cocteleries|Xampanyeries|Restaurants,CARRER,COMERÇ,24,4,"Sant Pere, Santa Caterina I La Ribera",1,Ciutat Vella,8003,41.38850,2.18135
﻿75990682883,Bar Musical Konbe,Bars I Pubs Musicals,CARRER,DEU I MATA,136,19,Les Corts,4,Les Corts,8029,41.38997,2.13848
﻿99400019767,Discoteca Louise Se Va,Bars I Pubs Musicals,PLAÇA,EIVISSA,11,43,Horta,7,Horta-Guinardó,8032,41.43083,2.16064
﻿97119201118,Bar Musical Baroke,Bars I Pubs Musicals,CARRER,MALLORCA,492,6,La Sagrada Família,2,Eixample,8013,41.40664,2.17979
﻿92086010064,Bar Musical Glaciar,Bars I Pubs Musicals,PLAÇA,REIAL,3,2,El Barri Gòtic,1,Ciutat Vella,8002,41.38018,2.17472
﻿99400595976,Restaurant La República,Cocteleries|Xampanyeries|Restaurants,CARRER,MERCÈ,13,2,El Barri Gòtic,1,Ciutat Vella,8002,41.38014,2.18028
﻿99400391689,Restaurant Los Juanele,Bars I Pubs Musicals|Tablaos Flamencs,CARRER,ALDANA,4,10,Sant Antoni,2,Eixample,8015,41.37549,2.16600
﻿99400319043,Sala Upload *poble Espanyol,Discoteques|Sales De Festes,AVINGUDA,FRANCESC FERRER GUÀRDIA,13,11,El Poble-sec,3,Sants-Montjuïc,8038,41.36914,2.14674
﻿99400592750,Discoteca Mandarina Delux,Discoteques,CARRER,VALÈNCIA,335,7,La Dreta De L'eixample,2,Eixample,8009,41.39733,2.16926
﻿99400275889,Restaurant Cachitos Rambla,Cocteleries|Xampanyeries|Restaurants,RAMBLA,CATALUNYA,33,7,La Dreta De L'eixample,2,Eixample,8007,41.38955,2.16531
﻿99400576353,Bar Musical Enigma,Bars I Pubs Musicals,CARRER,TAQUÍGRAF GARRIGA,106,19,Les Corts,4,Les Corts,8029,41.38845,2.13652
﻿99400593707,Cocteleria P41 Bar & Coctelarium,Cocteleries|Xampanyeries,CARRER,MARINA,19,3,La Barceloneta,1,Ciutat Vella,8005,41.38711,2.19657
﻿99400479262,Ebony Club,Discoteques,AVINGUDA,DOCTOR MARAÑÓN,17,20,La Maternitat I Sant Ramon,4,Les Corts,8028,41.38128,2.11445
﻿75990129129,Bar Musical Cafè De Les Arts,Bars I Pubs Musicals|Discoteques,CARRER,VALÈNCIA,234,8,L'antiga Esquerra De L'eixample,2,Eixample,8007,41.39028,2.16027
﻿99400596558,Cocteleria Bloody Mary,Cocteleries|Xampanyeries,CARRER,FERRER DE BLANES,3,31,La Vila De Gràcia,6,Gràcia,8012,41.39838,2.15922
﻿99400596570,Bar Eldiset,Cocteleries|Xampanyeries,CARRER,ANTIC DE SANT JOAN,3,4,"Sant Pere, Santa Caterina I La Ribera",1,Ciutat Vella,8003,41.38499,2.18345
﻿75990123322,Elephant Restaurant & Lounge Club,Bars I Pubs Musicals|Restaurants,CARRER,PAU CLARIS,92,7,La Dreta De L'eixample,2,Eixample,8010,41.39027,2.17059
﻿99400592989,Cocteleria Caporal,Cocteleries|Xampanyeries,CARRER,ESCUDELLERS,5,2,El Barri Gòtic,1,Ciutat Vella,8002,41.37919,2.17590
﻿99400527954,Restaurant Tierra Brava,Cocteleries|Xampanyeries|Restaurants,CARRER,CASANOVA,133,8,L'antiga Esquerra De L'eixample,2,Eixample,8036,41.38850,2.15454
﻿99400328185,Discoteca La Biblio,Discoteques,CARRER,MOIÀ,1,26,Sant Gervasi - Galvany,5,Sarrià-sant Gervasi,8006,41.39554,2.15224
﻿99400328186,Discoteca Bling Bling,Discoteques,CARRER,TUSET,8,26,Sant Gervasi - Galvany,5,Sarrià-sant Gervasi,8006,41.39562,2.15264
﻿99400576566,Bar Mil Miralls,Cocteleries|Xampanyeries,CARRER,PERLA,37,31,La Vila De Gràcia,6,Gràcia,8012,41.40404,2.15802
﻿75990352099,Bikini Barcelona,Bars I Pubs Musicals|Discoteques,AVINGUDA,DIAGONAL,547,19,Les Corts,4,Les Corts,8029,41.38974,2.13539
﻿99400596592,Irish Pub That's The Way,Bars I Pubs Musicals|Cocteleries|Xampanyeries,CARRER,ENTENÇA,85,9,La Nova Esquerra De L'eixample,2,Eixample,8015,41.37944,2.15071
﻿99400596636,Restaurant Nogg,Cocteleries|Xampanyeries|Restaurants,CARRER,TUSET,30,26,Sant Gervasi - Galvany,5,Sarrià-sant Gervasi,8006,41.39644,2.15152
﻿99400476331,Bar Cocteleria Elephanta,Cocteleries|Xampanyeries,CARRER,TORRENT D'EN VIDALET,37,31,La Vila De Gràcia,6,Gràcia,8012,41.40455,2.15872
﻿75990174572,Cocteleria Boadas,Cocteleries|Xampanyeries,CARRER,TALLERS,1,1,El Raval,1,Ciutat Vella,8001,41.38469,2.17016
﻿99400592967,Bar Musical Nix,Bars I Pubs Musicals,CARRER,ROSSELLÓ,156,8,L'antiga Esquerra De L'eixample,2,Eixample,8036,41.39129,2.15483
﻿99400592993,Cocteleria San Basilio,Bars I Pubs Musicals|Cocteleries|Xampanyeries,AVINGUDA,DIAGONAL,337,7,La Dreta De L'eixample,2,Eixample,8037,41.39839,2.16787
﻿99400328182,Discoteca Ker Club Barcelona,Discoteques,CARRER,RAMON TRIAS FARGAS,2,3,La Barceloneta,1,Ciutat Vella,8005,41.38602,2.19656
﻿99400557479,Hall0 Cocktail Bar,Cocteleries|Xampanyeries,PASSEIG,GRÀCIA,75,7,La Dreta De L'eixample,2,Eixample,8008,41.39394,2.16223
﻿99400263461,Sala Fundació Màgica,Discoteques,CARRER,ZAMORA,86,66,El Parc I La Llacuna Del Poblenou,10,Sant Martí,8018,41.39602,2.18996
﻿99400259437,Marula Café Barcelona,Bars I Pubs Musicals|Discoteques,CARRER,ESCUDELLERS,49,2,El Barri Gòtic,1,Ciutat Vella,8002,41.38016,2.17689
﻿92086038702,Bar Marsella,Bars I Pubs Musicals,CARRER,SANT PAU,65,1,El Raval,1,Ciutat Vella,8001,41.37827,2.17122
﻿99400467597,City Hall Barcelona,Teatres|Discoteques,RAMBLA,CATALUNYA,2,7,La Dreta De L'eixample,2,Eixample,8007,41.38767,2.16844
﻿75990061273,Discoteca Blue Boîte,Discoteques,AVINGUDA,DIAGONAL,477,8,L'antiga Esquerra De L'eixample,2,Eixample,8036,41.39281,2.14569
﻿333173100,Razzmatazz,Bars I Pubs Musicals|Discoteques,CARRER,ALMOGÀVERS,122,66,El Parc I La Llacuna Del Poblenou,10,Sant Martí,8018,41.39775,2.19109
﻿99400472118,Bar Musical Craft Barcelona,Bars I Pubs Musicals,CARRER,PARADÍS,4,2,El Barri Gòtic,1,Ciutat Vella,8002,41.38316,2.17698
﻿99400486863,Tablao Framenco La Singla,Tablaos Flamencs|Restaurants,CARRER,MARINA,181,5,El Fort Pienc,2,Eixample,8013,41.39961,2.18020
﻿99400574837,Restaurant Jok,Cocteleries|Xampanyeries|Restaurants,CARRER,MALLORCA,275,7,La Dreta De L'eixample,2,Eixample,8008,41.39478,2.16360
﻿99400476804,Sala Nota79,Cocteleries|Xampanyeries,CARRER,VALLIRANA,79,27,El Putxet I El Farró,5,Sarrià-sant Gervasi,8006,41.40533,2.14583
﻿95171165310,Bar El Rouge,Bars I Pubs Musicals|Cocteleries|Xampanyeries,CARRER,POETA CABANYES,21,11,El Poble-sec,3,Sants-Montjuïc,8004,41.37417,2.16570
﻿97310175200,Bar Musical Bare Nostrum,Bars I Pubs Musicals,,CONSELL DE CENT,384,7,La Dreta De L'eixample,2,Eixample,8009,41.39543,2.17165
﻿75990264956,Cafeteria Restaurant Comillas,Bars I Pubs Musicals,CARRER,MUNTANER,190,8,L'antiga Esquerra De L'eixample,2,Eixample,8036,41.39276,2.15151
﻿99182194919,Discoteca Aire Chicas,Discoteques,,DIPUTACIÓ,233,7,La Dreta De L'eixample,2,Eixample,8007,41.38846,2.16428
﻿75990489045,Bar Musical Honky Tonk Blues,Bars I Pubs Musicals,CARRER,FINLÀNDIA,45,18,Sants,3,Sants-Montjuïc,8014,41.37451,2.13524
﻿99400050225,Restaurant Cafeteria Bòria Café *poble Espanyol,Bars I Pubs Musicals|Restaurants,AVINGUDA,FRANCESC FERRER GUÀRDIA,13,11,El Poble-sec,3,Sants-Montjuïc,8038,41.36914,2.14674
﻿75990405384,Discoteca Moog,Discoteques,CARRER,ARC DEL TEATRE,3,1,El Raval,1,Ciutat Vella,8001,41.37810,2.17502
﻿75990618595,Café Royale,Bars I Pubs Musicals,CARRER,NOU DE ZURBANO,3,2,El Barri Gòtic,1,Ciutat Vella,8002,41.37953,2.17570
﻿96359123240,Escola De Ball La Clave,Discoteques,,TENOR MASINI,65,18,Sants,3,Sants-Montjuïc,8028,41.37779,2.13162
﻿99400047732,Discoteca La Carpa Barcelona,Discoteques,AVINGUDA,MANUEL AZAÑA,1,20,La Maternitat I Sant Ramon,4,Les Corts,8028,41.37704,2.11024
﻿99400596688,Cocteleria Ventuno,Cocteleries|Xampanyeries,CARRER,OR,21,31,La Vila De Gràcia,6,Gràcia,8012,41.40455,2.15694
﻿99029084501,Bar Espit Chupito,Bars I Pubs Musicals,CARRER,ARIBAU,77,8,L'antiga Esquerra De L'eixample,2,Eixample,8036,41.38937,2.15790
﻿75990406306,Restaurant Nervión,Tablaos Flamencs|Restaurants,CARRER,PRINCESA,2,4,"Sant Pere, Santa Caterina I La Ribera",1,Ciutat Vella,8003,41.38419,2.17909
﻿75990722164,El Cafè De Les Delícies,Bars I Pubs Musicals,RAMBLA,RAVAL,47,1,El Raval,1,Ciutat Vella,8001,41.37817,2.17049
﻿75990490788,Bar Restaurant La Higuera,Cocteleries|Xampanyeries|Restaurants,CARRER,SICÍLIA,101,5,El Fort Pienc,2,Eixample,8013,41.39582,2.18094
﻿92086026130,Bar Musical San Trop,Bars I Pubs Musicals,CARRER,COMTE D'URGELL,90,8,L'antiga Esquerra De L'eixample,2,Eixample,8011,41.38304,2.15768
﻿92086018814,Discoteca New Beat,Bars I Pubs Musicals|Discoteques,,BALMES,86,7,La Dreta De L'eixample,2,Eixample,8008,41.39118,2.16038
﻿99400755810,Teatre Flamenc Barcelona,Teatres|Tablaos Flamencs,CARRER,DELS ABAIXADORS,6,4,"Sant Pere, Santa Caterina I La Ribera",1,Ciutat Vella,8003,41.38310,2.18119
﻿97141154512,Bar Musical The Shamrock,Bars I Pubs Musicals,CARRER,TALLERS,72,1,El Raval,1,Ciutat Vella,8001,41.38509,2.16610
﻿99400119281,Bar Manchester *valldonzella,Bars I Pubs Musicals,CARRER,VALLDONZELLA,40,1,El Raval,1,Ciutat Vella,8001,41.38347,2.16504
﻿92086027652,Bar Musical Mirablau,Bars I Pubs Musicals|Discoteques,,DEL DOCTOR ANDREU,1,25,Sant Gervasi - La Bonanova,5,Sarrià-sant Gervasi,8035,41.41630,2.13141
﻿99400147900,Pub Madame Jasmine,Cocteleries|Xampanyeries,RAMBLA,RAVAL,22,1,El Raval,1,Ciutat Vella,8001,41.37803,2.16968
﻿92086038273,Café Mudanzas,Bars I Pubs Musicals,CARRER,VIDRIERIA,15,4,"Sant Pere, Santa Caterina I La Ribera",1,Ciutat Vella,8003,41.38405,2.18318
﻿99400119229,Sala The Club M7,Discoteques,CARRER,MÈXIC,7,11,El Poble-sec,3,Sants-Montjuïc,8004,41.37307,2.14825
﻿99400176913,Milans Cocktail Barcelona,Cocteleries|Xampanyeries,CARRER,DE MILANS,7,2,El Barri Gòtic,1,Ciutat Vella,8002,41.38069,2.17920
﻿96352193513,Jazzsí Club Taller De Músics,Bars I Pubs Musicals,CARRER,REQUESENS,2,1,El Raval,1,Ciutat Vella,8001,41.37983,2.16409
﻿99400109578,Cocteleria Negroni,Cocteleries|Xampanyeries,CARRER,JOAQUÍN COSTA,46,1,El Raval,1,Ciutat Vella,8001,41.38295,2.16547
﻿75990146806,Bar Musical New Chaps,Bars I Pubs Musicals,AVINGUDA,DIAGONAL,365,7,La Dreta De L'eixample,2,Eixample,8037,41.39714,2.16280
﻿75990225831,Bar Musical La Trabanqueta,Bars I Pubs Musicals,CARRER,MALLORCA,329,7,La Dreta De L'eixample,2,Eixample,8037,41.39826,2.16822
﻿75990159282,Bar Musical Sabor Cubano *francisco Giner,Bars I Pubs Musicals,CARRER,FRANCISCO GINER,32,31,La Vila De Gràcia,6,Gràcia,8012,41.39939,2.15895
﻿75990303269,Discoteca Twenties Barcelona,Bars I Pubs Musicals|Discoteques,CARRER,ROSSELLÓ,208,7,La Dreta De L'eixample,2,Eixample,8008,41.39364,2.15796
﻿75990702408,Restaurant Carpe Diem Lounge Club - Cdlc,Bars I Pubs Musicals|Restaurants,PASSEIG,MARÍTIM DE LA BARCELONETA - ORIOL BOHIGAS,32,3,La Barceloneta,1,Ciutat Vella,8003,41.38346,2.19523
﻿75990074105,Bar Musical Snooker Club Barcelona,Bars I Pubs Musicals|Cocteleries|Xampanyeries,CARRER,ROGER DE LLÚRIA,42,7,La Dreta De L'eixample,2,Eixample,8009,41.39216,2.17037
﻿75990212293,Discoteca Bailodromo,Discoteques,CARRER,FELIP II,25,63,Navas,9,Sant Andreu,8027,41.41759,2.19037
﻿75990561637,La Cervesera Artesana,Bars I Pubs Musicals,CARRER,SANT AGUSTÍ,14,31,La Vila De Gràcia,6,Gràcia,8012,41.39819,2.16087
﻿99400173593,Pepe Bar,Bars I Pubs Musicals,CARRER,PAMPLONA,91,66,El Parc I La Llacuna Del Poblenou,10,Sant Martí,8018,41.39683,2.19103
﻿99400746975,Discoteca Atlantic Sound Bcn,Discoteques,CARRER,DEL PLOM,1,12,La Marina Del Prat Vermell,3,Sants-Montjuïc,8038,41.35169,2.13554
﻿92086032966,Bar Musical Kahiki,Bars I Pubs Musicals,,G.V. CORTS CATALANES,581,8,L'antiga Esquerra De L'eixample,2,Eixample,8011,41.38546,2.16255
﻿96103120011,Discoteca Club Catwalk,Discoteques|Sales De Festes|Salons De Ball,CARRER,RAMON TRIAS FARGAS,2,3,La Barceloneta,1,Ciutat Vella,8005,41.38602,2.19656
﻿99400742095,Restaurant Austin's Diner,Bars I Pubs Musicals|Restaurants,CARRER,DEL CARME,33,1,El Raval,1,Ciutat Vella,8001,41.38208,2.17001
﻿99400729800,Sala Safari Disco Club Barcelona,Bars I Pubs Musicals|Discoteques,CARRER,DE TARRAGONA,141,15,Hostafrancs,3,Sants-Montjuïc,8014,41.37836,2.14490
﻿99400727178,Bar Otaku Akihabar Bcn,Bars I Pubs Musicals|Restaurants,CARRER,D'EUGENI D'ORS,5,19,Les Corts,4,Les Corts,8028,41.38404,2.12880
﻿95327105318,Discoteca Wolf Barcelona,Discoteques,,ALMOGÀVERS,88,66,El Parc I La Llacuna Del Poblenou,10,Sant Martí,8018,41.39591,2.18861
﻿99400204105,Bar Musical Pony Café,Bars I Pubs Musicals,CARRER,PORTAL NOU,23,4,"Sant Pere, Santa Caterina I La Ribera",1,Ciutat Vella,8003,41.38875,2.18066
﻿99400629064,Bar Musical Robadors 23,Bars I Pubs Musicals,CARRER,ROBADOR,23,1,El Raval,1,Ciutat Vella,8001,41.37969,2.17077
﻿99400370736,Bar Musical Número 9,Bars I Pubs Musicals,CARRER,VIDRIERIA,9,4,"Sant Pere, Santa Caterina I La Ribera",1,Ciutat Vella,8003,41.38417,2.18291
﻿99400377990,Bar Musical Summum Nightbar,Bars I Pubs Musicals,CARRER,ARIBAU,66,8,L'antiga Esquerra De L'eixample,2,Eixample,8011,41.38882,2.15900
﻿99400175216,Bar Musical Pub Sotavent,Bars I Pubs Musicals|Cocteleries|Xampanyeries,CARRER,MAJOR DE SARRIÀ,61,23,Sarrià,5,Sarrià-sant Gervasi,8017,41.39819,2.12238
﻿99400628268,L'ex-designer Project Bar,Bars I Pubs Musicals,CARRER,ENTENÇA,3,10,Sant Antoni,2,Eixample,8015,41.37547,2.15597
﻿99400628369,Bar Musical Ruta 66,Bars I Pubs Musicals,CARRER,SÒCRATES,66,60,Sant Andreu,9,Sant Andreu,8030,41.43198,2.18601
﻿99400746616,Espai Cultural I Gastronòmic Casa Montjuïc,Cocteleries|Xampanyeries|Restaurants,CARRER,DE VILA I VILÀ,63,11,El Poble-sec,3,Sants-Montjuïc,8004,41.37384,2.16965
﻿99400698702,Discoteca Arena Xperience,Discoteques,,RDA SANT PERE,19,7,La Dreta De L'eixample,2,Eixample,8010,41.38962,2.17404
﻿99400604398,Pub Ambarito,Bars I Pubs Musicals,CARRER,CONSELL DE CENT,193,8,L'antiga Esquerra De L'eixample,2,Eixample,8011,41.38431,2.15648
﻿99400604399,,Bars I Pubs Musicals,CARRER,CONSELL DE CENT,193,8,L'antiga Esquerra De L'eixample,2,Eixample,8011,41.38431,2.15648
﻿99400706558,Cocteleria Nola,Cocteleries|Xampanyeries,CARRER,DE SANTA TERESA,1,31,La Vila De Gràcia,6,Gràcia,8012,41.39807,2.15965
﻿75990018326,Discoteca Barroko's,Discoteques|Salons De Ball,,ARIBAU,242,26,Sant Gervasi - Galvany,5,Sarrià-sant Gervasi,8006,41.39580,2.14974
﻿75990022850,Bar Musical Paco Moreno,Bars I Pubs Musicals,CARRER,BALMES,56,7,La Dreta De L'eixample,2,Eixample,8007,41.38948,2.16263
﻿75990102820,Bar Musical La Fira,Bars I Pubs Musicals,CARRER,PROVENÇA,171,8,L'antiga Esquerra De L'eixample,2,Eixample,8036,41.39042,2.15558
﻿75990018325,Restaurant El Patio Andaluz,Tablaos Flamencs|Restaurants,CARRER,ROCAFORT,231,9,La Nova Esquerra De L'eixample,2,Eixample,8029,41.38493,2.14569
﻿75990028309,Cocteleria El Copetín,Bars I Pubs Musicals|Cocteleries|Xampanyeries,PASSEIG,BORN,19,4,"Sant Pere, Santa Caterina I La Ribera",1,Ciutat Vella,8003,41.38491,2.18274
﻿75990017982,Bar Musical Le Cyrano,Bars I Pubs Musicals,,ARIBAU,154,8,L'antiga Esquerra De L'eixample,2,Eixample,8036,41.39222,2.15449
﻿99400701254,Bar Trash Talk,Bars I Pubs Musicals,CARRER,DE PERE IV,244,68,El Poblenou,10,Sant Martí,8005,41.40509,2.19975
﻿99400694323,Restaurant Jacqueline Barcelona,Cocteleries|Xampanyeries|Restaurants,CARRER,D'ENRIC GRANADOS,66,8,L'antiga Esquerra De L'eixample,2,Eixample,8008,41.39211,2.15685
﻿99400689376,Bar Musical Karaoke A Viva Voz *muntaner,Bars I Pubs Musicals|Karaokes,CARRER,MUNTANER,414,26,Sant Gervasi - Galvany,5,Sarrià-sant Gervasi,8006,41.40064,2.14101
﻿99400698847,Bar Olímpic,Cocteleries|Xampanyeries,CARRER,JOAQUÍN COSTA,25,1,El Raval,1,Ciutat Vella,8001,41.38204,2.16627
﻿321103526,Bar Musical Síncopa,Bars I Pubs Musicals|Cocteleries|Xampanyeries,CARRER,AVINYÓ,35,2,El Barri Gòtic,1,Ciutat Vella,8002,41.38038,2.17904
﻿99400682961,Restaurant Gala Barcelona,Cocteleries|Xampanyeries|Restaurants,CARRER,PROVENÇA,286,7,La Dreta De L'eixample,2,Eixample,8008,41.39416,2.16089
﻿1082172815,Sala B,Discoteques,CARRER,MUNTANER,246,26,Sant Gervasi - Galvany,5,Sarrià-sant Gervasi,8021,41.39462,2.14906
﻿75990023351,Bar Musical Velvet,Bars I Pubs Musicals,CARRER,BALMES,161,8,L'antiga Esquerra De L'eixample,2,Eixample,8008,41.39463,2.15549
﻿1211173854,Bar Café Berlín,Bars I Pubs Musicals,CARRER,MUNTANER,240,26,Sant Gervasi - Galvany,5,Sarrià-sant Gervasi,8021,41.39435,2.14951
﻿99400683060,Cocteleria Libertine,Cocteleries|Xampanyeries,GRAN VIA,DE LES CORTS CATALANES,700,7,La Dreta De L'eixample,2,Eixample,8010,41.39363,2.17429
﻿75990165912,Restaurant Cómico-cómico,Bars I Pubs Musicals|Restaurants,CARRER,ARIBAU,87,8,L'antiga Esquerra De L'eixample,2,Eixample,8036,41.38963,2.15755
﻿75990709870,Discoteca Q Pedralbes,Discoteques,CARRER,SANTA CATERINA DE SIENA,28,21,Pedralbes,4,Les Corts,8034,41.39007,2.11059
﻿75990042698,Dmen's Gay Bar,Bars I Pubs Musicals,CARRER,CONSELL DE CENT,257,8,L'antiga Esquerra De L'eixample,2,Eixample,8011,41.38690,2.15993
﻿1033153036,Bar Restaurant El Último Agave,Bars I Pubs Musicals|Restaurants,CARRER,ARAGÓ,193,8,L'antiga Esquerra De L'eixample,2,Eixample,8011,41.38789,2.15890
﻿75990210375,Big Bang Bar,Bars I Pubs Musicals,CARRER,BOTELLA,7,1,El Raval,1,Ciutat Vella,8001,41.37913,2.16596
﻿75990405246,Karaoke Weekend,Karaokes,CARRER,DIPUTACIÓ,365,7,La Dreta De L'eixample,2,Eixample,8009,41.39640,2.17484
﻿99400319608,Le Pop Bar,Bars I Pubs Musicals,,LA RAMBLA,111,1,El Raval,1,Ciutat Vella,8002,41.38390,2.17092
﻿99400723543,Mariposa Negra Cocktail Bar,Cocteleries|Xampanyeries,,DE LES OLLES,4,4,"Sant Pere, Santa Caterina I La Ribera",1,Ciutat Vella,8003,41.38371,2.18310
﻿99400603677,Bar Guayoyo,Cocteleries|Xampanyeries,PLAÇA,CAMP,2,25,Sant Gervasi - La Bonanova,5,Sarrià-sant Gervasi,8022,41.40353,2.13634
﻿75990713121,Bar Manchester *milans,Bars I Pubs Musicals,CARRER,MILANS,5,2,El Barri Gòtic,1,Ciutat Vella,8002,41.38067,2.17903
﻿99400621820,Espai Abaixadors10,Cocteleries|Xampanyeries,CARRER,ABAIXADORS,10,4,"Sant Pere, Santa Caterina I La Ribera",1,Ciutat Vella,8003,41.38313,2.18120
﻿99400632799,Golden Shisha Lounge,Discoteques,CARRER,PLATÓ,13,26,Sant Gervasi - Galvany,5,Sarrià-sant Gervasi,8006,41.40035,2.14179
﻿75990102799,Bar Musical Aloha,Bars I Pubs Musicals|Cocteleries|Xampanyeries,CARRER,PROVENÇA,159,8,L'antiga Esquerra De L'eixample,2,Eixample,8036,41.38976,2.15469
﻿99400692513,Club Red 58,Bars I Pubs Musicals|Discoteques,CARRER,CONSELL DE CENT,280,7,La Dreta De L'eixample,2,Eixample,8007,41.38931,2.16352
﻿99400758084,Cocteleria Dry Martini,Cocteleries|Xampanyeries,CARRER,D'ARIBAU,162,8,L'antiga Esquerra De L'eixample,2,Eixample,8036,41.39274,2.15375
﻿75990017166,Bar Kentucky,Bars I Pubs Musicals,,ARC DEL TEATRE,11,1,El Raval,1,Ciutat Vella,8001,41.37773,2.17471
﻿99400637674,Restaurant & Cocktails Oda,Cocteleries|Xampanyeries|Restaurants,,MARINA,19,3,La Barceloneta,1,Ciutat Vella,8005,41.38711,2.19657
﻿75990210217,Bar Musical El Cangrejo,Bars I Pubs Musicals,CARRER,MONTSERRAT,9,1,El Raval,1,Ciutat Vella,8001,41.37730,2.17491
﻿75990150522,Bar Musical El Col·leccionista,Bars I Pubs Musicals,CARRER,TORRENT DE LES FLORS,46,31,La Vila De Gràcia,6,Gràcia,8024,41.40592,2.16059
﻿75990042641,Plata Cocktail Bar,Cocteleries|Xampanyeries,CARRER,CONSELL DE CENT,233,8,L'antiga Esquerra De L'eixample,2,Eixample,8011,41.38591,2.15862
﻿75990210325,Sala Vol,Discoteques,,SANCHO DE AVILA,78,66,El Parc I La Llacuna Del Poblenou,10,Sant Martí,8018,41.39947,2.19117
﻿99400754221,Cocteleria Focacha,Cocteleries|Xampanyeries,CARRER,DE TUSET,17,26,Sant Gervasi - Galvany,5,Sarrià-sant Gervasi,8006,41.39609,2.15155
﻿99400604555,Restaurant Feroz,Cocteleries|Xampanyeries|Restaurants,CARRER,TUSET,27,26,Sant Gervasi - Galvany,5,Sarrià-sant Gervasi,8006,41.39658,2.15092
﻿92086018833,Bar Musical Berimbau,Bars I Pubs Musicals,PASSEIG,BORN,17,4,"Sant Pere, Santa Caterina I La Ribera",1,Ciutat Vella,8003,41.38473,2.18262
﻿75990177420,Discoteca Karma,Discoteques,PLAÇA,REIAL,10,2,El Barri Gòtic,1,Ciutat Vella,8002,41.38024,2.17561
﻿75990331543,Bar Cocteleria El Born,Cocteleries|Xampanyeries,PASSEIG,BORN,26,4,"Sant Pere, Santa Caterina I La Ribera",1,Ciutat Vella,8003,41.38479,2.18298
﻿75990121093,Bar Musical La Kontra De Gràcia,Bars I Pubs Musicals|Discoteques,,DEL SOL,3,31,La Vila De Gràcia,6,Gràcia,8012,41.40148,2.15693
﻿75990131581,Bar L'antiquari,Cocteleries|Xampanyeries,CARRER,VEGUER,13,2,El Barri Gòtic,1,Ciutat Vella,8002,41.38394,2.17751
﻿99400695903,Jamboree 3,Bars I Pubs Musicals|Discoteques,,REIAL,18,2,El Barri Gòtic,1,Ciutat Vella,8002,41.37979,2.17516
﻿99400746413,Restaurant L'estació Espai Gastronòmic,Sales De Festes|Restaurants,,AVINGUDA DEL MARQUÈS DE L'ARGENTERA,6,4,"Sant Pere, Santa Caterina I La Ribera",1,Ciutat Vella,8003,41.38445,2.18519
