NOMBRE,IDNOMBRE,tieneInstalacionesDeportivas,tieneWifi,generoAlumnos,TRANSPORTE,Cercanias,Cercanias Lines,Cercanias Station,Metro,Metro_Station,metro_line,Bus,bus_line,Superfice m²,ACCESIBILIDAD,NOMBRE-VIA,NUM,LOCALIDAD,PROVINCIA,CODIGO-POSTAL,BARRIO,DISTRITO,LATITUD,LONGITUD,TELEFONO,EMAIL,TIPO,TipoInstalacion
Centro de Enseñanza Superior Cardenal Cisneros,Centro-de-Ensenanza-Superior-Cardenal-Cisneros,,,,"Metro: Lista (línea 4), Núñez de Balboa (líneas 5 y 9), Diego de León (líneas 4, 5 y 6).",,,,"Metro: Lista (línea 4), Núñez de Balboa (líneas 5 y 9), Diego de León (líneas 4, 5 y 6)","Lista , Núñez de Balboa , Diego de León","4
5
9
6",,,,Sin información sobre accesibilidad para personas con movilidad reducida,GENERAL DIAZ PORLIER,58,MADRID,MADRID,28006,LISTA,SALAMANCA,40.430.655.746.270.500,-3.676.645.132.506.570,"913096120
914028981",secretaria@cescisneros.es,/contenido/entidadesYorganismos/Universidades/OtrosCentrosUniversitarios,Universidades
Centro de Enseñanza Superior en Humanidades y Ciencias de la Educación Don Bosco,Centro-de-Ensenanza-Superior-en-Humanidades-y-Ciencias-de-la-Educacion-Don-Bosco,,,,Metro: Francos Rodríguez (línea 7).,,,,Metro: Francos Rodríguez (línea 7),Francos Rodríguez,7,,,,Sin información sobre accesibilidad para personas con movilidad reducida,MARIA AUXILIADORA,9,MADRID,MADRID,28040,CIUDAD UNIVERSITARIA,MONCLOA-ARAVACA,404.578.663.330.372,-37.154.022.232.737.900,914500472,comunicacion@cesdonbosco.com,/contenido/entidadesYorganismos/Universidades/OtrosCentrosUniversitarios,Universidades
Centro de Enseñanza Superior Villanueva,Centro-de-Ensenanza-Superior-Villanueva,,,,"Metro: Paco de Lucía (línea 9).  Cercanías Renfe: Mirasierra-Paco de Lucía (líneas C7, C8, C8a, C8b).","Renfe: MirasierraPaco de Lucía (líneas C7, C8, C8a, C8b)","C-7
C-8",Mirasierra-Paco de Lucía,Metro: Paco de Lucía (línea 9),Paco de Lucía,9,,,,Sin información sobre accesibilidad para personas con movilidad reducida,COSTA BRAVA,2,MADRID,MADRID,28034,MIRASIERRA,FUENCARRAL-EL PARDO,4.049.594.165.711.770,-3.702.048.289.834.190,917340413,,/contenido/entidadesYorganismos/Universidades/OtrosCentrosUniversitarios,Universidades
Centro Superior de Diseño de Moda de Madrid (Centro adscrito a la UPM),Centro-Superior-de-Diseno-de-Moda-de-Madrid-(Centro-adscrito-a-la-UPM),,,,"Metro: Sierra de Guadalupe (línea 1).  Cercanías Renfe: Vallecas (líneas C2,C7).",Vallecas C1 C2 C7,"C-1
C-2
C-7",Vallecas,Metro: Sierra de Guadalupe (línea 1),Sierra de Guadalupe,1,,,,Sin información sobre accesibilidad para personas con movilidad reducida,VALENCIA,7,MADRID,MADRID,28030,FONTARRON,MORATALAZ,40.388.857.066.045.900,-36.286.523.028.588.000,913310126,informacion.csdmm@upm.es,/contenido/entidadesYorganismos/Universidades/OtrosCentrosUniversitarios,Universidades
Centro Universitario La Salle,Centro-Universitario-La-Salle,,,,Consulta los siguientes enlaces.,,,,,,,,,,Sin información sobre accesibilidad para personas con movilidad reducida,LA SALLE,10,MADRID,MADRID,28023,VALDEMARIN,MONCLOA-ARAVACA,40.466.248.901.592.800,-37.820.082.470.461.600,917401980,sia@lasallecampus.es,/contenido/entidadesYorganismos/Universidades/EscuelasUniversitarias,Universidades
Colegio Mayor Alcalá,Colegio-Mayor-Alcala,,,masculino,Metro: Metropolitano (línea 6).,,,,Metropolitano (línea 6),Metropolitano,6,,,,No accesible,DON RAMON MENENDEZ PIDAL,2,MADRID,MADRID,28040,CIUDAD UNIVERSITARIA,MONCLOA-ARAVACA,4.044.764.820.463.780,-3.719.503.495.059.190,915533004,admisiones@cmalcala.es,/contenido/entidadesYorganismos/Universidades/ColegiosMayores,Universidades
Colegio Mayor Alcor,Colegio-Mayor-Alcor,,,femenino,"Metro: Metropolitano (línea 6), Guzmán el Bueno (línea 6 y 7).",,,,"Metropolitano (línea 6), Guzmán el Bueno (línea 6 y 7)","Metropolitano , Guzmán el Bueno","6
7",,,,Accesible,GENERAL AMPUDIA,7,MADRID,MADRID,28003,VALLEHERMOSO,CHAMBERI,40.443.245.742.864.000,-3.715.255.918.766.610,915339208,info@cmalcor.com,/contenido/entidadesYorganismos/Universidades/ColegiosMayores,Universidades
Colegio Mayor Antonio de Nebrija,Colegio-Mayor-Antonio-de-Nebrija,,,mixto,Metro: Ciudad Universitaria (línea 6),,,,Metro: Ciudad Universitaria (línea 6),Ciudad Universitaria,6,,,,No accesible,SENECA,8,MADRID,MADRID,28040,CIUDAD UNIVERSITARIA,MONCLOA-ARAVACA,4.043.571.333.918.660,-37.284.677.239.467.500,913941005,cmuantoniodenebrija@ucm.es,/contenido/entidadesYorganismos/Universidades/ColegiosMayores,Universidades
Colegio Mayor Aquinas (Santo Tomás de Aquino),Colegio-Mayor-Aquinas-(Santo-Tomas-de-Aquino),,,mixto,"Metro: Estación Vicente Aleixandre (línea 6), Ciudad Universitaria (línea 6) y Francos Rodríguez (línea 7)",,,,"Metro: Estación Vicente Aleixandre (línea 6), Ciudad Universitaria (línea 6) y Francos Rodríguez (línea 7)","Estación Vicente Aleixandre , Ciudad Universitaria  y Francos Rodríguez","6
7",,,,Accesible,LEONARDO PRIETO CASTRO,6,MADRID,MADRID,28040,CIUDAD UNIVERSITARIA,MONCLOA-ARAVACA,4.045.204.759.324.340,-37.218.395.787.782.300,915438800,aquinas@aquinas.es,/contenido/entidadesYorganismos/Universidades/ColegiosMayores,Universidades
Colegio Mayor Argentino Nuestra Señora de Luján,Colegio-Mayor-Argentino-Nuestra-Senora-de-Lujan,,,mixto,Metro: Moncloa (línea 6) Ciudad Universitaria (línea 6),,,,Metro: Moncloa (línea 6) Ciudad Universitaria (línea 6),Moncloa  Ciudad Universitaria,6,,,,No accesible,MARTIN FIERRO,3,MADRID,MADRID,28040,CIUDAD UNIVERSITARIA,MONCLOA-ARAVACA,4.043.610.678.975.890,-3.731.701.576.349.750,911812050,administracion@cmanslujan.com,/contenido/entidadesYorganismos/Universidades/ColegiosMayores,Universidades
Colegio Mayor Barberán y Collar,Colegio-Mayor-Barberan-y-Collar,,,mixto,Consulta los siguientes enlaces:,,,,,,,,,,No accesible,SENECA,16,MADRID,MADRID,28040,CIUDAD UNIVERSITARIA,MONCLOA-ARAVACA,40.434.545.397.562.400,-37.331.585.246.591.500,916020300,cmubarberan@mde.es,/contenido/entidadesYorganismos/Universidades/ColegiosMayores,Universidades
Colegio Mayor Berrospe,Colegio-Mayor-Berrospe,,,femenino,Metro: Vicente Aleixandre (línea 6).,,,,Metro: Vicente Aleixandre (línea 6),Vicente Aleixandre,6,,,,Accesible,MONCLOA,9,MADRID,MADRID,28003,VALLEHERMOSO,CHAMBERI,4.044.636.760.362.390,-3.716.758.311.138.520,915335900,cmberrospe@berrospe.org,/contenido/entidadesYorganismos/Universidades/ColegiosMayores,Universidades
Colegio Mayor Casa Do Brasil,Colegio-Mayor-Casa-Do-Brasil,,,mixto,Metro: Ciudad Universitaria (línea 6).,,,,Metro: Ciudad Universitaria (línea 6),Ciudad Universitaria,6,,,,No accesible,MEMORIA,3,MADRID,MADRID,28040,CIUDAD UNIVERSITARIA,MONCLOA-ARAVACA,4.043.853.583.084.270,-37.252.915.757.655.100,914551560,sec@casadobrasil.es,/contenido/entidadesYorganismos/Universidades/ColegiosMayores,Universidades
Colegio Mayor Chaminade,Colegio-Mayor-Chaminade,,,mixto,"Metro: Vicente Aleixandre (línea 6), Guzmán el Bueno (línea 6 y 7).",,,,"Metro: Vicente Aleixandre (línea 6), Guzmán el Bueno (línea 6 y 7)","Vicente Aleixandre , Guzmán el Bueno","6
7",,,,Accesible,JUAN XXIII,9,MADRID,MADRID,28040,CIUDAD UNIVERSITARIA,MONCLOA-ARAVACA,4.044.734.637.151.860,-37.177.116.209.853.800,915545400,secretaria@fugjchaminade.es,/contenido/entidadesYorganismos/Universidades/ColegiosMayores,Universidades
Colegio Mayor Diego de Covarrubias,Colegio-Mayor-Diego-de-Covarrubias,,,mixto,"Metro: Moncloa (Línea 6), Ciudad Universitaria (Línea 6)",,,,"Metro: Moncloa (Línea 6), Ciudad Universitaria (Línea 6)","Moncloa , Ciudad Universitaria",6,,,,No accesible,SENECA,10,MADRID,MADRID,28040,CIUDAD UNIVERSITARIA,MONCLOA-ARAVACA,4.043.543.488.509.480,-37.297.224.981.364.500,913941030,cmm@pas.ucm.es,/contenido/entidadesYorganismos/Universidades/ColegiosMayores,Universidades
Colegio Mayor Elías Ahúja,Colegio-Mayor-Elias-Ahuja,,,masculino,Metro: Guzman el Bueno (Línea 6),,,,Metro: Guzman el Bueno (Línea 6),Guzman el Bueno,6,,,,No accesible,RECTOR ROYO-VILLANOVA,4,MADRID,MADRID,28040,CIUDAD UNIVERSITARIA,MONCLOA-ARAVACA,4.045.084.427.289.560,-37.153.019.237.576.600,915337700,info@eliasahuja.org,/contenido/entidadesYorganismos/Universidades/ColegiosMayores,Universidades
Colegio Mayor Fundación SEPI,Colegio-Mayor-Fundacion-SEPI,,,mixto,Metro: Vicente Aleixandre (línea 6).,,,,Metro: Vicente Aleixandre (línea 6),Vicente Aleixandre,6,,,,Accesible,GREGORIO DEL AMO,2,MADRID,MADRID,28040,CIUDAD UNIVERSITARIA,MONCLOA-ARAVACA,40.446.907.485.706.800,-37.188.228.498.669.300,915336812,cmusepi.cm@funep.es,/contenido/entidadesYorganismos/Universidades/ColegiosMayores,Universidades
Colegio Mayor Jaime del Amo,Colegio-Mayor-Jaime-del-Amo,,,masculino,"Metro: Vicente Aleixandre (línea 6),",,,,"Metro: Vicente Aleixandre (línea 6),","Vicente Aleixandre ,",6,,,,No accesible,GREGORIO DEL AMO,5,MADRID,MADRID,28040,CIUDAD UNIVERSITARIA,MONCLOA-ARAVACA,4.044.582.638.073.110,-372.226.686.792.607,915540804,secretaria@jaimedelamo.org,/contenido/entidadesYorganismos/Universidades/ColegiosMayores,Universidades
Colegio Mayor Jorge Juan,Colegio-Mayor-Jorge-Juan,,,mixto,Metro: Moncloa (línea 6) y Ciudad Universitaria (línea 6),,,,Metro: Moncloa (línea 6) y Ciudad Universitaria (línea 6),Moncloa  y Ciudad Universitaria,6,,,,No accesible,SENECA,14,MADRID,MADRID,28040,CIUDAD UNIVERSITARIA,MONCLOA-ARAVACA,404.349.249.042.721,-37.317.433.524.081.800,915507100,secretaria@cmjorgejuan.es,/contenido/entidadesYorganismos/Universidades/ColegiosMayores,Universidades
Colegio Mayor Juan Luis Vives,Colegio-Mayor-Juan-Luis-Vives,,,mixto,"Metro: Plaza de Castilla (líneas 1, 9 y 10).",,,,"Metro: Plaza de Castilla (líneas 1, 9 y 10)",Plaza de Castilla,"1
9
10",,,,Accesible,FRANCISCO SUAREZ,7,MADRID,MADRID,28036,NUEVA ESPAÑA,CHAMARTIN,4.046.502.029.145.420,-36.845.899.986.944.400,914979900,cmluisvives@uam.es,/contenido/entidadesYorganismos/Universidades/ColegiosMayores,Universidades
Colegio Mayor Juan XXIII Roncalli,Colegio-Mayor-Juan-XXIII-Roncalli,,,femenino,"Metro: Vicente Aleixandre (línea 6), Guzmán el Bueno (línea 6), Ciudad Universitaria (línea 6)",,,,"Metro: Vicente Aleixandre (línea 6), Guzmán el Bueno (línea 6), Ciudad Universitaria (línea 6)","Vicente Aleixandre , Guzmán el Bueno , Ciudad Universitaria",6,,,,Accesible,RAMIRO DE MAEZTU,3,MADRID,MADRID,28040,CIUDAD UNIVERSITARIA,MONCLOA-ARAVACA,4.044.903.948.047.640,-37.180.373.012.857.000,915339408,direccion@roncalli.es,/contenido/entidadesYorganismos/Universidades/ColegiosMayores,Universidades
Colegio Mayor Loyola,Colegio-Mayor-Loyola,,,mixto,"Metro: Vicente Aleixandre (línea 6), Guzmán el Bueno (líneas 6 y 7).",,,,"Metro: Vicente Aleixandre (línea 6), Guzmán el Bueno (líneas 6 y 7)","Vicente Aleixandre , Guzmán el Bueno","6
7",,,,Accesible,JUAN XXIII,17,MADRID,MADRID,28040,CIUDAD UNIVERSITARIA,MONCLOA-ARAVACA,4.045.000.544.910.970,-37.153.887.868.377.800,915340404,secretaria@cmuloyola.org,/contenido/entidadesYorganismos/Universidades/ColegiosMayores,Universidades
Colegio Mayor Mara,Colegio-Mayor-Mara,,,femenino,"Metro: Vicente Aleixandre (línea 6), Guzmán el Bueno (líneas 6 y 7).",,,,"Metro: Vicente Aleixandre (línea 6), Guzmán el Bueno (líneas 6 y 7)","Vicente Aleixandre , Guzmán el Bueno","6
7",,,,No accesible,JUAN XXIII,15,MADRID,MADRID,28040,CIUDAD UNIVERSITARIA,MONCLOA-ARAVACA,4.044.958.307.800.650,-37.160.919.870.624.100,915536604,secretaria@colegiomayormara.com,/contenido/entidadesYorganismos/Universidades/ColegiosMayores,Universidades
Colegio Mayor Marqués de la Ensenada,Colegio-Mayor-Marques-de-la-Ensenada,,,mixto,Consultar los siguientes enlaces:,,,,,,,,,,Accesible,SENECA,18,MADRID,MADRID,28040,CIUDAD UNIVERSITARIA,MONCLOA-ARAVACA,4.043.444.043.139.220,-3.733.543.743.924.680,915497100,info@cmumarquesdelaensenada.com,/contenido/entidadesYorganismos/Universidades/ColegiosMayores,Universidades
Colegio Mayor Mater Salvatoris,Colegio-Mayor-Mater-Salvatoris,,,femenino,Consultar los siguientes enlaces:,,,,,,,,,,No accesible,VALDESQUI,3,MADRID,MADRID,28023,VALDEMARIN,MONCLOA-ARAVACA,4.046.404.258.469.890,-37.710.701.028.693.100,913071243,madrid.cmu@matersalvatoris.org,/contenido/entidadesYorganismos/Universidades/ColegiosMayores,Universidades
Colegio Mayor Méndel,Colegio-Mayor-Mendel,,,mixto,Metro: Vicente Aleixandre (línea 6).,,,,Metro: Vicente Aleixandre (línea 6),Vicente Aleixandre,6,,,,No accesible,RECTOR ROYO-VILLANOVA,6,MADRID,MADRID,28040,CIUDAD UNIVERSITARIA,MONCLOA-ARAVACA,40.450.938.406.912.800,-3.716.699.793.684.650,915340700,director@cmmendel.com,/contenido/entidadesYorganismos/Universidades/ColegiosMayores,Universidades
Colegio Mayor Moncloa,Colegio-Mayor-Moncloa,,,masculino,"Metro: Guzmán el Bueno (línea 6 y 7), Vicente Aleixandre (línea 6)",,,,"Metro: Guzmán el Bueno (línea 6 y 7), Vicente Aleixandre (línea 6)","Guzmán el Bueno , Vicente Aleixandre","6
7",,,,No accesible,MONCLOA,3,MADRID,MADRID,28003,VALLEHERMOSO,CHAMBERI,4.044.587.627.267.910,-3.715.446.297.968.530,915338500,info@cmmoncloa.org,/contenido/entidadesYorganismos/Universidades/ColegiosMayores,Universidades
Colegio Mayor Montalbán,Colegio-Mayor-Montalban,,,masculino,Metro:  Núñez de Balboa (líneas 5 y 9).,,,,Metro:  Núñez de Balboa (líneas 5 y 9),Núñez de Balboa,"5
9",,,,No accesible,DIEGO DE LEON,14,MADRID,MADRID,28006,CASTELLANA,SALAMANCA,40.434.842.602.381.100,-3.684.160.626.397.250,685745752,info@cmmontalban.com,/contenido/entidadesYorganismos/Universidades/ColegiosMayores,Universidades
Colegio Mayor Nuestra Señora de África,Colegio-Mayor-Nuestra-Senora-de-africa,,,mixto,Metro: Vicente Aleixandre (línea 6),,,,Metro: Vicente Aleixandre (línea 6),Vicente Aleixandre,6,,,,Accesible,RAMIRO DE MAEZTU,2,MADRID,MADRID,28040,CIUDAD UNIVERSITARIA,MONCLOA-ARAVACA,4.044.925.799.673.550,-37.171.006.978.828.400,915540104,info.africa@eoi.es,/contenido/entidadesYorganismos/Universidades/ColegiosMayores,Universidades
Colegio Mayor Nuestra Señora de Guadalupe,Colegio-Mayor-Nuestra-Senora-de-Guadalupe,,,mixto,Metro: Moncloa (líneas 3 y 6).,,,,Metro: Moncloa (líneas 3 y 6),Moncloa,"3
6",,,,Accesible,SENECA,4,MADRID,MADRID,28040,CIUDAD UNIVERSITARIA,MONCLOA-ARAVACA,404.365.837.060.789,-37.255.298.689.626.700,915435200,info.guadalupe@eoi.es,/contenido/entidadesYorganismos/Universidades/ColegiosMayores,Universidades
Colegio Mayor Pío XII,Colegio-Mayor-Pio-XII,,,masculino,Metro: Vicente Aleixandre (línea 6).,,,,Metro: Vicente Aleixandre (línea 6),Vicente Aleixandre,6,,,,No accesible,JUAN XXIII,3,MADRID,MADRID,28040,CIUDAD UNIVERSITARIA,MONCLOA-ARAVACA,4.044.491.451.422.510,-37.200.680.644.720.500,915141711,info@colegiomayorpioxii.es,/contenido/entidadesYorganismos/Universidades/ColegiosMayores,Universidades
Colegio Mayor Poveda,Colegio-Mayor-Poveda,,,femenino,"Metro: Vicente Aleixandre (línea 6), Gúzman el Bueno (líneas 6 y 7).",,,,"Metro: Vicente Aleixandre (línea 6), Gúzman el Bueno (líneas 6 y 7)","Vicente Aleixandre , Gúzman el Bueno","6
7",,,,Accesible,ISAAC PERAL,60,MADRID,MADRID,28040,VALLEHERMOSO,CHAMBERI,40.442.963.646.266.800,-37.190.211.475.612.600,914562589,secretaria@cmppoveda.es,/contenido/entidadesYorganismos/Universidades/ColegiosMayores,Universidades
Colegio Mayor Santa María de Europa,Colegio-Mayor-Santa-Maria-de-Europa,,,mixto,"Metro: Islas Filipinas (línea 7), Canal (líneas 2 y 7).",,,,"Metro: Islas Filipinas (línea 7), Canal (líneas 2 y 7)","Islas Filipinas , Canal","7
2",,,,No accesible,CEA BERMUDEZ,17,MADRID,MADRID,28003,ARAPILES,CHAMBERI,40.438.685.506.832.600,-37.091.237.782.947.600,913946646,ccmm@ucm.es,/contenido/entidadesYorganismos/Universidades/ColegiosMayores,Universidades
Colegio Mayor Santa María del Pino,Colegio-Mayor-Santa-Maria-del-Pino,,,femenino,Metro: Islas Filipinas (línea 7),,,,Metro: Islas Filipinas (línea 7),Islas Filipinas,7,,,,Accesible,SAN FRANCISCO DE SALES,13,MADRID,MADRID,28003,VALLEHERMOSO,CHAMBERI,4.044.040.601.048.900,-37.162.462.206.445.700,915432409,secretaria@colegiomayorpino.com,/contenido/entidadesYorganismos/Universidades/ColegiosMayores,Universidades
Colegio Mayor Santa Mónica,Colegio-Mayor-Santa-Monica,,,femenino,"Metro: Vicente Aleixandre (línea 6), Guzmán el Bueno (líneas 6 y 7).",,,,"Metro: Vicente Aleixandre (línea 6), Guzmán el Bueno (líneas 6 y 7)","Vicente Aleixandre , Guzmán el Bueno","6
7",,,,No accesible,JUAN XXIII,19,MADRID,MADRID,28040,CIUDAD UNIVERSITARIA,MONCLOA-ARAVACA,4.045.035.239.946.320,-37.146.291.167.019.000,915333001,secretaria@cmumonica.es,/contenido/entidadesYorganismos/Universidades/ColegiosMayores,Universidades
Colegio Mayor Santa Teresa de Jesús,Colegio-Mayor-Santa-Teresa-de-Jesus,,,mixto,Consulta los siguientes enlaces:,,,,,,,,,,Accesible,SENECA,12,MADRID,MADRID,28040,CIUDAD UNIVERSITARIA,MONCLOA-ARAVACA,4.043.522.158.947.950,-3.730.558.119.606.540,913941008,,/contenido/entidadesYorganismos/Universidades/ColegiosMayores,Universidades
Colegio Mayor Somosierra,Colegio-Mayor-Somosierra,,,femenino,"Metro: Concha Espina (línea 9), Colombia (líneas 8 y 9).",,,,"Metro: Concha Espina (línea 9), Colombia (líneas 8 y 9)","Concha Espina , Colombia","9
8",,,,Sin información sobre accesibilidad para personas con movilidad reducida,VICTOR DE LA SERNA,13,MADRID,MADRID,28016,HISPANOAMERICA,CHAMARTIN,4.045.338.463.229.640,-3.672.607.650.534.370,618746081,cmsomosierra@cmsomosierra.com,/contenido/entidadesYorganismos/Universidades/ColegiosMayores,Universidades
Colegio Mayor Universitario Isabel de España,Colegio-Mayor-Universitario-Isabel-de-Espana,,,mixto,Metro: Vicente Aleixandre (línea 6).,,,,Metro: Vicente Aleixandre (línea 6),Vicente Aleixandre,6,,,,No accesible,DON RAMON MENENDEZ PIDAL,5,MADRID,MADRID,28040,CIUDAD UNIVERSITARIA,MONCLOA-ARAVACA,4.044.841.681.111.200,-37.199.730.138.128.700,915336104,cmisabel@cmisabel.com,/contenido/entidadesYorganismos/Universidades/ColegiosMayores,Universidades
Colegio Mayor Universitario San Agustín,Colegio-Mayor-Universitario-San-Agustin,,,mixto,Bus: U.,,,,,,,Bus: U,,,Accesible,ANTONIO NEBRIJA,4,MADRID,MADRID,28040,CIUDAD UNIVERSITARIA,MONCLOA-ARAVACA,4.043.672.037.843.150,-37.276.073.977.792.400,915505000,colegio@cmusa.net,/contenido/entidadesYorganismos/Universidades/ColegiosMayores,Universidades
Colegio Mayor Universitario San Pablo,Colegio-Mayor-Universitario-San-Pablo,,,masculino,"Metro: Vicente Aleixandre (línea 6), Islas Filipinas (línea 7).",,,,"Metro: Vicente Aleixandre (línea 6), Islas Filipinas (línea 7)","Vicente Aleixandre , Islas Filipinas","6
7",,,,Accesible,ISAAC PERAL,58,MADRID,MADRID,28040,VALLEHERMOSO,CHAMBERI,40.442.163.372.591.800,-37.186.016.905.372.700,915989600,colegiomayor@cmusp.com,/contenido/entidadesYorganismos/Universidades/ColegiosMayores,Universidades
Colegio Mayor Universitario Santillana,Colegio-Mayor-Universitario-Santillana,,,masculino,"Metro: Paco de lucía (línea 9)  Cercanías Renfe: Mirasierra-Paco de Lucia (líneas C3a, C7, C8 y Regional).","Renfe: MirasierraPaco de Lucia (líneas C3a, C7, C8 y Regional)","C-3
C-7
C-8",Mirasierra-Paco de Lucia,Metro: Paco de lucía (línea 9),Paco de lucía,9,,,,No accesible,MARBELLA,60,MADRID,MADRID,28034,MIRASIERRA,FUENCARRAL-EL PARDO,4.049.465.964.836.940,-37.062.096.187.224.400,917355031,cmsantillana@cmsantillana.org,/contenido/entidadesYorganismos/Universidades/ColegiosMayores,Universidades
Colegio Mayor Vedruna,Colegio-Mayor-Vedruna,,,femenino,"Metro: Guzmán El Bueno (línea 6 y 7), Vicente Aleixandre (línea 6).",,,,"Metro: Guzmán El Bueno (línea 6 y 7), Vicente Aleixandre (línea 6)","Guzmán El Bueno , Vicente Aleixandre","6
7",,,,Accesible,PRESIDENTE GARCIA MORENO,2,MADRID,MADRID,28003,VALLEHERMOSO,CHAMBERI,40.445.605.369.642.500,-3.714.995.329.761.430,"915342306
915342306",recepcion@cmvedruna.org,/contenido/entidadesYorganismos/Universidades/ColegiosMayores,Universidades
Colegio Mayor Ximénez de Cisneros,Colegio-Mayor-Ximenez-de-Cisneros,,,mixto,Consulta los siguientes enlaces:,,,,,,,,,,No accesible,SENECA,8,MADRID,MADRID,28040,CIUDAD UNIVERSITARIA,MONCLOA-ARAVACA,4.043.571.333.918.660,-37.284.677.239.467.500,913941006,ccmm@ucm.es / subdir_cisneros@ucm.es,/contenido/entidadesYorganismos/Universidades/ColegiosMayores,Universidades
Colegio Universitario de Estudios Financieros,Colegio-Universitario-de-Estudios-Financieros,,,,Metro: Francos Rodríguez (línea 7).,,,,Metro: Francos Rodríguez (línea 7),Francos Rodríguez,7,,,,Sin información sobre accesibilidad para personas con movilidad reducida,PIRINEOS,55,MADRID,MADRID,28040,CIUDAD UNIVERSITARIA,MONCLOA-ARAVACA,4.045.357.920.636.980,-3.718.717.277.671.810,914445161,,/contenido/entidadesYorganismos/Universidades/OtrosCentrosUniversitarios,Universidades
Escuela de Práctica Jurídica,Escuela-de-Practica-Juridica,,,,"Metro: Noviciado (línea 2), Plaza de España (líneas 3 y 10).",,,,"Metro: Noviciado (línea 2), Plaza de España (líneas 3 y 10)","Noviciado , Plaza de España","2
3
10",,,,Sin información sobre accesibilidad para personas con movilidad reducida,AMANIEL,2,MADRID,MADRID,28015,UNIVERSIDAD,CENTRO,4.042.503.902.541.330,-37.091.208.409.661.000,915327391,epj@epj.es,/contenido/entidadesYorganismos/Universidades/OtrosCentrosUniversitarios,Universidades
Escuela Politécnica de Enseñanza Superior (EPES),Escuela-Politecnica-de-Ensenanza-Superior-(EPES),,,,Metro: Vicente Aleixandre (línea 6),,,,Metro: Vicente Aleixandre (línea 6),Vicente Aleixandre,6,,,,Sin información sobre accesibilidad para personas con movilidad reducida,JUAN XXIII,11,MADRID,MADRID,28040,CIUDAD UNIVERSITARIA,MONCLOA-ARAVACA,4.044.793.793.568.310,-3.717.285.250.885.190,"910670679
910670676",secretaria.epes@upm.es,/contenido/entidadesYorganismos/Universidades/EscuelasUniversitarias,Universidades
Escuela Superior de Diseño,Escuela-Superior-de-Diseno,,,,Metro: Vinateros (línea 9).,,,,Metro: Vinateros (línea 9),Vinateros,9,,,,Sin información sobre accesibilidad para personas con movilidad reducida,CAMINO DE LOS VINATEROS,106,MADRID,MADRID,28030,MARROQUINA,MORATALAZ,40.409.090.881.121.200,-36.488.257.296.912.500,914390000,esd.madrid@educa.madrid.org,/contenido/entidadesYorganismos/Universidades/OtrosCentrosUniversitarios,Universidades
Escuela Técnica Superior de Arquitectura,Escuela-Tecnica-Superior-de-Arquitectura,,,,"Metro: Ciudad Universitaria (línea 6), Moncloa (líneas 3 y 6)",,,,"Metro: Ciudad Universitaria (línea 6), Moncloa (líneas 3 y 6)","Ciudad Universitaria , Moncloa","6
3",,,,Sin información sobre accesibilidad para personas con movilidad reducida,JUAN DE HERRERA,4,MADRID,MADRID,28040,CIUDAD UNIVERSITARIA,MONCLOA-ARAVACA,4.043.959.650.623.060,-3.731.162.126.785.860,"913366501
913366507",,/contenido/entidadesYorganismos/Universidades/EscuelasUniversitarias,Universidades
Escuela Técnica Superior de Edificación,Escuela-Tecnica-Superior-de-Edificacion,,,,"Metro: Ciudad Universitaria (línea 6), Moncloa (línea 3)",,,,"Metro: Ciudad Universitaria (línea 6), Moncloa (línea 3)","Ciudad Universitaria , Moncloa","6
3",,,,Sin información sobre accesibilidad para personas con movilidad reducida,JUAN DE HERRERA,6,MADRID,MADRID,28040,CIUDAD UNIVERSITARIA,MONCLOA-ARAVACA,40.439.061.141.330.200,-37.317.253.526.397.600,910675234,comunicacion.edificacion@upm.es,/contenido/entidadesYorganismos/Universidades/EscuelasUniversitarias,Universidades
Escuela Técnica Superior de Ingeniería Aeronáutica y del Espacio,Escuela-Tecnica-Superior-de-Ingenieria-Aeronautica-y-del-Espacio,,,,"Metro: Ciudad Universitaria (línea 6), Moncloa (líneas 3 y 6)",,,,"Metro: Ciudad Universitaria (línea 6), Moncloa (líneas 3 y 6)","Ciudad Universitaria , Moncloa","6
3",,,,Sin información sobre accesibilidad para personas con movilidad reducida,CARDENAL CISNEROS,3,MADRID,MADRID,28040,CIUDAD UNIVERSITARIA,MONCLOA-ARAVACA,4.044.098.319.331.980,-37.246.487.290.907.200,"910675534
910675572",,/contenido/entidadesYorganismos/Universidades/EscuelasUniversitarias,Universidades
"Escuela Técnica Superior de Ingeniería Agronómica, Alimentaria y de Biosistemas","Escuela-Tecnica-Superior-de-Ingenieria-Agronomica,-Alimentaria-y-de-Biosistemas",,,,Metro: Ciudad Universitaria (línea 6).,,,,Metro: Ciudad Universitaria (línea 6),Ciudad Universitaria,6,,,,Sin información sobre accesibilidad para personas con movilidad reducida,PUERTA DE HIERRO,2,MADRID,MADRID,28040,CIUDAD UNIVERSITARIA,MONCLOA-ARAVACA,40.440.899.945.359.300,-3.728.076.234.171.520,"910670742
910670743",comunicacion.etsiaab@upm.es,/contenido/entidadesYorganismos/Universidades/EscuelasUniversitarias,Universidades
"Escuela Técnica Superior de Ingeniería de Montes, Forestal y del Medio Natural","Escuela-Tecnica-Superior-de-Ingenieria-de-Montes,-Forestal-y-del-Medio-Natural",,,,Metro: Vicente Aleixandre o Ciudad Universitaria(línea 6).,,,,Metro: Vicente Aleixandre o Ciudad Universitaria(línea 6),Vicente Aleixandre o Ciudad Universitaria,6,,,,Sin información sobre accesibilidad para personas con movilidad reducida,JOSE ANTONIO NOVAIS,10,MADRID,MADRID,28040,CIUDAD UNIVERSITARIA,MONCLOA-ARAVACA,40.448.485.414.321.800,-3.724.507.841.206.360,"910671510
910671509",comunicacion.montes@upm.es,/contenido/entidadesYorganismos/Universidades/EscuelasUniversitarias,Universidades
Escuela Técnica Superior de Ingeniería de Sistemas Informáticos,Escuela-Tecnica-Superior-de-Ingenieria-de-Sistemas-Informaticos,,,,"Metro: Sierra de Guadalupe (línea 1).  Cercanías Renfe: Vallecas ( líneas C-7a, C-2 o C-1)",Vallecas C1 C2 C7,"C-1
C-2
C-7",Vallecas,Metro: Sierra de Guadalupe (línea 1),Sierra de Guadalupe,1,,,,Sin información sobre accesibilidad para personas con movilidad reducida,ALAN TURING,1,MADRID,MADRID,28030,PALOMERAS SURESTE,PUENTE DE VALLECAS,4.039.037.030.758.320,-3.626.968.215.943.050,"910673534
910673524",negociado.alumnos.etsisi@upm.es,/contenido/entidadesYorganismos/Universidades/EscuelasUniversitarias,Universidades
Escuela Técnica Superior de Ingeniería y Diseño Industrial,Escuela-Tecnica-Superior-de-Ingenieria-y-Diseno-Industrial,,,,"Metro: Embajadores (líneas 3 y 5), Atocha (línea 1)  Cercanías Renfe: Embajadores  (línea C5), Atocha (líneas C1,C2,C3,C4,C5,C6,C7,C8 y C10)","Renfe: Embajadores  (línea C5), Atocha (líneas C1,C2,C3,C4,C5,C6,C7,C8 y C10)","C-5
C-1
C-2
C-3
C-4
C-6
C-7
C-8
C-10","Embajadores, Atocha","Metro: Embajadores (líneas 3 y 5), Atocha (línea 1)","Embajadores , Atocha","3
5
1",,,,Sin información sobre accesibilidad para personas con movilidad reducida,VALENCIA,3,MADRID,MADRID,28012,PALOS DE LA FRONTERA,ARGANZUELA,40.405.420.030.666.500,-37.005.940.001.153.300,910677400,secretaria.etsidi@upm.es,/contenido/entidadesYorganismos/Universidades/EscuelasUniversitarias,Universidades
Escuela Técnica Superior de Ingeniería y Sistemas de Telecomunicación,Escuela-Tecnica-Superior-de-Ingenieria-y-Sistemas-de-Telecomunicacion,,,,Metro: Sierra de Guadalupe (línea 1)  Cercanías Renfe: Atocha-Alcalá de Henares (líneas C2 y C7),"Renfe: AtochaAlcalá de Henares (líneas C2 y C7) C1,C2,C3,C4,C5,C6,C7,C8 y C10","C-2
C-7
C-1
C-3
C-4
C-5
C-6
C-8
C-10",Atocha-Alcalá de Henares,Metro: Sierra de Guadalupe (línea 1),Sierra de Guadalupe,1,,,,Sin información sobre accesibilidad para personas con movilidad reducida,NIKOLA TESLA,,MADRID,MADRID,,,DISTRITO,4.038.879.475.945.980,-3.629.147.669.595.360,910673200,info@etsist.upm.es,/contenido/entidadesYorganismos/Universidades/EscuelasUniversitarias,Universidades
"Escuela Técnica Superior de Ingenieros de Caminos, Canales y Puertos. Edificio Retiro","Escuela-Tecnica-Superior-de-Ingenieros-de-Caminos,-Canales-y-Puertos.-Edificio-Retiro",,,,Metro:  Atocha Renfe (línea 1)  Cercanías Renfe: Estación Atocha,"Renfe: Estación Atocha líneas C1,C2,C3,C4,C5,C6,C7,C8 y C10","C-1
C-2
C-3
C-4
C-5
C-6
C-7
C-8
C-10",Estación Atocha,Metro:  Atocha,Atocha,,,,,Sin información sobre accesibilidad para personas con movilidad reducida,ALFONSO XII,3,MADRID,MADRID,28014,LOS JERONIMOS,RETIRO,404.094.661.942.901,-3.688.412.783.499.900,910674534,alumnos.caminos@upm.es,/contenido/entidadesYorganismos/Universidades/EscuelasUniversitarias,Universidades
Escuela Técnica Superior de Ingenieros de Minas y Energía.,Escuela-Tecnica-Superior-de-Ingenieros-de-Minas-y-Energia.,,,,Metro: Ríos Rosas (línea 1),,,,Metro: Ríos Rosas (línea 1),Ríos Rosas,1,,,,Sin información sobre accesibilidad para personas con movilidad reducida,RIOS ROSAS,21,MADRID,MADRID,28003,RIOS ROSAS,CHAMBERI,4.044.209.227.424.250,-37.003.734.646.151.500,"910676602
910676301",gabinete.comunicacion.minasyenergia@upm.es,/contenido/entidadesYorganismos/Universidades/EscuelasUniversitarias,Universidades
Escuela Técnica Superior de Ingenieros de Telecomunicación,Escuela-Tecnica-Superior-de-Ingenieros-de-Telecomunicacion,,,,Metro: Ciudad Universitaria (línea 6),,,,Metro: Ciudad Universitaria (línea 6),Ciudad Universitaria,6,,,,Sin información sobre accesibilidad para personas con movilidad reducida,COMPLUTENSE,30,MADRID,MADRID,28040,CIUDAD UNIVERSITARIA,MONCLOA-ARAVACA,40.453.018.384.890.900,-3.726.745.005.476.220,910671900,,/contenido/entidadesYorganismos/Universidades/EscuelasUniversitarias,Universidades
"Escuela Técnica Superior de Ingenieros en Topografía, Geodesia y Cartografía","Escuela-Tecnica-Superior-de-Ingenieros-en-Topografia,-Geodesia-y-Cartografia",,,,"Metro: Sierra de Guadalupe (línea 1).  Cercanías Renfe: Vallecas (líneas C1, C2, C7a).",Vallecas C1 C2 C7,"C-1
C-2
C-7",Vallecas,Metro: Sierra de Guadalupe (línea 1),Sierra de Guadalupe,1,,,,Sin información sobre accesibilidad para personas con movilidad reducida,ARBOLEDA,1,MADRID,MADRID,28031,PALOMERAS SURESTE,PUENTE DE VALLECAS,403.850.312.955.634,-36.262.428.071.808.600,913367916,,/contenido/entidadesYorganismos/Universidades/EscuelasUniversitarias,Universidades
Escuela Técnica Superior de Ingenieros Industriales,Escuela-Tecnica-Superior-de-Ingenieros-Industriales,,,,"Metro: Gregorio Marañón (líneas 7, 10).  Cercanías Renfe: Nuevos Ministerios (líneas C-1, C-3, C-4, C-7, C-8, C-10)","Renfe: Nuevos Ministerios (líneas C1, C3, C4, C7, C8, C10)","C-1
C-3
C-4
C-7
C-8
C-10",Nuevos Ministerios,"Metro: Gregorio Marañón (líneas 7, 10)",Gregorio Marañón,"7
10",,,,Sin información sobre accesibilidad para personas con movilidad reducida,JOSE GUTIERREZ ABASCAL,2,MADRID,MADRID,28006,EL VISO,CHAMARTIN,4.044.042.600.324.050,-3.690.212.174.964.130,910676700,,/contenido/entidadesYorganismos/Universidades/EscuelasUniversitarias,Universidades
Escuela Técnica Superior de Ingenieros Navales,Escuela-Tecnica-Superior-de-Ingenieros-Navales,,,,"Metro: Moncloa (línea 3), Ciudad Universitaria (línea 6).",,,,"Metro: Moncloa (línea 3), Ciudad Universitaria (línea 6)","Moncloa , Ciudad Universitaria","3
6",,,,Sin información sobre accesibilidad para personas con movilidad reducida,Arco de la Victoria,4,MADRID,MADRID,28040,CIUDAD UNIVERSITARIA,MONCLOA-ARAVACA,404.388.050.819.418,-3.724.433.976.834.530,913367140,informacionyservicios.navales@upm.es,/contenido/entidadesYorganismos/Universidades/EscuelasUniversitarias,Universidades
Escuela Universitaria de Enfermería de la Cruz Roja,Escuela-Universitaria-de-Enfermeria-de-la-Cruz-Roja,,,,"Metro: Guzmán el Bueno (líneas 6 y 7), Cuatro Caminos (líneas 1, 2 y 6).",,,,"Metro: Guzmán el Bueno (líneas 6 y 7), Cuatro Caminos (líneas 1, 2 y 6)","Guzmán el Bueno , Cuatro Caminos","6
7
1
2",,,,Sin información sobre accesibilidad para personas con movilidad reducida,REINA VICTORIA,28,MADRID,MADRID,28003,CIUDAD UNIVERSITARIA,MONCLOA-ARAVACA,40.447.245.864.225.900,-37.096.954.577.510.500,915343649,inforeue@cruzroja.es,/contenido/entidadesYorganismos/Universidades/EscuelasUniversitarias,Universidades
Escuela Universitaria de Enfermería. Fundación Jiménez Díaz,Escuela-Universitaria-de-Enfermeria.-Fundacion-Jimenez-Diaz,,,,"Metro: Moncloa (líneas 3 y 6), Arg&amp;uuml;elles (lineas 3, 4 y 6).",,,,"Metro: Moncloa (líneas 3 y 6), Arguelles (lineas 3, 4 y 6)","Moncloa , Arguelles","3
6
4",,,,Sin información sobre accesibilidad para personas con movilidad reducida,LISBOA,3,MADRID,MADRID,28008,ARGUELLES,MONCLOA-ARAVACA,40.432.178.026.136.500,-37.237.339.935.316.400,"915504863
915504864",escuelaenfermeriafjd@quironsalud.es,/contenido/entidadesYorganismos/Universidades/EscuelasUniversitarias,Universidades
Escuela Universitaria de Magisterio,Escuela-Universitaria-de-Magisterio,,,,"Metro: Eugenia de Montijo (línea 5), Carabanchel Alto (línea 11).  Cercanías Renfe: Aluche (C5).",Renfe: Aluche C5,C-5,Aluche,"Metro: Eugenia de Montijo (línea 5), Carabanchel Alto (línea 11)","Eugenia de Montijo , Carabanchel Alto","5
11",,,,Sin información sobre accesibilidad para personas con movilidad reducida,NUESTRA SEÑORA DE FATIMA,102,MADRID,MADRID,28047,VISTA ALEGRE,CARABANCHEL,40.378.328.008.655.000,-37.488.801.858.007.900,914651700,info@escuni.es,/contenido/entidadesYorganismos/Universidades/EscuelasUniversitarias,Universidades
Facultad de Ciencias de la Actividad Física y del Deporte (INEF),Facultad-de-Ciencias-de-la-Actividad-Fisica-y-del-Deporte-(INEF),,,,"Metro: Ciudad Universitaria (línea 6),Moncloa (líneas 3 y 6)",,,,"Metro: Ciudad Universitaria (línea 6),Moncloa (líneas 3 y 6)","Ciudad Universitaria ,Moncloa","6
3",,,,Sin información sobre accesibilidad para personas con movilidad reducida,MARTIN FIERRO,7,MADRID,MADRID,28040,CIUDAD UNIVERSITARIA,MONCLOA-ARAVACA,404.381.730.352.489,-37.325.360.017.630.100,910677850,,/contenido/entidadesYorganismos/Universidades/Facultades,Universidades
Instituto de Estudios Bursátiles,Instituto-de-Estudios-Bursatiles,,,,Cercanías Renfe: Aravaca (C7 y C10).,Aravaca C7 C10,"C-7
C-10",Aravaca,,,,,,,Sin información sobre accesibilidad para personas con movilidad reducida,TALGO,5,MADRID,MADRID,28023,ARAVACA,MONCLOA-ARAVACA,40.446.914.051.263.000,-37.787.937.166.693.000,915240615,info@ieb.es,/contenido/entidadesYorganismos/Universidades/OtrosCentrosUniversitarios,Universidades
Instituto de Salud Carlos III. Escuela Nacional de Medicina del Trabajo,Instituto-de-Salud-Carlos-III.-Escuela-Nacional-de-Medicina-del-Trabajo,,,,Consulta los siguientes enlaces,,,,,,,,,,Sin información sobre accesibilidad para personas con movilidad reducida,SINESIO DELGADO,8,MADRID,MADRID,28029,LA PAZ,FUENCARRAL-EL PARDO,4.047.467.830.039.230,-3.693.859.963.015.040,"918224039
918224026",secretaria.enmt@isciii.es,/contenido/entidadesYorganismos/Universidades/OtrosCentrosUniversitarios,Universidades
Residencia de Estudiantes Ciudad Escolar. Comunidad de Madrid.,Residencia-de-Estudiantes-Ciudad-Escolar.-Comunidad-de-Madrid.,,,mixto,"Cercanias Renfe: Ramón y Cajal (líneas C10, C8-A, C8-B)","Renfe: Ramón y Cajal (líneas C10, C8A, C8B, C3)","C-10
C-8
C-3",Ramón y Cajal,,,,,,,Accesible,COLMENAR VIEJO,,MADRID,MADRID,,,DISTRITO,4.052.514.591.809.950,-36.853.908.329.744.200,917342700,residenciadeestudiantes@educa.madrid.org,/contenido/entidadesYorganismos/Universidades/ColegiosMayores,Universidades
Residencia de estudiantes Palacio de Barradas,Residencia-de-estudiantes-Palacio-de-Barradas,,,mixto,"Metro: Noviciado (líneas 2, 3 y 10), San Bernardo (líneas 2 y 4).",,,,"Metro: Noviciado (líneas 2, 3 y 10), San Bernardo (líneas 2 y 4)","Noviciado , San Bernardo","2
3
10
4",,,,Accesible,SAN BERNARDO,63,MADRID,MADRID,28015,UNIVERSIDAD,CENTRO,4.042.645.825.034.470,-3.706.923.606.244.760,"915228996
915232800
617342910",,/contenido/entidadesYorganismos/Universidades/ColegiosMayores,Universidades
Residencia Universitaria Augustinus Nebrija,Residencia-Universitaria-Augustinus-Nebrija,,,mixto,Metro: Islas Filipinas (línea 7) y Moncloa (líneas 3 y 6).,,,,Metro: Islas Filipinas (línea 7) y Moncloa (líneas 3 y 6),Islas Filipinas  y Moncloa,"7
3
6",,,,Accesible,CEA BERMUDEZ,59,MADRID,MADRID,28003,GAZTAMBIDE,CHAMBERI,4.043.894.007.585.970,-3.715.531.702.478.500,914521150,residencias@nebrija.es,/contenido/entidadesYorganismos/Universidades/ColegiosMayores,Universidades
Residencia Universitaria Erasmo,Residencia-Universitaria-Erasmo,,,mixto,Cercanías Renfe: Cantoblanco Universidad (líneas C4a y C4b).,Cantoblanco Universidad C4,C-4,Cantoblanco Universidad,,,,,,,Accesible,ERASMO DE ROTTERDAM,5,MADRID,MADRID,28049,EL GOLOSO,FUENCARRAL-EL PARDO,40.548.027.795.931.400,-36.989.970.922.329.400,911312100,erasmo@resa.es,/contenido/entidadesYorganismos/Universidades/ColegiosMayores,Universidades
Residencia Universitaria Gómez Pardo,Residencia-Universitaria-Gomez-Pardo,,,mixto,"Metro: Ríos Rosas (línea 1), Cuatro Caminos (líneas 1, 2 y 6).",,,,"Metro: Ríos Rosas (línea 1), Cuatro Caminos (líneas 1, 2 y 6)","Ríos Rosas , Cuatro Caminos","1
2
6",,,,No accesible,CRISTOBAL BORDIU,30,MADRID,MADRID,28003,RIOS ROSAS,CHAMBERI,40.443.040.030.471,-37.009.070.820.260.800,914417921,residencia@fgomezpardo.es,/contenido/entidadesYorganismos/Universidades/ColegiosMayores,Universidades
Residencia Universitaria José Pérez de Vargas,Residencia-Universitaria-Jose-Perez-de-Vargas,,,mixto,Metro: Vicálvaro (línea 9).,,,,Metro: Vicálvaro (línea 9),Vicálvaro,9,,,,Sin información sobre accesibilidad para personas con movilidad reducida,DAROCA,321,MADRID,MADRID,28032,CASCO H.VICALVARO,VICALVARO,40.406.276.896.821.500,-36.127.600.502.928.500,917753042,administracion@residenciavicalvarourjc.com,/contenido/entidadesYorganismos/Universidades/ColegiosMayores,Universidades
Residencia Universitaria Nebrija Arturo Soria,Residencia-Universitaria-Nebrija-Arturo-Soria,,,mixto,Metro: Arturo soria (línea 4),,,,Metro: Arturo soria (línea 4),Arturo soria,4,,,,Accesible,ASURA,90,MADRID,MADRID,28043,CANILLAS,HORTALEZA,4.045.750.817.868.430,-36.544.422.302.629.100,914521150,residencias@nebrija.es,/contenido/entidadesYorganismos/Universidades/ColegiosMayores,Universidades
Residencia Universitaria Nebrija Chamberí,Residencia-Universitaria-Nebrija-Chamberi,,,mixto,"Metro: Bilbao (líneas 1 y 4), Alonso Martínez (líneas 4, 5 y 10).",,,,"Metro: Bilbao (líneas 1 y 4), Alonso Martínez (líneas 4, 5 y 10)","Bilbao , Alonso Martínez","1
4
5
10",,,,No accesible,NICASIO GALLEGO,12,MADRID,MADRID,28010,TRAFALGAR,CHAMBERI,4.042.942.134.889.180,-3.698.902.512.090.170,"914471200
914521150",residencias@nebrija.es,/contenido/entidadesYorganismos/Universidades/ColegiosMayores,Universidades
Residencia Universitaria Nebrija - Corazonistas,Residencia-Universitaria-Nebrija---Corazonistas,,,mixto,"Metro: Arg&amp;uuml;elles (líneas 3, 4 y 6), Moncloa (líneas 3 y 6)",,,,"Metro: Arguelles (líneas 3, 4 y 6), Moncloa (líneas 3 y 6)","Arguelles , Moncloa","3
4
6",,,,No accesible,TUTOR,36,MADRID,MADRID,28008,ARGUELLES,MONCLOA-ARAVACA,4.042.951.144.473.090,-37.166.919.067.720.400,"915478800
914521150",residencias@nebrija.es,/contenido/entidadesYorganismos/Universidades/ColegiosMayores,Universidades
Residencia Universitaria Tagaste,Residencia-Universitaria-Tagaste,,,mixto,Metro: Goya (líneas 2 y 4).,,,,Metro: Goya (líneas 2 y 4),Goya,"2
4",,,,Sin información sobre accesibilidad para personas con movilidad reducida,GENERAL PARDI&amp;Ntilde;AS,34,MADRID,MADRID,28001,GOYA,SALAMANCA,4.042.668.459.434.310,-36.784.079.436.749.700,"647904401
914354180",holamadrid@tagaste.com,/contenido/entidadesYorganismos/Universidades/ColegiosMayores,Universidades
Universidad Autónoma de Madrid. Escuela Politécnica Superior,Universidad-Autonoma-de-Madrid.-Escuela-Politecnica-Superior,,,,Cercanías Renfe: Cantoblanco Universidad (línea C4).,Cantoblanco Universidad C4,C-4,Cantoblanco Universidad,,,,,,,Sin información sobre accesibilidad para personas con movilidad reducida,FRANCISCO TOMAS Y VALIENTE,11,MADRID,MADRID,28049,EL GOLOSO,FUENCARRAL-EL PARDO,4.054.694.594.124.170,-36.915.841.963.667,914977438,información.eps@uam.es,/contenido/entidadesYorganismos/Universidades/EscuelasUniversitarias,Universidades
Universidad Autónoma de Madrid. Escuela Universitaria de Fisioterapia de la ONCE,Universidad-Autonoma-de-Madrid.-Escuela-Universitaria-de-Fisioterapia-de-la-ONCE,,,,Cercanías Renfe: Mirasierra Paco de Lucía (C7 y C8).,Renfe: Mirasierra Paco de Lucía (C7 y C8),"C-7
C-8",Mirasierra Paco de Lucía,,,,,,,Sin información sobre accesibilidad para personas con movilidad reducida,NURIA,42,MADRID,MADRID,28034,MIRASIERRA,FUENCARRAL-EL PARDO,40.493.908.768.303.500,-3.708.268.358.490.920,915894500,euf@once.es,/contenido/entidadesYorganismos/Universidades/EscuelasUniversitarias,Universidades
Universidad Autónoma de Madrid. Facultad de Ciencias,Universidad-Autonoma-de-Madrid.-Facultad-de-Ciencias,,,,Cercanías Renfe: Cantoblanco Universidad (línea C4).,Cantoblanco Universidad C4,C-4,Cantoblanco Universidad,,,,,,,Sin información sobre accesibilidad para personas con movilidad reducida,FRANCISCO TOMAS Y VALIENTE,7,MADRID,MADRID,28049,EL GOLOSO,FUENCARRAL-EL PARDO,4.054.537.941.407.220,-36.951.833.197.962.500,"914974331
914973005",informacion.ciencias@uam.es,/contenido/entidadesYorganismos/Universidades/Facultades,Universidades
Universidad Autónoma de Madrid. Facultad de Ciencias Económicas y Empresariales,Universidad-Autonoma-de-Madrid.-Facultad-de-Ciencias-Economicas-y-Empresariales,,,,Cercanías Renfe: Cantoblanco Universidad (línea C4).,Cantoblanco Universidad C4,C-4,Cantoblanco Universidad,,,,,,,Sin información sobre accesibilidad para personas con movilidad reducida,FRANCISCO TOMAS Y VALIENTE,5,MADRID,MADRID,28049,EL GOLOSO,FUENCARRAL-EL PARDO,4.054.487.238.078.950,-36.966.067.777.305.700,"914974683
914976951",,/contenido/entidadesYorganismos/Universidades/Facultades,Universidades
Universidad Autónoma de Madrid. Facultad de Derecho,Universidad-Autonoma-de-Madrid.-Facultad-de-Derecho,,,,,,,,,,,,,,Sin información sobre accesibilidad para personas con movilidad reducida,KELSEN,1,MADRID,MADRID,28049,EL GOLOSO,FUENCARRAL-EL PARDO,40.541.584.341.026.000,-36.911.146.791.930.500,"914978118
914972503",informacion.derecho@uam.es,/contenido/entidadesYorganismos/Universidades/Facultades,Universidades
Universidad Autónoma de Madrid. Facultad de Filosofía y Letras,Universidad-Autonoma-de-Madrid.-Facultad-de-Filosofia-y-Letras,,,,Cercanías Renfe: Cantoblanco Universidad (línea C4).,Cantoblanco Universidad C4,C-4,Cantoblanco Universidad,,,,,,,Sin información sobre accesibilidad para personas con movilidad reducida,FRANCISCO TOMAS Y VALIENTE,1,MADRID,MADRID,28049,EL GOLOSO,FUENCARRAL-EL PARDO,40.544.325.916.954.300,-3.698.365.543.129.190,914974354,informacion.filosofia@uam.es,/contenido/entidadesYorganismos/Universidades/Facultades,Universidades
Universidad Autónoma de Madrid. Facultad de Formación de Profesorado y Educación,Universidad-Autonoma-de-Madrid.-Facultad-de-Formacion-de-Profesorado-y-Educacion,,,,Cercanías Renfe: Cantoblanco Universidad (línea C4).,Cantoblanco Universidad C4,C-4,Cantoblanco Universidad,,,,,,,Sin información sobre accesibilidad para personas con movilidad reducida,FRANCISCO TOMAS Y VALIENTE,3,MADRID,MADRID,28049,EL GOLOSO,FUENCARRAL-EL PARDO,4.054.451.020.545.550,-3.697.774.510.862.530,"914974682
914977567",conserjeria.fprofesorado@uam.es,/contenido/entidadesYorganismos/Universidades/Facultades,Universidades
Universidad Autónoma de Madrid. Facultad de Medicina,Universidad-Autonoma-de-Madrid.-Facultad-de-Medicina,,,,Metro: Begoña (línea 10).,,,,Metro: Begoña (línea 10),Begoña,10,,,,Sin información sobre accesibilidad para personas con movilidad reducida,ARZOBISPO MORCILLO,4,MADRID,MADRID,28029,LA PAZ,FUENCARRAL-EL PARDO,404.808.908.842.711,-36.909.106.726.884.600,914975486,informacion.medicina@uam.es,/contenido/entidadesYorganismos/Universidades/Facultades,Universidades
Universidad Autónoma de Madrid. Facultad de Psicología,Universidad-Autonoma-de-Madrid.-Facultad-de-Psicologia,,,,Cercanías Renfe: Cantoblanco Universidad (línea C4).,Cantoblanco Universidad C4,C-4,Cantoblanco Universidad,,,,,,,Sin información sobre accesibilidad para personas con movilidad reducida,IVAN PAVLOV,6,MADRID,MADRID,28049,EL GOLOSO,FUENCARRAL-EL PARDO,40.543.827.683.418.900,-36.924.908.365.072.400,914974434,,/contenido/entidadesYorganismos/Universidades/Facultades,Universidades
Universidad Complutense de Madrid. Centro Complutense para la Enseñanza del Español,Universidad-Complutense-de-Madrid.-Centro-Complutense-para-la-Ensenanza-del-Espanol,,,,Metro: Ciudad Universitaria (línea 6).,,,,Metro: Ciudad Universitaria (línea 6),Ciudad Universitaria,6,,,,Sin información sobre accesibilidad para personas con movilidad reducida,MENENDEZ PELAYO,,MADRID,MADRID,28040,CIUDAD UNIVERSITARIA,MONCLOA-ARAVACA,404.489.838.961.669,-3.730.503.351.852.510,913945325,ceextran@filol.ucm.es,/contenido/entidadesYorganismos/Universidades/OtrosCentrosUniversitarios,Universidades
Universidad Complutense de Madrid. Centro Superior de Idiomas Modernos,Universidad-Complutense-de-Madrid.-Centro-Superior-de-Idiomas-Modernos,,,,Metro: Ciudad Universitaria (línea 6).,,,,Metro: Ciudad Universitaria (línea 6),Ciudad Universitaria,6,,,,Sin información sobre accesibilidad para personas con movilidad reducida,PROFESOR ARANGUREN,,MADRID,MADRID,28040,CIUDAD UNIVERSITARIA,MONCLOA-ARAVACA,40.447.654.037.490.600,-3.732.389.406.635.350,"913947754
913946358
913947813",idiomascomplutense@ucm.es,/contenido/entidadesYorganismos/Universidades/OtrosCentrosUniversitarios,Universidades
Universidad Complutense de Madrid. Escuela Profesional de Medicina Legal y Forense,Universidad-Complutense-de-Madrid.-Escuela-Profesional-de-Medicina-Legal-y-Forense,,,,Metro: Ciudad Universitaria (línea 6).,,,,Metro: Ciudad Universitaria (línea 6),Ciudad Universitaria,6,,,,Sin información sobre accesibilidad para personas con movilidad reducida,COMPLUTENSE,,MADRID,MADRID,28040,CIUDAD UNIVERSITARIA,MONCLOA-ARAVACA,40.443.658.832.937.900,-37.273.650.145.663.600,913941574,emedicin@ucm.es,/contenido/entidadesYorganismos/Universidades/OtrosCentrosUniversitarios,Universidades
Universidad Complutense de Madrid. Escuela Profesional de Relaciones Laborales,Universidad-Complutense-de-Madrid.-Escuela-Profesional-de-Relaciones-Laborales,,,,"Metro: Noviciado (línea 2), Plaza de España (líneas 3 y 10).",,,,"Metro: Noviciado (línea 2), Plaza de España (líneas 3 y 10)","Noviciado , Plaza de España","2
3
10",,,,Sin información sobre accesibilidad para personas con movilidad reducida,SAN BERNARDO,49,MADRID,MADRID,28015,UNIVERSIDAD,CENTRO,40.424.857.288.787.600,-37.075.073.443.351.600,913946625,,/contenido/entidadesYorganismos/Universidades/OtrosCentrosUniversitarios,Universidades
Universidad Complutense de Madrid. Facultad de Bellas Artes,Universidad-Complutense-de-Madrid.-Facultad-de-Bellas-Artes,,,,Metro: Ciudad Universitaria (línea 6).,,,,Metro: Ciudad Universitaria (línea 6),Ciudad Universitaria,6,,,,Sin información sobre accesibilidad para personas con movilidad reducida,PINTOR EL GRECO,2,MADRID,MADRID,28040,CIUDAD UNIVERSITARIA,MONCLOA-ARAVACA,4.043.924.887.699.430,-37.339.441.902.245.900,913943560,safba@ucm.es,/contenido/entidadesYorganismos/Universidades/Facultades,Universidades
Universidad Complutense de Madrid. Facultad de Ciencias Biológicas,Universidad-Complutense-de-Madrid.-Facultad-de-Ciencias-Biologicas,,,,Metro: Ciudad Universitaria (línea 6).,,,,Metro: Ciudad Universitaria (línea 6),Ciudad Universitaria,6,,,,Sin información sobre accesibilidad para personas con movilidad reducida,JOSE ANTONIO NOVAIS,12,MADRID,MADRID,28040,CIUDAD UNIVERSITARIA,MONCLOA-ARAVACA,4.044.860.689.706.260,-37.257.076.188.100.300,913945066,infobio@ucm.es,/contenido/entidadesYorganismos/Universidades/Facultades,Universidades
Universidad Complutense de Madrid. Facultad de Ciencias de la Documentación,Universidad-Complutense-de-Madrid.-Facultad-de-Ciencias-de-la-Documentacion,,,,"Metro: Alonso Cano (línea 7), Canal (líneas 2 y 7), Rios Rosas (línea 1).",,,,"Metro: Alonso Cano (línea 7), Canal (líneas 2 y 7), Rios Rosas (línea 1)","Alonso Cano , Canal , Rios Rosas","7
2
1",,,,Sin información sobre accesibilidad para personas con movilidad reducida,SANTISIMA TRINIDAD,37,MADRID,MADRID,28010,TRAFALGAR,CHAMBERI,40.438.157.283.286.600,-3.701.196.886.214.340,"913946671
913946662",infccdoc@ucm.es,/contenido/entidadesYorganismos/Universidades/Facultades,Universidades
Universidad Complutense de Madrid. Facultad de Ciencias de la Información,Universidad-Complutense-de-Madrid.-Facultad-de-Ciencias-de-la-Informacion,,,,Metro: Ciudad Universitaria (línea 6).,,,,Metro: Ciudad Universitaria (línea 6),Ciudad Universitaria,6,,,,Sin información sobre accesibilidad para personas con movilidad reducida,COMPLUTENSE,,MADRID,MADRID,28040,CIUDAD UNIVERSITARIA,MONCLOA-ARAVACA,40.443.658.832.937.900,-37.273.650.145.663.600,913942220,,/contenido/entidadesYorganismos/Universidades/Facultades,Universidades
Universidad Complutense de Madrid. Facultad de Ciencias Físicas,Universidad-Complutense-de-Madrid.-Facultad-de-Ciencias-Fisicas,,,,Metro: Ciudad Universitaria (línea 6).,,,,Metro: Ciudad Universitaria (línea 6),Ciudad Universitaria,6,,,,Sin información sobre accesibilidad para personas con movilidad reducida,CIENCIAS,1,MADRID,MADRID,28040,CIUDAD UNIVERSITARIA,MONCLOA-ARAVACA,40.450.777.002.534.800,-37.260.915.899.587.600,"913944648
913944627",infofisicas@ucm.es,/contenido/entidadesYorganismos/Universidades/Facultades,Universidades
Universidad Complutense de Madrid. Facultad de Ciencias Geológicas,Universidad-Complutense-de-Madrid.-Facultad-de-Ciencias-Geologicas,,,,Metro: Ciudad Universitaria (línea 6).,,,,Metro: Ciudad Universitaria (línea 6),Ciudad Universitaria,6,,,,Sin información sobre accesibilidad para personas con movilidad reducida,JOSE ANTONIO NOVAIS,12,MADRID,MADRID,28040,CIUDAD UNIVERSITARIA,MONCLOA-ARAVACA,4.044.860.689.706.260,-37.257.076.188.100.300,"913944837
913945109",infoweb@geo.ucm.es,/contenido/entidadesYorganismos/Universidades/Facultades,Universidades
Universidad Complutense de Madrid. Facultad de Ciencias Matemáticas,Universidad-Complutense-de-Madrid.-Facultad-de-Ciencias-Matematicas,,,,Metro: Ciudad Universitaria (línea 6).,,,,Metro: Ciudad Universitaria (línea 6),Ciudad Universitaria,6,,,,Sin información sobre accesibilidad para personas con movilidad reducida,CIENCIAS,3,MADRID,MADRID,28040,CIUDAD UNIVERSITARIA,MONCLOA-ARAVACA,4.044.945.850.908.750,-37.259.383.636.708.400,913944624,solicitudesmat@ucm.es,/contenido/entidadesYorganismos/Universidades/Facultades,Universidades
Universidad Complutense de Madrid. Facultad de Ciencias Químicas,Universidad-Complutense-de-Madrid.-Facultad-de-Ciencias-Quimicas,,,,Metro: Ciudad Universitaria (línea 6).,,,,Metro: Ciudad Universitaria (línea 6),Ciudad Universitaria,6,,,,Sin información sobre accesibilidad para personas con movilidad reducida,CIENCIAS,2,MADRID,MADRID,28040,CIUDAD UNIVERSITARIA,MONCLOA-ARAVACA,4.045.059.008.963.720,-372.544.215.024.058,"913944293
913944296",salquim@ucm.es,/contenido/entidadesYorganismos/Universidades/Facultades,Universidades
Universidad Complutense de Madrid. Facultad de Comercio y Turismo,Universidad-Complutense-de-Madrid.-Facultad-de-Comercio-y-Turismo,,,,Metro: Islas Filipinas (línea 7).,,,,Metro: Islas Filipinas (línea 7),Islas Filipinas,7,,,,Sin información sobre accesibilidad para personas con movilidad reducida,FILIPINAS,3,MADRID,MADRID,28003,VALLEHERMOSO,CHAMBERI,4.043.972.279.736.290,-37.115.000.631.943.800,913946767,,/contenido/entidadesYorganismos/Universidades/Facultades,Universidades
Universidad Complutense de Madrid. Facultad de Derecho,Universidad-Complutense-de-Madrid.-Facultad-de-Derecho,,,,Metro: Ciudad Universitaria (línea 6).,,,,Metro: Ciudad Universitaria (línea 6),Ciudad Universitaria,6,,,,Sin información sobre accesibilidad para personas con movilidad reducida,COMPLUTENSE,,MADRID,MADRID,28040,CIUDAD UNIVERSITARIA,MONCLOA-ARAVACA,40.443.658.832.937.900,-37.273.650.145.663.600,913945428,,/contenido/entidadesYorganismos/Universidades/Facultades,Universidades
Universidad Complutense de Madrid. Facultad de Educación - Centro de Formación del Profesorado,Universidad-Complutense-de-Madrid.-Facultad-de-Educacion---Centro-de-Formacion-del-Profesorado,,,,"Metro: Vicente Aleixandre (línea 6), Francos Rodríguez (línea 7) Guzmán el Bueno (líneas 6 y 7).",,,,"Metro: Vicente Aleixandre (línea 6), Francos Rodríguez (línea 7) Guzmán el Bueno (líneas 6 y 7)","Vicente Aleixandre , Francos Rodríguez  Guzmán el Bueno","6
7",,,,Sin información sobre accesibilidad para personas con movilidad reducida,RECTOR ROYO-VILLANOVA,1,MADRID,MADRID,28040,CIUDAD UNIVERSITARIA,MONCLOA-ARAVACA,4.045.009.595.969.180,-37.173.415.690.104.500,"913946136
913946132
913946311
913946209
913946119",secre.alumnos@edu.ucm.es,/contenido/entidadesYorganismos/Universidades/Facultades,Universidades
"Universidad Complutense de Madrid. Facultad de Enfermería, Fisioterapia y Podología","Universidad-Complutense-de-Madrid.-Facultad-de-Enfermeria,-Fisioterapia-y-Podologia",,,,Metro: Ciudad Universitaria (línea 6).,,,,Metro: Ciudad Universitaria (línea 6),Ciudad Universitaria,6,,,,Sin información sobre accesibilidad para personas con movilidad reducida,RAMON Y CAJAL,3,MADRID,MADRID,28040,CIUDAD UNIVERSITARIA,MONCLOA-ARAVACA,4.044.388.989.111.180,-3.725.275.188.293.440,"913941536
913941530
913941648",secre.alumnos@enf.ucm.es,/contenido/entidadesYorganismos/Universidades/Facultades,Universidades
Universidad Complutense de Madrid. Facultad de Estudios Estadísticos,Universidad-Complutense-de-Madrid.-Facultad-de-Estudios-Estadisticos,,,,Metro: Ciudad Universitaria (línea 6).,,,,Metro: Ciudad Universitaria (línea 6),Ciudad Universitaria,6,,,,Sin información sobre accesibilidad para personas con movilidad reducida,PUERTA DE HIERRO,,MADRID,MADRID,28040,CIUDAD UNIVERSITARIA,MONCLOA-ARAVACA,4.044.737.250.847.300,-37.365.294.545.551.700,"913944004
913944064",pgweb@estad.ucm.es,/contenido/entidadesYorganismos/Universidades/Facultades,Universidades
Universidad Complutense de Madrid. Facultad de Farmacia,Universidad-Complutense-de-Madrid.-Facultad-de-Farmacia,,,,Metro: Ciudad Universitaria (línea 6).,,,,Metro: Ciudad Universitaria (línea 6),Ciudad Universitaria,6,,,,Sin información sobre accesibilidad para personas con movilidad reducida,RAMON Y CAJAL,,MADRID,MADRID,28040,CIUDAD UNIVERSITARIA,MONCLOA-ARAVACA,4.044.451.127.873.060,-37.262.019.812.409.100,"913947219
913941705",salfarm@ucm.es,/contenido/entidadesYorganismos/Universidades/Facultades,Universidades
Universidad Complutense de Madrid. Facultad de Filología,Universidad-Complutense-de-Madrid.-Facultad-de-Filologia,,,,Metro: Ciudad Universitaria (línea 6).,,,,Metro: Ciudad Universitaria (línea 6),Ciudad Universitaria,6,,,,Sin información sobre accesibilidad para personas con movilidad reducida,MENENDEZ PELAYO,,MADRID,MADRID,28040,CIUDAD UNIVERSITARIA,MONCLOA-ARAVACA,404.489.838.961.669,-3.730.503.351.852.510,"913945344
913945345
913945299",alumnos-filologia@ucm.es / doctoradofilologia@ucm.es,/contenido/entidadesYorganismos/Universidades/Facultades,Universidades
Universidad Complutense de Madrid. Facultad de Filosofía,Universidad-Complutense-de-Madrid.-Facultad-de-Filosofia,,,,"Metro: Ciudad Universitaria (Línea 6)  Bus: 132, 82, F, G, U",,,,Metro: Ciudad Universitaria (Línea 6),Ciudad Universitaria,6,"Bus: 132, 82, F, G, U","132
82",,Sin información sobre accesibilidad para personas con movilidad reducida,MENENDEZ PELAYO,,MADRID,MADRID,28040,CIUDAD UNIVERSITARIA,MONCLOA-ARAVACA,404.489.838.961.669,-3.730.503.351.852.510,"913945982
913946049
913946058
913946057",salfilos@ucm.es,/contenido/entidadesYorganismos/Universidades/Facultades,Universidades
Universidad Complutense de Madrid. Facultad de Geografía e Historia,Universidad-Complutense-de-Madrid.-Facultad-de-Geografia-e-Historia,,,,Metro: Ciudad Universitaria (línea 6).,,,,Metro: Ciudad Universitaria (línea 6),Ciudad Universitaria,6,,,,Sin información sobre accesibilidad para personas con movilidad reducida,PROFESOR ARANGUREN,,MADRID,MADRID,28040,CIUDAD UNIVERSITARIA,MONCLOA-ARAVACA,40.447.654.037.490.600,-3.732.389.406.635.350,"913945990
913945991
913945994",secretariagh@ucm.es,/contenido/entidadesYorganismos/Universidades/Facultades,Universidades
Universidad Complutense de Madrid. Facultad de Informática,Universidad-Complutense-de-Madrid.-Facultad-de-Informatica,,,,Metro: Ciudad Universitaria (línea 6).,,,,Metro: Ciudad Universitaria (línea 6),Ciudad Universitaria,6,,,,Sin información sobre accesibilidad para personas con movilidad reducida,PROFESOR JOSE GARCIA SANTESMASES,9,MADRID,MADRID,28040,CIUDAD UNIVERSITARIA,MONCLOA-ARAVACA,40.453.077.067.733.500,-3.733.826.683.733.910,"913947505
913947504",salfdi@ucm.es,/contenido/entidadesYorganismos/Universidades/Facultades,Universidades
Universidad Complutense de Madrid. Facultad de Medicina,Universidad-Complutense-de-Madrid.-Facultad-de-Medicina,,,,Metro: Ciudad Universitaria (línea 6).,,,,Metro: Ciudad Universitaria (línea 6),Ciudad Universitaria,6,,,,Sin información sobre accesibilidad para personas con movilidad reducida,RAMON Y CAJAL,,MADRID,MADRID,28040,CIUDAD UNIVERSITARIA,MONCLOA-ARAVACA,4.044.451.127.873.060,-37.262.019.812.409.100,913941307,decmed@ucm.es,/contenido/entidadesYorganismos/Universidades/Facultades,Universidades
Universidad Complutense de Madrid. Facultad de Odontología,Universidad-Complutense-de-Madrid.-Facultad-de-Odontologia,,,,Metro: Ciudad Universitaria (línea 6).,,,,Metro: Ciudad Universitaria (línea 6),Ciudad Universitaria,6,,,,Sin información sobre accesibilidad para personas con movilidad reducida,RAMON Y CAJAL,,MADRID,MADRID,28040,CIUDAD UNIVERSITARIA,MONCLOA-ARAVACA,4.044.451.127.873.060,-37.262.019.812.409.100,913941920,infodon@pas.ucm.es,/contenido/entidadesYorganismos/Universidades/Facultades,Universidades
Universidad Complutense de Madrid. Facultad de Óptica y Optometría,Universidad-Complutense-de-Madrid.-Facultad-de-optica-y-Optometria,,,,"Metro: San Blas (línea 7), Avenida de Guadalajara (línea 2).",,,,"Metro: San Blas (línea 7), Avenida de Guadalajara (línea 2)","San Blas , Avenida de Guadalajara","7
2",,,,Sin información sobre accesibilidad para personas con movilidad reducida,ARCOS DE JALON,118,MADRID,MADRID,28037,ARCOS,SAN BLAS-CANILLEJAS,4.042.597.819.309.270,-36.140.011.950.615.600,913946876,infopt@ucm.es,/contenido/entidadesYorganismos/Universidades/Facultades,Universidades
Universidad Complutense de Madrid. Facultad de Veterinaria,Universidad-Complutense-de-Madrid.-Facultad-de-Veterinaria,,,,Metro: Ciudad Universitaria (línea 6).,,,,Metro: Ciudad Universitaria (línea 6),Ciudad Universitaria,6,,,,Sin información sobre accesibilidad para personas con movilidad reducida,PUERTA DE HIERRO,,MADRID,MADRID,28040,CIUDAD UNIVERSITARIA,MONCLOA-ARAVACA,4.044.737.250.847.300,-37.365.294.545.551.700,"913943876
913943882",gervet@ucm.es,/contenido/entidadesYorganismos/Universidades/Facultades,Universidades
Universidad Complutense. Hospital Clínico Veterinario,Universidad-Complutense.-Hospital-Clinico-Veterinario,,,,Metro: Ciudad Universitaria (línea 6).,,,,Metro: Ciudad Universitaria (línea 6),Ciudad Universitaria,6,,,,Sin información sobre accesibilidad para personas con movilidad reducida,PUERTA DE HIERRO,1,MADRID,MADRID,28040,CIUDAD UNIVERSITARIA,MONCLOA-ARAVACA,4.044.737.250.847.300,-37.365.294.545.551.700,,hcvucm@ucm.es,/contenido/entidadesYorganismos/ClinicasCentrosVeterinarios,ClinicasCentrosVeterinarios
Universidad Nacional de Educación a Distancia (UNED). Centro Asociado Madrid - Escuelas Pías,Universidad-Nacional-de-Educacion-a-Distancia-(UNED).-Centro-Asociado-Madrid---Escuelas-Pias,,,,Metro: Lavapiés (línea 3).  Cercanías Renfe: Embajadores (línea C5).,Renfe: Embajadores (línea C5),C-5,Embajadores,Metro: Lavapiés (línea 3),Lavapiés,3,,,,Sin información sobre accesibilidad para personas con movilidad reducida,TRIBULETE,14,MADRID,MADRID,28012,EMBAJADORES,CENTRO,404.077.959.539.866,-37.025.893.902.054.000,"914675871
914675522
922",info.escuelaspias@madrid.uned.es,/contenido/entidadesYorganismos/Universidades/Facultades,Universidades
Universidad Nacional de Educación a Distancia (UNED). Centro Asociado Madrid - Gregorio Marañón,Universidad-Nacional-de-Educacion-a-Distancia-(UNED).-Centro-Asociado-Madrid---Gregorio-Maranon,,,,Metro: Lavapiés (línea 3).  Cercanías Renfe: Embajadores (línea C5).,Renfe: Embajadores (línea C5),C-5,Embajadores,Metro: Lavapiés (línea 3),Lavapiés,3,,,,Sin información sobre accesibilidad para personas con movilidad reducida,ARGUMOSA,3,MADRID,MADRID,28012,EMBAJADORES,CENTRO,40.408.447.184.626.100,-37.001.742.404.603.100,"915270665
915399747
922",info.gmaranon@madrid.uned.es,/contenido/entidadesYorganismos/Universidades/Facultades,Universidades
Universidad Nacional de Educación a Distancia (UNED). Centro Asociado Madrid - Jacinto Verdaguer,Universidad-Nacional-de-Educacion-a-Distancia-(UNED).-Centro-Asociado-Madrid---Jacinto-Verdaguer,,,,Metro: Aviación Española (línea 10).  Cercanías Renfe: Las Águilas (línea C5).,Renfe: Las Águilas (línea C5),C-5,Las Águilas,Metro: Aviación Española (línea 10),Aviación Española,10,,,,Sin información sobre accesibilidad para personas con movilidad reducida,FUENTE DE LIMA,22,MADRID,MADRID,28024,LAS AGUILAS,LATINA,4.038.278.645.640.310,-37.824.021.083.869.600,917106155,info.jverdaguer@madrid.uned.es,/contenido/entidadesYorganismos/Universidades/Facultades,Universidades
Universidad Nacional de Educación a Distancia (UNED). Centro Asociado Madrid - Las Tablas,Universidad-Nacional-de-Educacion-a-Distancia-(UNED).-Centro-Asociado-Madrid---Las-Tablas,,,,"Metro: Las Tablas (línea 10), Palas de Rey (línea ML1).",,,,"Metro: Las Tablas (línea 10), Palas de Rey (línea ML1)","Las Tablas , Palas de Rey","10
1",,,,Sin información sobre accesibilidad para personas con movilidad reducida,SANTO DOMINGO DE LA CALZADA,9,MADRID,MADRID,28050,VALVERDE,FUENCARRAL-EL PARDO,40.504.821.065.488,-36.658.596.724.706.100,"913074730
913074733",info.lastablas@madrid.uned.es,/contenido/entidadesYorganismos/Universidades/Facultades,Universidades
Universidad Nacional de Educación a Distancia (UNED). Centro Universitario de Idiomas a Distancia (CUID),Universidad-Nacional-de-Educacion-a-Distancia-(UNED).-Centro-Universitario-de-Idiomas-a-Distancia-(CUID),,,,Metro: Lavapiés (línea 3).  Cercanías Renfe: Embajadores (línea C5).,Renfe: Embajadores (línea C5),C-5,Embajadores,Metro: Lavapiés (línea 3),Lavapiés,3,,,,Sin información sobre accesibilidad para personas con movilidad reducida,TRIBULETE,14,MADRID,MADRID,28012,EMBAJADORES,CENTRO,404.077.959.539.866,-37.025.893.902.054.000,914203912,info.cuid@madrid.uned.es,/contenido/entidadesYorganismos/Universidades/Facultades,Universidades
